<?xml version="1.0" encoding="UTF-8"?>
<gpx version="1.1" creator="cit" xmlns="http://www.topografix.com/GPX/1/1">
<trk><name>MR - Gravel 2 - Medium</name><trkseg>
<trkpt lat="43.147183" lon="10.856119"><ele>514.7</ele></trkpt>
<trkpt lat="43.147134" lon="10.856161"><ele>514.6</ele></trkpt>
<trkpt lat="43.147089" lon="10.856197"><ele>514.6</ele></trkpt>
<trkpt lat="43.147242" lon="10.856089"><ele>514.6</ele></trkpt>
<trkpt lat="43.147282" lon="10.856053"><ele>514.5</ele></trkpt>
<trkpt lat="43.147332" lon="10.855987"><ele>514.5</ele></trkpt>
<trkpt lat="43.147399" lon="10.855903"><ele>514.3</ele></trkpt>
<trkpt lat="43.147449" lon="10.855813"><ele>513.5</ele></trkpt>
<trkpt lat="43.147475" lon="10.855765"><ele>513.0</ele></trkpt>
<trkpt lat="43.147538" lon="10.855695"><ele>511.9</ele></trkpt>
<trkpt lat="43.147712" lon="10.855401"><ele>507.9</ele></trkpt>
<trkpt lat="43.148018" lon="10.855155"><ele>504.2</ele></trkpt>
<trkpt lat="43.14841" lon="10.854904"><ele>501.0</ele></trkpt>
<trkpt lat="43.148717" lon="10.854612"><ele>497.2</ele></trkpt>
<trkpt lat="43.148789" lon="10.854167"><ele>492.3</ele></trkpt>
<trkpt lat="43.148761" lon="10.853675"><ele>494.4</ele></trkpt>
<trkpt lat="43.148539" lon="10.853457"><ele>492.5</ele></trkpt>
<trkpt lat="43.14841" lon="10.853343"><ele>491.6</ele></trkpt>
<trkpt lat="43.148418" lon="10.853186"><ele>493.7</ele></trkpt>
<trkpt lat="43.148422" lon="10.853156"><ele>494.2</ele></trkpt>
<trkpt lat="43.148421" lon="10.853155"><ele>494.2</ele></trkpt>
<trkpt lat="43.148415" lon="10.853153"><ele>494.1</ele></trkpt>
<trkpt lat="43.148418" lon="10.8531"><ele>494.9</ele></trkpt>
<trkpt lat="43.148305" lon="10.852697"><ele>498.7</ele></trkpt>
<trkpt lat="43.14779" lon="10.852219"><ele>499.4</ele></trkpt>
<trkpt lat="43.147427" lon="10.851408"><ele>501.9</ele></trkpt>
<trkpt lat="43.147459" lon="10.850605"><ele>504.1</ele></trkpt>
<trkpt lat="43.147894" lon="10.849997"><ele>511.2</ele></trkpt>
<trkpt lat="43.147903" lon="10.849027"><ele>510.5</ele></trkpt>
<trkpt lat="43.147666" lon="10.848116"><ele>506.6</ele></trkpt>
<trkpt lat="43.147591" lon="10.847114"><ele>501.8</ele></trkpt>
<trkpt lat="43.147822" lon="10.846358"><ele>499.6</ele></trkpt>
<trkpt lat="43.14815" lon="10.845546"><ele>496.4</ele></trkpt>
<trkpt lat="43.148492" lon="10.844741"><ele>492.8</ele></trkpt>
<trkpt lat="43.148917" lon="10.843989"><ele>488.9</ele></trkpt>
<trkpt lat="43.149263" lon="10.843175"><ele>483.0</ele></trkpt>
<trkpt lat="43.149597" lon="10.8422"><ele>476.0</ele></trkpt>
<trkpt lat="43.150117" lon="10.841497"><ele>473.5</ele></trkpt>
<trkpt lat="43.150829" lon="10.841217"><ele>475.3</ele></trkpt>
<trkpt lat="43.151558" lon="10.841172"><ele>481.0</ele></trkpt>
<trkpt lat="43.152106" lon="10.840575"><ele>471.8</ele></trkpt>
<trkpt lat="43.152708" lon="10.839885"><ele>469.5</ele></trkpt>
<trkpt lat="43.153166" lon="10.839404"><ele>469.3</ele></trkpt>
<trkpt lat="43.153546" lon="10.83911"><ele>471.4</ele></trkpt>
<trkpt lat="43.153878" lon="10.838498"><ele>466.8</ele></trkpt>
<trkpt lat="43.154154" lon="10.837771"><ele>456.6</ele></trkpt>
<trkpt lat="43.154496" lon="10.837238"><ele>449.2</ele></trkpt>
<trkpt lat="43.15491" lon="10.836715"><ele>445.5</ele></trkpt>
<trkpt lat="43.155263" lon="10.836255"><ele>444.6</ele></trkpt>
<trkpt lat="43.155592" lon="10.835855"><ele>444.4</ele></trkpt>
<trkpt lat="43.155936" lon="10.835541"><ele>443.4</ele></trkpt>
<trkpt lat="43.156265" lon="10.835284"><ele>441.2</ele></trkpt>
<trkpt lat="43.156638" lon="10.835023"><ele>434.4</ele></trkpt>
<trkpt lat="43.156972" lon="10.834955"><ele>431.9</ele></trkpt>
<trkpt lat="43.157309" lon="10.834932"><ele>428.8</ele></trkpt>
<trkpt lat="43.157552" lon="10.834913"><ele>426.4</ele></trkpt>
<trkpt lat="43.157627" lon="10.834917"><ele>425.8</ele></trkpt>
<trkpt lat="43.157626" lon="10.834915"><ele>425.8</ele></trkpt>
<trkpt lat="43.157628" lon="10.834911"><ele>425.7</ele></trkpt>
<trkpt lat="43.157631" lon="10.83491"><ele>425.7</ele></trkpt>
<trkpt lat="43.157633" lon="10.834911"><ele>425.7</ele></trkpt>
<trkpt lat="43.157636" lon="10.834913"><ele>425.7</ele></trkpt>
<trkpt lat="43.157636" lon="10.834907"><ele>425.6</ele></trkpt>
<trkpt lat="43.157644" lon="10.834888"><ele>425.3</ele></trkpt>
<trkpt lat="43.157731" lon="10.834859"><ele>424.3</ele></trkpt>
<trkpt lat="43.157854" lon="10.834819"><ele>423.0</ele></trkpt>
<trkpt lat="43.157997" lon="10.834704"><ele>421.6</ele></trkpt>
<trkpt lat="43.15801" lon="10.834458"><ele>419.5</ele></trkpt>
<trkpt lat="43.158007" lon="10.834127"><ele>417.0</ele></trkpt>
<trkpt lat="43.158006" lon="10.83383"><ele>415.1</ele></trkpt>
<trkpt lat="43.158001" lon="10.833657"><ele>414.0</ele></trkpt>
<trkpt lat="43.157993" lon="10.833357"><ele>412.0</ele></trkpt>
<trkpt lat="43.157997" lon="10.833095"><ele>409.5</ele></trkpt>
<trkpt lat="43.157991" lon="10.832813"><ele>406.8</ele></trkpt>
<trkpt lat="43.157977" lon="10.832559"><ele>404.5</ele></trkpt>
<trkpt lat="43.157974" lon="10.832334"><ele>403.2</ele></trkpt>
<trkpt lat="43.157972" lon="10.832098"><ele>401.8</ele></trkpt>
<trkpt lat="43.157966" lon="10.831819"><ele>400.2</ele></trkpt>
<trkpt lat="43.157963" lon="10.831558"><ele>399.3</ele></trkpt>
<trkpt lat="43.157961" lon="10.831341"><ele>398.8</ele></trkpt>
<trkpt lat="43.157958" lon="10.831101"><ele>398.2</ele></trkpt>
<trkpt lat="43.157953" lon="10.830906"><ele>397.8</ele></trkpt>
<trkpt lat="43.157945" lon="10.830744"><ele>396.3</ele></trkpt>
<trkpt lat="43.157916" lon="10.830696"><ele>395.9</ele></trkpt>
<trkpt lat="43.157902" lon="10.830696"><ele>395.9</ele></trkpt>
<trkpt lat="43.157836" lon="10.830693"><ele>395.7</ele></trkpt>
<trkpt lat="43.157702" lon="10.830664"><ele>394.3</ele></trkpt>
<trkpt lat="43.157625" lon="10.830602"><ele>393.0</ele></trkpt>
<trkpt lat="43.157529" lon="10.8305"><ele>391.2</ele></trkpt>
<trkpt lat="43.157381" lon="10.830459"><ele>389.6</ele></trkpt>
<trkpt lat="43.157192" lon="10.830478"><ele>388.2</ele></trkpt>
<trkpt lat="43.156922" lon="10.830483"><ele>385.6</ele></trkpt>
<trkpt lat="43.15668" lon="10.830485"><ele>382.9</ele></trkpt>
<trkpt lat="43.156427" lon="10.830481"><ele>380.0</ele></trkpt>
<trkpt lat="43.15612" lon="10.830573"><ele>377.0</ele></trkpt>
<trkpt lat="43.155841" lon="10.830836"><ele>375.1</ele></trkpt>
<trkpt lat="43.155716" lon="10.831124"><ele>374.6</ele></trkpt>
<trkpt lat="43.15567" lon="10.831328"><ele>374.8</ele></trkpt>
<trkpt lat="43.155641" lon="10.831358"><ele>374.5</ele></trkpt>
<trkpt lat="43.155617" lon="10.831354"><ele>374.1</ele></trkpt>
<trkpt lat="43.155587" lon="10.831324"><ele>373.5</ele></trkpt>
<trkpt lat="43.155474" lon="10.831116"><ele>370.3</ele></trkpt>
<trkpt lat="43.155464" lon="10.830809"><ele>367.4</ele></trkpt>
<trkpt lat="43.155509" lon="10.830464"><ele>363.4</ele></trkpt>
<trkpt lat="43.155661" lon="10.830181"><ele>362.4</ele></trkpt>
<trkpt lat="43.155879" lon="10.830162"><ele>366.6</ele></trkpt>
<trkpt lat="43.155987" lon="10.829887"><ele>362.5</ele></trkpt>
<trkpt lat="43.156164" lon="10.829667"><ele>359.7</ele></trkpt>
<trkpt lat="43.156445" lon="10.829398"><ele>357.2</ele></trkpt>
<trkpt lat="43.15672" lon="10.829116"><ele>356.0</ele></trkpt>
<trkpt lat="43.156852" lon="10.828898"><ele>353.6</ele></trkpt>
<trkpt lat="43.156877" lon="10.828617"><ele>347.7</ele></trkpt>
<trkpt lat="43.156707" lon="10.828697"><ele>346.8</ele></trkpt>
<trkpt lat="43.156481" lon="10.828927"><ele>347.7</ele></trkpt>
<trkpt lat="43.15622" lon="10.829004"><ele>344.4</ele></trkpt>
<trkpt lat="43.15596" lon="10.828954"><ele>339.4</ele></trkpt>
<trkpt lat="43.155735" lon="10.829131"><ele>338.9</ele></trkpt>
<trkpt lat="43.155587" lon="10.829002"><ele>334.4</ele></trkpt>
<trkpt lat="43.155752" lon="10.828797"><ele>333.5</ele></trkpt>
<trkpt lat="43.155978" lon="10.828578"><ele>333.4</ele></trkpt>
<trkpt lat="43.155996" lon="10.828291"><ele>329.3</ele></trkpt>
<trkpt lat="43.156011" lon="10.828"><ele>326.0</ele></trkpt>
<trkpt lat="43.156082" lon="10.827736"><ele>323.6</ele></trkpt>
<trkpt lat="43.156135" lon="10.827625"><ele>322.8</ele></trkpt>
<trkpt lat="43.156149" lon="10.8276"><ele>322.7</ele></trkpt>
<trkpt lat="43.156173" lon="10.827549"><ele>322.4</ele></trkpt>
<trkpt lat="43.156173" lon="10.827493"><ele>321.8</ele></trkpt>
<trkpt lat="43.156167" lon="10.827428"><ele>321.0</ele></trkpt>
<trkpt lat="43.156137" lon="10.827278"><ele>319.1</ele></trkpt>
<trkpt lat="43.156098" lon="10.827012"><ele>316.0</ele></trkpt>
<trkpt lat="43.15606" lon="10.826715"><ele>312.8</ele></trkpt>
<trkpt lat="43.156009" lon="10.826372"><ele>310.5</ele></trkpt>
<trkpt lat="43.155944" lon="10.826002"><ele>307.9</ele></trkpt>
<trkpt lat="43.155899" lon="10.825658"><ele>306.0</ele></trkpt>
<trkpt lat="43.155867" lon="10.825428"><ele>304.9</ele></trkpt>
<trkpt lat="43.155758" lon="10.825119"><ele>303.0</ele></trkpt>
<trkpt lat="43.155642" lon="10.82484"><ele>300.0</ele></trkpt>
<trkpt lat="43.155568" lon="10.824499"><ele>296.4</ele></trkpt>
<trkpt lat="43.155494" lon="10.824173"><ele>292.8</ele></trkpt>
<trkpt lat="43.155398" lon="10.823833"><ele>288.2</ele></trkpt>
<trkpt lat="43.155323" lon="10.823543"><ele>284.2</ele></trkpt>
<trkpt lat="43.155268" lon="10.823281"><ele>281.1</ele></trkpt>
<trkpt lat="43.155193" lon="10.82295"><ele>277.9</ele></trkpt>
<trkpt lat="43.155106" lon="10.822631"><ele>274.8</ele></trkpt>
<trkpt lat="43.155029" lon="10.822311"><ele>271.6</ele></trkpt>
<trkpt lat="43.154864" lon="10.822072"><ele>268.3</ele></trkpt>
<trkpt lat="43.154587" lon="10.822124"><ele>267.0</ele></trkpt>
<trkpt lat="43.15455" lon="10.821806"><ele>263.7</ele></trkpt>
<trkpt lat="43.15472" lon="10.821521"><ele>261.8</ele></trkpt>
<trkpt lat="43.154915" lon="10.82121"><ele>259.4</ele></trkpt>
<trkpt lat="43.155063" lon="10.820912"><ele>256.5</ele></trkpt>
<trkpt lat="43.154945" lon="10.820631"><ele>252.3</ele></trkpt>
<trkpt lat="43.154634" lon="10.820562"><ele>250.2</ele></trkpt>
<trkpt lat="43.154256" lon="10.82051"><ele>248.4</ele></trkpt>
<trkpt lat="43.153985" lon="10.820337"><ele>247.0</ele></trkpt>
<trkpt lat="43.153726" lon="10.82018"><ele>246.9</ele></trkpt>
<trkpt lat="43.153482" lon="10.820023"><ele>244.9</ele></trkpt>
<trkpt lat="43.153239" lon="10.81985"><ele>242.6</ele></trkpt>
<trkpt lat="43.152999" lon="10.81965"><ele>241.1</ele></trkpt>
<trkpt lat="43.152844" lon="10.819348"><ele>240.4</ele></trkpt>
<trkpt lat="43.152701" lon="10.819037"><ele>237.1</ele></trkpt>
<trkpt lat="43.152554" lon="10.818731"><ele>233.4</ele></trkpt>
<trkpt lat="43.152404" lon="10.818433"><ele>229.9</ele></trkpt>
<trkpt lat="43.152257" lon="10.818121"><ele>226.1</ele></trkpt>
<trkpt lat="43.152097" lon="10.81777"><ele>222.4</ele></trkpt>
<trkpt lat="43.151915" lon="10.817394"><ele>219.1</ele></trkpt>
<trkpt lat="43.151753" lon="10.817054"><ele>216.3</ele></trkpt>
<trkpt lat="43.15161" lon="10.816759"><ele>214.0</ele></trkpt>
<trkpt lat="43.151476" lon="10.816474"><ele>211.8</ele></trkpt>
<trkpt lat="43.151317" lon="10.816148"><ele>209.5</ele></trkpt>
<trkpt lat="43.151182" lon="10.815857"><ele>207.6</ele></trkpt>
<trkpt lat="43.151065" lon="10.815605"><ele>206.2</ele></trkpt>
<trkpt lat="43.150953" lon="10.815323"><ele>204.7</ele></trkpt>
<trkpt lat="43.150917" lon="10.815086"><ele>203.6</ele></trkpt>
<trkpt lat="43.150955" lon="10.814979"><ele>203.4</ele></trkpt>
<trkpt lat="43.150959" lon="10.814976"><ele>203.4</ele></trkpt>
<trkpt lat="43.150957" lon="10.814978"><ele>203.4</ele></trkpt>
<trkpt lat="43.150956" lon="10.81498"><ele>203.5</ele></trkpt>
<trkpt lat="43.150968" lon="10.814979"><ele>203.5</ele></trkpt>
<trkpt lat="43.150946" lon="10.814951"><ele>203.4</ele></trkpt>
<trkpt lat="43.15095" lon="10.814955"><ele>203.4</ele></trkpt>
<trkpt lat="43.151236" lon="10.815028"><ele>203.9</ele></trkpt>
<trkpt lat="43.151718" lon="10.815039"><ele>204.4</ele></trkpt>
<trkpt lat="43.152187" lon="10.815039"><ele>204.8</ele></trkpt>
<trkpt lat="43.152593" lon="10.815107"><ele>205.2</ele></trkpt>
<trkpt lat="43.152879" lon="10.815648"><ele>209.1</ele></trkpt>
<trkpt lat="43.15323" lon="10.816291"><ele>214.7</ele></trkpt>
<trkpt lat="43.153803" lon="10.816341"><ele>216.7</ele></trkpt>
<trkpt lat="43.154322" lon="10.816102"><ele>217.8</ele></trkpt>
<trkpt lat="43.154777" lon="10.815904"><ele>218.8</ele></trkpt>
<trkpt lat="43.155249" lon="10.815864"><ele>220.3</ele></trkpt>
<trkpt lat="43.155849" lon="10.815892"><ele>217.5</ele></trkpt>
<trkpt lat="43.156339" lon="10.815441"><ele>215.8</ele></trkpt>
<trkpt lat="43.156805" lon="10.814863"><ele>212.9</ele></trkpt>
<trkpt lat="43.157208" lon="10.814153"><ele>209.1</ele></trkpt>
<trkpt lat="43.157622" lon="10.813646"><ele>205.4</ele></trkpt>
<trkpt lat="43.158246" lon="10.813289"><ele>201.8</ele></trkpt>
<trkpt lat="43.158798" lon="10.812749"><ele>201.3</ele></trkpt>
<trkpt lat="43.159313" lon="10.812202"><ele>198.3</ele></trkpt>
<trkpt lat="43.159829" lon="10.811667"><ele>194.5</ele></trkpt>
<trkpt lat="43.160352" lon="10.811087"><ele>191.8</ele></trkpt>
<trkpt lat="43.160678" lon="10.810479"><ele>190.3</ele></trkpt>
<trkpt lat="43.160809" lon="10.809787"><ele>190.9</ele></trkpt>
<trkpt lat="43.160951" lon="10.809474"><ele>189.8</ele></trkpt>
<trkpt lat="43.160959" lon="10.809371"><ele>190.1</ele></trkpt>
<trkpt lat="43.160958" lon="10.809367"><ele>190.1</ele></trkpt>
<trkpt lat="43.160958" lon="10.809366"><ele>190.1</ele></trkpt>
<trkpt lat="43.160959" lon="10.809365"><ele>190.1</ele></trkpt>
<trkpt lat="43.160962" lon="10.809365"><ele>190.1</ele></trkpt>
<trkpt lat="43.160967" lon="10.809367"><ele>190.0</ele></trkpt>
<trkpt lat="43.16094" lon="10.809421"><ele>190.2</ele></trkpt>
<trkpt lat="43.160886" lon="10.809551"><ele>190.6</ele></trkpt>
<trkpt lat="43.16084" lon="10.809705"><ele>190.8</ele></trkpt>
<trkpt lat="43.160882" lon="10.809564"><ele>190.7</ele></trkpt>
<trkpt lat="43.161227" lon="10.808916"><ele>187.3</ele></trkpt>
<trkpt lat="43.161582" lon="10.808288"><ele>185.1</ele></trkpt>
<trkpt lat="43.161727" lon="10.807617"><ele>183.7</ele></trkpt>
<trkpt lat="43.161819" lon="10.807021"><ele>182.8</ele></trkpt>
<trkpt lat="43.161936" lon="10.806668"><ele>181.4</ele></trkpt>
<trkpt lat="43.162061" lon="10.806552"><ele>179.7</ele></trkpt>
<trkpt lat="43.162398" lon="10.806247"><ele>176.5</ele></trkpt>
<trkpt lat="43.162704" lon="10.806093"><ele>173.2</ele></trkpt>
<trkpt lat="43.163224" lon="10.806017"><ele>172.2</ele></trkpt>
<trkpt lat="43.163825" lon="10.806015"><ele>174.8</ele></trkpt>
<trkpt lat="43.164389" lon="10.806164"><ele>181.3</ele></trkpt>
<trkpt lat="43.164991" lon="10.806442"><ele>187.0</ele></trkpt>
<trkpt lat="43.165467" lon="10.80698"><ele>191.3</ele></trkpt>
<trkpt lat="43.165849" lon="10.807419"><ele>194.0</ele></trkpt>
<trkpt lat="43.166078" lon="10.807824"><ele>195.9</ele></trkpt>
<trkpt lat="43.166311" lon="10.808289"><ele>198.2</ele></trkpt>
<trkpt lat="43.16662" lon="10.808824"><ele>198.5</ele></trkpt>
<trkpt lat="43.166978" lon="10.80937"><ele>200.7</ele></trkpt>
<trkpt lat="43.16739" lon="10.809943"><ele>203.9</ele></trkpt>
<trkpt lat="43.167721" lon="10.810425"><ele>207.5</ele></trkpt>
<trkpt lat="43.167929" lon="10.81083"><ele>209.5</ele></trkpt>
<trkpt lat="43.168068" lon="10.811252"><ele>209.3</ele></trkpt>
<trkpt lat="43.168271" lon="10.811649"><ele>209.8</ele></trkpt>
<trkpt lat="43.168475" lon="10.812052"><ele>211.3</ele></trkpt>
<trkpt lat="43.168658" lon="10.812467"><ele>213.4</ele></trkpt>
<trkpt lat="43.168859" lon="10.812948"><ele>216.1</ele></trkpt>
<trkpt lat="43.16906" lon="10.813419"><ele>219.7</ele></trkpt>
<trkpt lat="43.169235" lon="10.813824"><ele>222.7</ele></trkpt>
<trkpt lat="43.169392" lon="10.814202"><ele>225.7</ele></trkpt>
<trkpt lat="43.169568" lon="10.814625"><ele>228.8</ele></trkpt>
<trkpt lat="43.169785" lon="10.815115"><ele>231.7</ele></trkpt>
<trkpt lat="43.169976" lon="10.815566"><ele>234.4</ele></trkpt>
<trkpt lat="43.170107" lon="10.815874"><ele>236.2</ele></trkpt>
<trkpt lat="43.17019" lon="10.81621"><ele>238.1</ele></trkpt>
<trkpt lat="43.170028" lon="10.81662"><ele>239.9</ele></trkpt>
<trkpt lat="43.169857" lon="10.817005"><ele>240.7</ele></trkpt>
<trkpt lat="43.169693" lon="10.817451"><ele>241.5</ele></trkpt>
<trkpt lat="43.169523" lon="10.818059"><ele>239.0</ele></trkpt>
<trkpt lat="43.169427" lon="10.818496"><ele>236.8</ele></trkpt>
<trkpt lat="43.169463" lon="10.818939"><ele>238.1</ele></trkpt>
<trkpt lat="43.169524" lon="10.819281"><ele>239.4</ele></trkpt>
<trkpt lat="43.169594" lon="10.81943"><ele>241.0</ele></trkpt>
<trkpt lat="43.169559" lon="10.819462"><ele>241.5</ele></trkpt>
<trkpt lat="43.169547" lon="10.819509"><ele>242.1</ele></trkpt>
<trkpt lat="43.169547" lon="10.81951"><ele>242.1</ele></trkpt>
<trkpt lat="43.169549" lon="10.819508"><ele>242.1</ele></trkpt>
<trkpt lat="43.169547" lon="10.819506"><ele>242.1</ele></trkpt>
<trkpt lat="43.169547" lon="10.819507"><ele>242.1</ele></trkpt>
<trkpt lat="43.169546" lon="10.819506"><ele>242.1</ele></trkpt>
<trkpt lat="43.169549" lon="10.819505"><ele>242.1</ele></trkpt>
<trkpt lat="43.169552" lon="10.819507"><ele>242.1</ele></trkpt>
<trkpt lat="43.169554" lon="10.819509"><ele>242.1</ele></trkpt>
<trkpt lat="43.169555" lon="10.81951"><ele>242.1</ele></trkpt>
<trkpt lat="43.169559" lon="10.819511"><ele>242.1</ele></trkpt>
<trkpt lat="43.169562" lon="10.81951"><ele>242.1</ele></trkpt>
<trkpt lat="43.169563" lon="10.81951"><ele>242.1</ele></trkpt>
<trkpt lat="43.169563" lon="10.819509"><ele>242.1</ele></trkpt>
<trkpt lat="43.169562" lon="10.819509"><ele>242.1</ele></trkpt>
<trkpt lat="43.169562" lon="10.819509"><ele>242.1</ele></trkpt>
<trkpt lat="43.16956" lon="10.819508"><ele>242.1</ele></trkpt>
<trkpt lat="43.169561" lon="10.819508"><ele>242.1</ele></trkpt>
<trkpt lat="43.16956" lon="10.819509"><ele>242.1</ele></trkpt>
<trkpt lat="43.169558" lon="10.81951"><ele>242.1</ele></trkpt>
<trkpt lat="43.169556" lon="10.819513"><ele>242.1</ele></trkpt>
<trkpt lat="43.169556" lon="10.819518"><ele>242.2</ele></trkpt>
<trkpt lat="43.169561" lon="10.819504"><ele>242.0</ele></trkpt>
<trkpt lat="43.169605" lon="10.819408"><ele>240.7</ele></trkpt>
<trkpt lat="43.169634" lon="10.819403"><ele>240.6</ele></trkpt>
<trkpt lat="43.169635" lon="10.819402"><ele>240.5</ele></trkpt>
<trkpt lat="43.1697" lon="10.819443"><ele>240.8</ele></trkpt>
<trkpt lat="43.170069" lon="10.819463"><ele>239.8</ele></trkpt>
<trkpt lat="43.170496" lon="10.819456"><ele>237.9</ele></trkpt>
<trkpt lat="43.17095" lon="10.81947"><ele>235.1</ele></trkpt>
<trkpt lat="43.171274" lon="10.819477"><ele>233.4</ele></trkpt>
<trkpt lat="43.171551" lon="10.81946"><ele>232.7</ele></trkpt>
<trkpt lat="43.171729" lon="10.819411"><ele>231.9</ele></trkpt>
<trkpt lat="43.171999" lon="10.819349"><ele>230.9</ele></trkpt>
<trkpt lat="43.172371" lon="10.819279"><ele>231.1</ele></trkpt>
<trkpt lat="43.172647" lon="10.819206"><ele>231.0</ele></trkpt>
<trkpt lat="43.173" lon="10.81913"><ele>231.1</ele></trkpt>
<trkpt lat="43.173351" lon="10.819209"><ele>233.4</ele></trkpt>
<trkpt lat="43.173588" lon="10.819431"><ele>236.4</ele></trkpt>
<trkpt lat="43.173886" lon="10.819502"><ele>237.8</ele></trkpt>
<trkpt lat="43.174173" lon="10.819593"><ele>239.4</ele></trkpt>
<trkpt lat="43.174443" lon="10.819807"><ele>242.5</ele></trkpt>
<trkpt lat="43.174751" lon="10.819656"><ele>242.4</ele></trkpt>
<trkpt lat="43.174954" lon="10.819242"><ele>239.0</ele></trkpt>
<trkpt lat="43.175064" lon="10.818956"><ele>238.6</ele></trkpt>
<trkpt lat="43.175179" lon="10.818669"><ele>237.8</ele></trkpt>
<trkpt lat="43.175462" lon="10.818664"><ele>238.0</ele></trkpt>
<trkpt lat="43.175746" lon="10.818711"><ele>237.1</ele></trkpt>
<trkpt lat="43.175908" lon="10.818721"><ele>236.5</ele></trkpt>
<trkpt lat="43.176219" lon="10.818793"><ele>235.9</ele></trkpt>
<trkpt lat="43.176499" lon="10.818979"><ele>235.3</ele></trkpt>
<trkpt lat="43.176791" lon="10.819185"><ele>234.6</ele></trkpt>
<trkpt lat="43.177051" lon="10.819341"><ele>233.8</ele></trkpt>
<trkpt lat="43.177206" lon="10.81942"><ele>233.5</ele></trkpt>
<trkpt lat="43.177242" lon="10.819443"><ele>233.5</ele></trkpt>
<trkpt lat="43.177296" lon="10.819493"><ele>233.7</ele></trkpt>
<trkpt lat="43.177319" lon="10.819513"><ele>233.7</ele></trkpt>
<trkpt lat="43.177322" lon="10.81951"><ele>233.6</ele></trkpt>
<trkpt lat="43.177326" lon="10.81951"><ele>233.6</ele></trkpt>
<trkpt lat="43.177369" lon="10.819544"><ele>233.6</ele></trkpt>
<trkpt lat="43.177604" lon="10.81967"><ele>233.2</ele></trkpt>
<trkpt lat="43.177808" lon="10.819755"><ele>232.6</ele></trkpt>
<trkpt lat="43.177923" lon="10.819827"><ele>232.7</ele></trkpt>
<trkpt lat="43.177978" lon="10.819889"><ele>233.0</ele></trkpt>
<trkpt lat="43.178059" lon="10.820073"><ele>234.2</ele></trkpt>
<trkpt lat="43.178155" lon="10.820551"><ele>239.0</ele></trkpt>
<trkpt lat="43.178314" lon="10.821019"><ele>242.6</ele></trkpt>
<trkpt lat="43.178607" lon="10.821285"><ele>243.4</ele></trkpt>
<trkpt lat="43.178921" lon="10.821106"><ele>242.6</ele></trkpt>
<trkpt lat="43.179201" lon="10.821005"><ele>243.1</ele></trkpt>
<trkpt lat="43.179528" lon="10.820857"><ele>243.4</ele></trkpt>
<trkpt lat="43.179853" lon="10.820747"><ele>242.0</ele></trkpt>
<trkpt lat="43.180193" lon="10.82083"><ele>243.0</ele></trkpt>
<trkpt lat="43.180478" lon="10.821076"><ele>243.3</ele></trkpt>
<trkpt lat="43.180684" lon="10.821549"><ele>246.1</ele></trkpt>
<trkpt lat="43.181048" lon="10.82166"><ele>244.5</ele></trkpt>
<trkpt lat="43.181455" lon="10.821677"><ele>241.8</ele></trkpt>
<trkpt lat="43.181798" lon="10.82157"><ele>236.3</ele></trkpt>
<trkpt lat="43.182143" lon="10.821745"><ele>237.8</ele></trkpt>
<trkpt lat="43.182559" lon="10.822016"><ele>240.8</ele></trkpt>
<trkpt lat="43.183038" lon="10.822183"><ele>238.4</ele></trkpt>
<trkpt lat="43.183497" lon="10.822367"><ele>233.4</ele></trkpt>
<trkpt lat="43.183885" lon="10.822618"><ele>232.1</ele></trkpt>
<trkpt lat="43.184195" lon="10.822725"><ele>229.7</ele></trkpt>
<trkpt lat="43.184646" lon="10.822908"><ele>226.8</ele></trkpt>
<trkpt lat="43.185107" lon="10.823073"><ele>224.9</ele></trkpt>
<trkpt lat="43.185469" lon="10.823217"><ele>222.7</ele></trkpt>
<trkpt lat="43.185927" lon="10.823245"><ele>218.8</ele></trkpt>
<trkpt lat="43.186358" lon="10.823308"><ele>216.1</ele></trkpt>
<trkpt lat="43.186716" lon="10.823522"><ele>216.1</ele></trkpt>
<trkpt lat="43.186983" lon="10.823893"><ele>218.2</ele></trkpt>
<trkpt lat="43.187228" lon="10.824282"><ele>221.1</ele></trkpt>
<trkpt lat="43.187474" lon="10.824631"><ele>222.9</ele></trkpt>
<trkpt lat="43.187706" lon="10.824911"><ele>223.3</ele></trkpt>
<trkpt lat="43.187931" lon="10.825185"><ele>223.6</ele></trkpt>
<trkpt lat="43.188167" lon="10.825484"><ele>224.5</ele></trkpt>
<trkpt lat="43.188382" lon="10.825648"><ele>223.9</ele></trkpt>
<trkpt lat="43.188591" lon="10.825821"><ele>222.7</ele></trkpt>
<trkpt lat="43.188829" lon="10.826037"><ele>222.7</ele></trkpt>
<trkpt lat="43.189048" lon="10.826358"><ele>224.0</ele></trkpt>
<trkpt lat="43.189198" lon="10.826667"><ele>225.3</ele></trkpt>
<trkpt lat="43.189347" lon="10.827026"><ele>226.6</ele></trkpt>
<trkpt lat="43.189507" lon="10.827367"><ele>227.7</ele></trkpt>
<trkpt lat="43.189675" lon="10.827715"><ele>228.2</ele></trkpt>
<trkpt lat="43.189874" lon="10.828019"><ele>228.8</ele></trkpt>
<trkpt lat="43.190151" lon="10.828178"><ele>229.8</ele></trkpt>
<trkpt lat="43.190398" lon="10.82832"><ele>230.9</ele></trkpt>
<trkpt lat="43.190591" lon="10.828505"><ele>231.9</ele></trkpt>
<trkpt lat="43.190807" lon="10.828788"><ele>232.8</ele></trkpt>
<trkpt lat="43.191069" lon="10.829064"><ele>234.2</ele></trkpt>
<trkpt lat="43.191262" lon="10.829247"><ele>235.6</ele></trkpt>
<trkpt lat="43.191286" lon="10.829267"><ele>235.8</ele></trkpt>
<trkpt lat="43.191301" lon="10.829676"><ele>236.2</ele></trkpt>
<trkpt lat="43.191258" lon="10.829758"><ele>236.0</ele></trkpt>
<trkpt lat="43.191097" lon="10.830032"><ele>235.7</ele></trkpt>
<trkpt lat="43.190874" lon="10.830278"><ele>236.3</ele></trkpt>
<trkpt lat="43.190778" lon="10.830532"><ele>237.2</ele></trkpt>
<trkpt lat="43.19082" lon="10.831119"><ele>240.9</ele></trkpt>
<trkpt lat="43.190861" lon="10.831782"><ele>246.3</ele></trkpt>
<trkpt lat="43.190887" lon="10.83239"><ele>250.0</ele></trkpt>
<trkpt lat="43.190921" lon="10.832924"><ele>252.6</ele></trkpt>
<trkpt lat="43.190966" lon="10.83336"><ele>254.7</ele></trkpt>
<trkpt lat="43.191003" lon="10.833746"><ele>254.5</ele></trkpt>
<trkpt lat="43.191027" lon="10.834005"><ele>254.2</ele></trkpt>
<trkpt lat="43.191046" lon="10.834325"><ele>253.8</ele></trkpt>
<trkpt lat="43.191004" lon="10.834784"><ele>253.3</ele></trkpt>
<trkpt lat="43.190911" lon="10.835416"><ele>253.0</ele></trkpt>
<trkpt lat="43.190606" lon="10.835953"><ele>251.0</ele></trkpt>
<trkpt lat="43.190195" lon="10.836273"><ele>250.2</ele></trkpt>
<trkpt lat="43.189793" lon="10.836609"><ele>250.0</ele></trkpt>
<trkpt lat="43.189386" lon="10.837059"><ele>251.9</ele></trkpt>
<trkpt lat="43.189163" lon="10.837615"><ele>256.6</ele></trkpt>
<trkpt lat="43.189044" lon="10.838229"><ele>263.9</ele></trkpt>
<trkpt lat="43.189057" lon="10.838905"><ele>268.4</ele></trkpt>
<trkpt lat="43.189093" lon="10.83964"><ele>272.5</ele></trkpt>
<trkpt lat="43.189026" lon="10.84016"><ele>273.8</ele></trkpt>
<trkpt lat="43.188917" lon="10.840669"><ele>277.3</ele></trkpt>
<trkpt lat="43.189023" lon="10.841037"><ele>283.0</ele></trkpt>
<trkpt lat="43.189139" lon="10.84154"><ele>288.7</ele></trkpt>
<trkpt lat="43.189263" lon="10.842037"><ele>291.7</ele></trkpt>
<trkpt lat="43.189187" lon="10.842465"><ele>292.2</ele></trkpt>
<trkpt lat="43.189045" lon="10.842746"><ele>291.9</ele></trkpt>
<trkpt lat="43.189029" lon="10.842858"><ele>292.0</ele></trkpt>
<trkpt lat="43.189034" lon="10.842873"><ele>292.0</ele></trkpt>
<trkpt lat="43.189145" lon="10.843082"><ele>293.3</ele></trkpt>
<trkpt lat="43.18932" lon="10.843244"><ele>295.3</ele></trkpt>
<trkpt lat="43.189395" lon="10.843302"><ele>296.3</ele></trkpt>
<trkpt lat="43.189403" lon="10.84331"><ele>296.4</ele></trkpt>
<trkpt lat="43.189418" lon="10.843321"><ele>296.6</ele></trkpt>
<trkpt lat="43.189641" lon="10.843477"><ele>299.1</ele></trkpt>
<trkpt lat="43.189989" lon="10.843678"><ele>303.3</ele></trkpt>
<trkpt lat="43.19036" lon="10.843886"><ele>309.2</ele></trkpt>
<trkpt lat="43.190792" lon="10.844079"><ele>317.0</ele></trkpt>
<trkpt lat="43.191333" lon="10.844255"><ele>324.8</ele></trkpt>
<trkpt lat="43.191879" lon="10.844434"><ele>333.2</ele></trkpt>
<trkpt lat="43.192324" lon="10.84476"><ele>343.1</ele></trkpt>
<trkpt lat="43.192559" lon="10.84511"><ele>348.7</ele></trkpt>
<trkpt lat="43.192727" lon="10.844958"><ele>347.0</ele></trkpt>
<trkpt lat="43.192787" lon="10.844438"><ele>342.8</ele></trkpt>
<trkpt lat="43.192969" lon="10.844101"><ele>344.4</ele></trkpt>
<trkpt lat="43.192963" lon="10.844462"><ele>345.4</ele></trkpt>
<trkpt lat="43.192904" lon="10.844934"><ele>347.9</ele></trkpt>
<trkpt lat="43.193029" lon="10.845356"><ele>354.2</ele></trkpt>
<trkpt lat="43.193139" lon="10.845676"><ele>358.4</ele></trkpt>
<trkpt lat="43.193287" lon="10.845938"><ele>360.7</ele></trkpt>
<trkpt lat="43.193372" lon="10.846095"><ele>361.4</ele></trkpt>
<trkpt lat="43.19333" lon="10.846194"><ele>361.9</ele></trkpt>
<trkpt lat="43.193129" lon="10.846226"><ele>362.0</ele></trkpt>
<trkpt lat="43.192881" lon="10.84611"><ele>361.5</ele></trkpt>
<trkpt lat="43.192681" lon="10.845956"><ele>360.3</ele></trkpt>
<trkpt lat="43.192497" lon="10.845797"><ele>358.4</ele></trkpt>
<trkpt lat="43.192345" lon="10.845658"><ele>356.0</ele></trkpt>
<trkpt lat="43.192311" lon="10.845647"><ele>355.8</ele></trkpt>
<trkpt lat="43.192314" lon="10.845634"><ele>355.6</ele></trkpt>
<trkpt lat="43.192302" lon="10.845641"><ele>355.7</ele></trkpt>
<trkpt lat="43.192301" lon="10.84563"><ele>355.5</ele></trkpt>
<trkpt lat="43.192297" lon="10.845612"><ele>355.3</ele></trkpt>
<trkpt lat="43.192301" lon="10.845662"><ele>355.9</ele></trkpt>
<trkpt lat="43.192336" lon="10.845715"><ele>356.8</ele></trkpt>
<trkpt lat="43.192383" lon="10.845762"><ele>357.5</ele></trkpt>
<trkpt lat="43.192388" lon="10.84576"><ele>357.5</ele></trkpt>
<trkpt lat="43.192389" lon="10.845763"><ele>357.5</ele></trkpt>
<trkpt lat="43.192426" lon="10.845796"><ele>358.1</ele></trkpt>
<trkpt lat="43.192575" lon="10.845934"><ele>359.8</ele></trkpt>
<trkpt lat="43.192824" lon="10.846193"><ele>361.4</ele></trkpt>
<trkpt lat="43.193074" lon="10.846434"><ele>362.7</ele></trkpt>
<trkpt lat="43.193222" lon="10.846597"><ele>363.7</ele></trkpt>
<trkpt lat="43.193467" lon="10.846848"><ele>365.1</ele></trkpt>
<trkpt lat="43.193821" lon="10.84699"><ele>367.3</ele></trkpt>
<trkpt lat="43.194162" lon="10.847133"><ele>369.1</ele></trkpt>
<trkpt lat="43.194304" lon="10.847393"><ele>371.1</ele></trkpt>
<trkpt lat="43.19442" lon="10.847758"><ele>371.9</ele></trkpt>
<trkpt lat="43.194635" lon="10.848162"><ele>372.6</ele></trkpt>
<trkpt lat="43.195012" lon="10.848283"><ele>375.5</ele></trkpt>
<trkpt lat="43.195228" lon="10.848231"><ele>377.7</ele></trkpt>
<trkpt lat="43.19522" lon="10.848187"><ele>377.8</ele></trkpt>
<trkpt lat="43.195203" lon="10.848175"><ele>377.7</ele></trkpt>
<trkpt lat="43.195429" lon="10.848331"><ele>379.2</ele></trkpt>
<trkpt lat="43.19588" lon="10.848543"><ele>383.9</ele></trkpt>
<trkpt lat="43.196372" lon="10.848532"><ele>389.4</ele></trkpt>
<trkpt lat="43.196844" lon="10.848551"><ele>394.7</ele></trkpt>
<trkpt lat="43.197326" lon="10.848785"><ele>396.1</ele></trkpt>
<trkpt lat="43.197787" lon="10.849009"><ele>397.8</ele></trkpt>
<trkpt lat="43.1981" lon="10.849262"><ele>399.1</ele></trkpt>
<trkpt lat="43.198275" lon="10.849493"><ele>400.8</ele></trkpt>
<trkpt lat="43.198397" lon="10.849698"><ele>402.2</ele></trkpt>
<trkpt lat="43.198567" lon="10.849867"><ele>403.6</ele></trkpt>
<trkpt lat="43.198861" lon="10.849897"><ele>405.6</ele></trkpt>
<trkpt lat="43.199169" lon="10.849714"><ele>407.9</ele></trkpt>
<trkpt lat="43.199266" lon="10.849119"><ele>409.3</ele></trkpt>
<trkpt lat="43.199396" lon="10.848442"><ele>411.0</ele></trkpt>
<trkpt lat="43.199714" lon="10.847874"><ele>414.8</ele></trkpt>
<trkpt lat="43.200212" lon="10.847497"><ele>419.4</ele></trkpt>
<trkpt lat="43.200785" lon="10.847504"><ele>420.1</ele></trkpt>
<trkpt lat="43.201203" lon="10.847924"><ele>424.6</ele></trkpt>
<trkpt lat="43.201575" lon="10.848403"><ele>428.6</ele></trkpt>
<trkpt lat="43.201913" lon="10.848944"><ele>431.3</ele></trkpt>
<trkpt lat="43.202021" lon="10.849594"><ele>436.6</ele></trkpt>
<trkpt lat="43.202093" lon="10.850247"><ele>441.4</ele></trkpt>
<trkpt lat="43.202017" lon="10.851104"><ele>447.7</ele></trkpt>
<trkpt lat="43.202102" lon="10.851786"><ele>450.6</ele></trkpt>
<trkpt lat="43.202639" lon="10.852077"><ele>453.4</ele></trkpt>
<trkpt lat="43.203124" lon="10.85182"><ele>452.3</ele></trkpt>
<trkpt lat="43.203655" lon="10.852015"><ele>457.0</ele></trkpt>
<trkpt lat="43.204165" lon="10.852245"><ele>459.8</ele></trkpt>
<trkpt lat="43.204588" lon="10.852646"><ele>465.1</ele></trkpt>
<trkpt lat="43.204966" lon="10.853169"><ele>471.1</ele></trkpt>
<trkpt lat="43.205443" lon="10.853547"><ele>473.7</ele></trkpt>
<trkpt lat="43.205852" lon="10.85392"><ele>476.6</ele></trkpt>
<trkpt lat="43.206178" lon="10.853534"><ele>472.2</ele></trkpt>
<trkpt lat="43.206555" lon="10.853086"><ele>470.8</ele></trkpt>
<trkpt lat="43.206944" lon="10.852843"><ele>472.7</ele></trkpt>
<trkpt lat="43.207136" lon="10.852352"><ele>472.6</ele></trkpt>
<trkpt lat="43.20743" lon="10.851954"><ele>474.1</ele></trkpt>
<trkpt lat="43.207729" lon="10.851767"><ele>476.8</ele></trkpt>
<trkpt lat="43.207893" lon="10.851616"><ele>476.9</ele></trkpt>
<trkpt lat="43.207902" lon="10.851611"><ele>476.9</ele></trkpt>
<trkpt lat="43.207902" lon="10.851616"><ele>476.9</ele></trkpt>
<trkpt lat="43.207903" lon="10.851617"><ele>476.9</ele></trkpt>
<trkpt lat="43.207902" lon="10.851613"><ele>476.9</ele></trkpt>
<trkpt lat="43.207902" lon="10.851609"><ele>476.8</ele></trkpt>
<trkpt lat="43.207893" lon="10.851616"><ele>476.9</ele></trkpt>
<trkpt lat="43.20789" lon="10.851618"><ele>476.9</ele></trkpt>
<trkpt lat="43.207888" lon="10.851618"><ele>476.9</ele></trkpt>
<trkpt lat="43.20789" lon="10.851616"><ele>476.9</ele></trkpt>
<trkpt lat="43.207906" lon="10.851599"><ele>476.7</ele></trkpt>
<trkpt lat="43.207906" lon="10.851597"><ele>476.7</ele></trkpt>
<trkpt lat="43.207905" lon="10.851597"><ele>476.7</ele></trkpt>
<trkpt lat="43.207906" lon="10.851599"><ele>476.7</ele></trkpt>
<trkpt lat="43.207906" lon="10.851602"><ele>476.8</ele></trkpt>
<trkpt lat="43.207912" lon="10.851599"><ele>476.8</ele></trkpt>
<trkpt lat="43.208043" lon="10.851677"><ele>477.8</ele></trkpt>
<trkpt lat="43.208273" lon="10.851817"><ele>479.3</ele></trkpt>
<trkpt lat="43.208569" lon="10.851866"><ele>480.3</ele></trkpt>
<trkpt lat="43.208867" lon="10.851858"><ele>480.0</ele></trkpt>
<trkpt lat="43.209074" lon="10.852003"><ele>481.0</ele></trkpt>
<trkpt lat="43.209254" lon="10.852259"><ele>483.4</ele></trkpt>
<trkpt lat="43.209538" lon="10.852561"><ele>485.9</ele></trkpt>
<trkpt lat="43.209984" lon="10.852875"><ele>488.4</ele></trkpt>
<trkpt lat="43.210372" lon="10.853049"><ele>490.3</ele></trkpt>
<trkpt lat="43.210301" lon="10.852968"><ele>489.0</ele></trkpt>
<trkpt lat="43.210473" lon="10.853183"><ele>492.4</ele></trkpt>
<trkpt lat="43.210558" lon="10.853397"><ele>495.8</ele></trkpt>
<trkpt lat="43.210666" lon="10.853483"><ele>497.0</ele></trkpt>
<trkpt lat="43.210752" lon="10.853526"><ele>497.6</ele></trkpt>
<trkpt lat="43.21088" lon="10.853569"><ele>498.2</ele></trkpt>
<trkpt lat="43.21146" lon="10.853633"><ele>499.9</ele></trkpt>
<trkpt lat="43.21161" lon="10.853633"><ele>500.4</ele></trkpt>
<trkpt lat="43.211717" lon="10.853612"><ele>500.3</ele></trkpt>
<trkpt lat="43.211846" lon="10.853569"><ele>500.1</ele></trkpt>
<trkpt lat="43.212039" lon="10.853483"><ele>499.3</ele></trkpt>
<trkpt lat="43.212125" lon="10.853462"><ele>499.0</ele></trkpt>
<trkpt lat="43.212232" lon="10.853483"><ele>499.2</ele></trkpt>
<trkpt lat="43.212339" lon="10.853526"><ele>499.6</ele></trkpt>
<trkpt lat="43.212404" lon="10.853569"><ele>500.1</ele></trkpt>
<trkpt lat="43.212683" lon="10.853891"><ele>502.8</ele></trkpt>
<trkpt lat="43.212726" lon="10.853977"><ele>503.4</ele></trkpt>
<trkpt lat="43.212726" lon="10.854105"><ele>504.6</ele></trkpt>
<trkpt lat="43.212704" lon="10.854299"><ele>506.6</ele></trkpt>
<trkpt lat="43.212683" lon="10.854449"><ele>508.5</ele></trkpt>
<trkpt lat="43.212683" lon="10.85462"><ele>510.5</ele></trkpt>
<trkpt lat="43.212726" lon="10.854749"><ele>511.6</ele></trkpt>
<trkpt lat="43.21279" lon="10.854899"><ele>512.7</ele></trkpt>
<trkpt lat="43.213005" lon="10.855221"><ele>514.4</ele></trkpt>
<trkpt lat="43.213326" lon="10.855522"><ele>515.2</ele></trkpt>
<trkpt lat="43.213434" lon="10.855543"><ele>514.7</ele></trkpt>
<trkpt lat="43.213498" lon="10.855522"><ele>513.9</ele></trkpt>
<trkpt lat="43.213863" lon="10.85535"><ele>511.5</ele></trkpt>
<trkpt lat="43.214056" lon="10.855286"><ele>511.6</ele></trkpt>
<trkpt lat="43.214292" lon="10.855286"><ele>512.7</ele></trkpt>
<trkpt lat="43.214399" lon="10.855264"><ele>513.0</ele></trkpt>
<trkpt lat="43.214464" lon="10.8552"><ele>512.5</ele></trkpt>
<trkpt lat="43.215193" lon="10.854449"><ele>507.4</ele></trkpt>
<trkpt lat="43.215343" lon="10.854374"><ele>506.2</ele></trkpt>
<trkpt lat="43.215392" lon="10.854272"><ele>505.1</ele></trkpt>
<trkpt lat="43.215343" lon="10.853912"><ele>503.7</ele></trkpt>
<trkpt lat="43.215408" lon="10.853247"><ele>499.8</ele></trkpt>
<trkpt lat="43.215408" lon="10.852968"><ele>500.3</ele></trkpt>
<trkpt lat="43.215365" lon="10.852839"><ele>500.6</ele></trkpt>
<trkpt lat="43.215301" lon="10.852732"><ele>500.4</ele></trkpt>
<trkpt lat="43.215107" lon="10.85256"><ele>498.5</ele></trkpt>
<trkpt lat="43.215065" lon="10.852475"><ele>497.6</ele></trkpt>
<trkpt lat="43.215022" lon="10.852303"><ele>496.2</ele></trkpt>
<trkpt lat="43.215022" lon="10.852153"><ele>495.3</ele></trkpt>
<trkpt lat="43.215065" lon="10.85196"><ele>495.0</ele></trkpt>
<trkpt lat="43.215172" lon="10.851531"><ele>492.8</ele></trkpt>
<trkpt lat="43.215279" lon="10.85123"><ele>490.2</ele></trkpt>
<trkpt lat="43.215322" lon="10.851144"><ele>489.7</ele></trkpt>
<trkpt lat="43.215386" lon="10.851037"><ele>488.9</ele></trkpt>
<trkpt lat="43.215451" lon="10.850994"><ele>488.9</ele></trkpt>
<trkpt lat="43.216137" lon="10.850651"><ele>490.7</ele></trkpt>
<trkpt lat="43.216695" lon="10.850586"><ele>492.1</ele></trkpt>
<trkpt lat="43.216867" lon="10.850458"><ele>492.0</ele></trkpt>
<trkpt lat="43.216953" lon="10.85035"><ele>491.9</ele></trkpt>
<trkpt lat="43.217039" lon="10.850222"><ele>492.1</ele></trkpt>
<trkpt lat="43.21721" lon="10.849685"><ele>489.5</ele></trkpt>
<trkpt lat="43.217253" lon="10.849578"><ele>488.9</ele></trkpt>
<trkpt lat="43.217403" lon="10.849428"><ele>488.9</ele></trkpt>
<trkpt lat="43.217489" lon="10.849363"><ele>489.1</ele></trkpt>
<trkpt lat="43.217575" lon="10.849342"><ele>489.7</ele></trkpt>
<trkpt lat="43.217961" lon="10.849406"><ele>493.5</ele></trkpt>
<trkpt lat="43.218133" lon="10.849428"><ele>494.4</ele></trkpt>
<trkpt lat="43.218777" lon="10.849277"><ele>495.3</ele></trkpt>
<trkpt lat="43.219528" lon="10.84917"><ele>498.4</ele></trkpt>
<trkpt lat="43.219742" lon="10.849106"><ele>499.5</ele></trkpt>
<trkpt lat="43.219957" lon="10.848999"><ele>500.2</ele></trkpt>
<trkpt lat="43.220086" lon="10.848891"><ele>500.2</ele></trkpt>
<trkpt lat="43.220236" lon="10.848677"><ele>499.6</ele></trkpt>
<trkpt lat="43.220579" lon="10.847883"><ele>496.9</ele></trkpt>
<trkpt lat="43.220729" lon="10.847668"><ele>497.2</ele></trkpt>
<trkpt lat="43.221201" lon="10.847175"><ele>496.8</ele></trkpt>
<trkpt lat="43.22133" lon="10.847003"><ele>496.3</ele></trkpt>
<trkpt lat="43.221416" lon="10.846874"><ele>496.3</ele></trkpt>
<trkpt lat="43.221545" lon="10.847003"><ele>497.6</ele></trkpt>
<trkpt lat="43.221695" lon="10.847175"><ele>498.3</ele></trkpt>
<trkpt lat="43.221759" lon="10.847432"><ele>498.0</ele></trkpt>
<trkpt lat="43.221652" lon="10.848097"><ele>495.8</ele></trkpt>
<trkpt lat="43.221631" lon="10.848312"><ele>495.1</ele></trkpt>
<trkpt lat="43.221695" lon="10.848398"><ele>493.9</ele></trkpt>
<trkpt lat="43.221824" lon="10.848398"><ele>492.2</ele></trkpt>
<trkpt lat="43.221995" lon="10.848269"><ele>491.0</ele></trkpt>
<trkpt lat="43.222231" lon="10.848033"><ele>491.3</ele></trkpt>
<trkpt lat="43.222467" lon="10.848011"><ele>490.0</ele></trkpt>
<trkpt lat="43.222661" lon="10.848076"><ele>487.9</ele></trkpt>
<trkpt lat="43.223068" lon="10.848484"><ele>482.3</ele></trkpt>
<trkpt lat="43.223218" lon="10.848548"><ele>481.8</ele></trkpt>
<trkpt lat="43.223519" lon="10.848526"><ele>482.3</ele></trkpt>
<trkpt lat="43.223669" lon="10.848612"><ele>481.5</ele></trkpt>
<trkpt lat="43.22369" lon="10.848805"><ele>479.4</ele></trkpt>
<trkpt lat="43.223712" lon="10.849127"><ele>475.8</ele></trkpt>
<trkpt lat="43.223733" lon="10.849213"><ele>474.8</ele></trkpt>
<trkpt lat="43.223905" lon="10.849406"><ele>472.0</ele></trkpt>
<trkpt lat="43.224012" lon="10.849771"><ele>467.7</ele></trkpt>
<trkpt lat="43.22442" lon="10.849986"><ele>464.7</ele></trkpt>
<trkpt lat="43.224613" lon="10.850136"><ele>462.2</ele></trkpt>
<trkpt lat="43.224871" lon="10.850265"><ele>459.4</ele></trkpt>
<trkpt lat="43.224978" lon="10.850222"><ele>459.3</ele></trkpt>
<trkpt lat="43.225193" lon="10.849771"><ele>461.9</ele></trkpt>
<trkpt lat="43.225321" lon="10.84975"><ele>461.2</ele></trkpt>
<trkpt lat="43.225901" lon="10.8499"><ele>454.8</ele></trkpt>
<trkpt lat="43.226244" lon="10.850007"><ele>450.6</ele></trkpt>
<trkpt lat="43.226287" lon="10.850093"><ele>449.5</ele></trkpt>
<trkpt lat="43.22648" lon="10.850694"><ele>445.3</ele></trkpt>
<trkpt lat="43.226544" lon="10.850801"><ele>444.8</ele></trkpt>
<trkpt lat="43.226759" lon="10.850994"><ele>444.5</ele></trkpt>
<trkpt lat="43.227124" lon="10.850994"><ele>443.2</ele></trkpt>
<trkpt lat="43.22751" lon="10.85123"><ele>441.8</ele></trkpt>
<trkpt lat="43.227853" lon="10.851101"><ele>437.9</ele></trkpt>
<trkpt lat="43.227982" lon="10.851166"><ele>436.6</ele></trkpt>
<trkpt lat="43.228068" lon="10.851294"><ele>436.7</ele></trkpt>
<trkpt lat="43.228111" lon="10.851466"><ele>438.0</ele></trkpt>
<trkpt lat="43.228046" lon="10.851874"><ele>442.9</ele></trkpt>
<trkpt lat="43.228111" lon="10.852432"><ele>446.0</ele></trkpt>
<trkpt lat="43.228175" lon="10.85256"><ele>446.3</ele></trkpt>
<trkpt lat="43.228304" lon="10.85256"><ele>444.9</ele></trkpt>
<trkpt lat="43.22839" lon="10.852539"><ele>443.8</ele></trkpt>
<trkpt lat="43.228583" lon="10.852324"><ele>439.7</ele></trkpt>
<trkpt lat="43.228733" lon="10.852346"><ele>438.6</ele></trkpt>
<trkpt lat="43.228926" lon="10.852496"><ele>439.6</ele></trkpt>
<trkpt lat="43.229291" lon="10.852217"><ele>434.4</ele></trkpt>
<trkpt lat="43.229548" lon="10.852067"><ele>430.9</ele></trkpt>
<trkpt lat="43.229656" lon="10.852046"><ele>430.9</ele></trkpt>
<trkpt lat="43.229763" lon="10.852067"><ele>431.6</ele></trkpt>
<trkpt lat="43.229913" lon="10.852153"><ele>433.5</ele></trkpt>
<trkpt lat="43.230042" lon="10.852153"><ele>433.8</ele></trkpt>
<trkpt lat="43.230171" lon="10.852088"><ele>433.2</ele></trkpt>
<trkpt lat="43.230235" lon="10.85196"><ele>431.4</ele></trkpt>
<trkpt lat="43.230342" lon="10.851702"><ele>427.7</ele></trkpt>
<trkpt lat="43.230407" lon="10.851616"><ele>426.5</ele></trkpt>
<trkpt lat="43.230814" lon="10.851595"><ele>428.3</ele></trkpt>
<trkpt lat="43.230922" lon="10.851616"><ele>429.3</ele></trkpt>
<trkpt lat="43.23105" lon="10.851573"><ele>429.0</ele></trkpt>
<trkpt lat="43.231222" lon="10.851402"><ele>425.5</ele></trkpt>
<trkpt lat="43.231329" lon="10.85138"><ele>424.9</ele></trkpt>
<trkpt lat="43.231501" lon="10.851337"><ele>423.6</ele></trkpt>
<trkpt lat="43.231587" lon="10.851252"><ele>421.5</ele></trkpt>
<trkpt lat="43.23178" lon="10.851166"><ele>419.3</ele></trkpt>
<trkpt lat="43.232102" lon="10.851101"><ele>416.9</ele></trkpt>
<trkpt lat="43.232295" lon="10.850951"><ele>412.7</ele></trkpt>
<trkpt lat="43.23251" lon="10.850951"><ele>411.6</ele></trkpt>
<trkpt lat="43.232724" lon="10.85108"><ele>412.6</ele></trkpt>
<trkpt lat="43.232874" lon="10.85123"><ele>413.7</ele></trkpt>
<trkpt lat="43.233132" lon="10.851316"><ele>411.5</ele></trkpt>
<trkpt lat="43.233411" lon="10.85138"><ele>408.4</ele></trkpt>
<trkpt lat="43.233497" lon="10.851466"><ele>407.8</ele></trkpt>
<trkpt lat="43.233518" lon="10.851531"><ele>408.0</ele></trkpt>
<trkpt lat="43.233561" lon="10.851681"><ele>408.4</ele></trkpt>
<trkpt lat="43.233561" lon="10.851831"><ele>408.9</ele></trkpt>
<trkpt lat="43.233518" lon="10.851981"><ele>409.9</ele></trkpt>
<trkpt lat="43.233454" lon="10.852153"><ele>411.4</ele></trkpt>
<trkpt lat="43.233475" lon="10.852303"><ele>411.2</ele></trkpt>
<trkpt lat="43.233497" lon="10.852389"><ele>411.0</ele></trkpt>
<trkpt lat="43.23354" lon="10.852453"><ele>410.2</ele></trkpt>
<trkpt lat="43.233561" lon="10.852496"><ele>409.8</ele></trkpt>
<trkpt lat="43.233604" lon="10.852668"><ele>409.6</ele></trkpt>
<trkpt lat="43.233582" lon="10.852732"><ele>410.3</ele></trkpt>
<trkpt lat="43.233582" lon="10.852882"><ele>411.1</ele></trkpt>
<trkpt lat="43.23369" lon="10.852968"><ele>409.3</ele></trkpt>
<trkpt lat="43.233819" lon="10.853054"><ele>407.1</ele></trkpt>
<trkpt lat="43.233969" lon="10.853204"><ele>405.1</ele></trkpt>
<trkpt lat="43.234097" lon="10.853183"><ele>402.5</ele></trkpt>
<trkpt lat="43.234205" lon="10.853118"><ele>400.0</ele></trkpt>
<trkpt lat="43.234312" lon="10.853118"><ele>397.9</ele></trkpt>
<trkpt lat="43.234419" lon="10.853161"><ele>396.2</ele></trkpt>
<trkpt lat="43.234505" lon="10.853204"><ele>394.9</ele></trkpt>
<trkpt lat="43.23457" lon="10.853397"><ele>395.4</ele></trkpt>
<trkpt lat="43.23457" lon="10.853505"><ele>396.3</ele></trkpt>
<trkpt lat="43.234655" lon="10.853633"><ele>395.7</ele></trkpt>
<trkpt lat="43.234913" lon="10.853612"><ele>390.2</ele></trkpt>
<trkpt lat="43.234999" lon="10.853698"><ele>389.2</ele></trkpt>
<trkpt lat="43.235063" lon="10.853848"><ele>389.1</ele></trkpt>
<trkpt lat="43.235106" lon="10.854041"><ele>389.9</ele></trkpt>
<trkpt lat="43.235127" lon="10.854277"><ele>391.3</ele></trkpt>
<trkpt lat="43.235192" lon="10.854535"><ele>391.7</ele></trkpt>
<trkpt lat="43.235299" lon="10.854792"><ele>390.9</ele></trkpt>
<trkpt lat="43.235428" lon="10.855007"><ele>388.9</ele></trkpt>
<trkpt lat="43.235471" lon="10.855243"><ele>389.3</ele></trkpt>
<trkpt lat="43.235514" lon="10.8555"><ele>389.8</ele></trkpt>
<trkpt lat="43.235557" lon="10.85565"><ele>389.5</ele></trkpt>
<trkpt lat="43.235642" lon="10.855736"><ele>387.5</ele></trkpt>
<trkpt lat="43.235771" lon="10.855779"><ele>383.9</ele></trkpt>
<trkpt lat="43.235878" lon="10.855844"><ele>381.1</ele></trkpt>
<trkpt lat="43.235921" lon="10.855994"><ele>380.7</ele></trkpt>
<trkpt lat="43.235964" lon="10.856251"><ele>381.2</ele></trkpt>
<trkpt lat="43.236007" lon="10.856423"><ele>381.2</ele></trkpt>
<trkpt lat="43.236072" lon="10.856637"><ele>381.3</ele></trkpt>
<trkpt lat="43.236286" lon="10.856895"><ele>377.4</ele></trkpt>
<trkpt lat="43.236372" lon="10.857045"><ele>375.8</ele></trkpt>
<trkpt lat="43.236393" lon="10.857238"><ele>374.9</ele></trkpt>
<trkpt lat="43.236436" lon="10.857431"><ele>374.0</ele></trkpt>
<trkpt lat="43.236415" lon="10.857625"><ele>374.4</ele></trkpt>
<trkpt lat="43.236329" lon="10.857818"><ele>376.4</ele></trkpt>
<trkpt lat="43.236329" lon="10.857968"><ele>377.7</ele></trkpt>
<trkpt lat="43.236393" lon="10.858054"><ele>378.5</ele></trkpt>
<trkpt lat="43.236501" lon="10.858097"><ele>378.9</ele></trkpt>
<trkpt lat="43.236801" lon="10.858139"><ele>379.4</ele></trkpt>
<trkpt lat="43.23708" lon="10.858311"><ele>381.9</ele></trkpt>
<trkpt lat="43.237123" lon="10.858461"><ele>383.8</ele></trkpt>
<trkpt lat="43.237059" lon="10.858676"><ele>386.7</ele></trkpt>
<trkpt lat="43.236715" lon="10.858848"><ele>388.1</ele></trkpt>
<trkpt lat="43.236587" lon="10.859019"><ele>389.6</ele></trkpt>
<trkpt lat="43.236372" lon="10.859384"><ele>393.1</ele></trkpt>
<trkpt lat="43.236179" lon="10.85947"><ele>393.1</ele></trkpt>
<trkpt lat="43.236029" lon="10.859599"><ele>393.3</ele></trkpt>
<trkpt lat="43.235836" lon="10.860028"><ele>395.9</ele></trkpt>
<trkpt lat="43.235707" lon="10.86035"><ele>398.7</ele></trkpt>
<trkpt lat="43.235514" lon="10.860607"><ele>400.5</ele></trkpt>
<trkpt lat="43.235299" lon="10.860736"><ele>400.3</ele></trkpt>
<trkpt lat="43.235127" lon="10.860908"><ele>400.2</ele></trkpt>
<trkpt lat="43.235085" lon="10.861144"><ele>402.3</ele></trkpt>
<trkpt lat="43.234956" lon="10.86138"><ele>402.7</ele></trkpt>
<trkpt lat="43.234934" lon="10.861487"><ele>403.5</ele></trkpt>
<trkpt lat="43.234977" lon="10.861659"><ele>406.3</ele></trkpt>
<trkpt lat="43.235063" lon="10.861873"><ele>409.2</ele></trkpt>
<trkpt lat="43.235106" lon="10.862345"><ele>412.0</ele></trkpt>
<trkpt lat="43.235192" lon="10.862774"><ele>415.7</ele></trkpt>
<trkpt lat="43.235213" lon="10.862925"><ele>416.8</ele></trkpt>
<trkpt lat="43.23517" lon="10.863204"><ele>416.9</ele></trkpt>
<trkpt lat="43.235085" lon="10.863611"><ele>417.5</ele></trkpt>
<trkpt lat="43.235063" lon="10.86389"><ele>419.0</ele></trkpt>
<trkpt lat="43.235085" lon="10.863997"><ele>420.2</ele></trkpt>
<trkpt lat="43.235149" lon="10.864083"><ele>422.2</ele></trkpt>
<trkpt lat="43.235278" lon="10.864255"><ele>426.0</ele></trkpt>
<trkpt lat="43.235278" lon="10.864577"><ele>426.5</ele></trkpt>
<trkpt lat="43.235256" lon="10.864963"><ele>426.8</ele></trkpt>
<trkpt lat="43.235299" lon="10.865178"><ele>428.4</ele></trkpt>
<trkpt lat="43.235342" lon="10.865242"><ele>429.5</ele></trkpt>
<trkpt lat="43.235299" lon="10.865392"><ele>429.7</ele></trkpt>
<trkpt lat="43.235173" lon="10.86573"><ele>430.0</ele></trkpt>
<trkpt lat="43.235173" lon="10.86573"><ele>430.0</ele></trkpt>
<trkpt lat="43.234891" lon="10.866487"><ele>431.6</ele></trkpt>
<trkpt lat="43.234891" lon="10.866873"><ele>434.0</ele></trkpt>
<trkpt lat="43.235063" lon="10.867474"><ele>439.2</ele></trkpt>
<trkpt lat="43.235278" lon="10.867838"><ele>443.8</ele></trkpt>
<trkpt lat="43.235707" lon="10.868268"><ele>447.9</ele></trkpt>
<trkpt lat="43.236007" lon="10.868761"><ele>451.2</ele></trkpt>
<trkpt lat="43.236136" lon="10.869019"><ele>452.9</ele></trkpt>
<trkpt lat="43.236222" lon="10.869319"><ele>454.8</ele></trkpt>
<trkpt lat="43.236243" lon="10.869812"><ele>456.3</ele></trkpt>
<trkpt lat="43.236157" lon="10.871508"><ele>464.0</ele></trkpt>
<trkpt lat="43.235986" lon="10.872087"><ele>463.9</ele></trkpt>
<trkpt lat="43.235728" lon="10.872623"><ele>462.6</ele></trkpt>
<trkpt lat="43.235492" lon="10.872967"><ele>460.8</ele></trkpt>
<trkpt lat="43.235385" lon="10.87316"><ele>460.3</ele></trkpt>
<trkpt lat="43.235213" lon="10.873589"><ele>459.1</ele></trkpt>
<trkpt lat="43.234977" lon="10.873868"><ele>459.0</ele></trkpt>
<trkpt lat="43.23487" lon="10.874018"><ele>458.9</ele></trkpt>
<trkpt lat="43.234827" lon="10.874147"><ele>458.5</ele></trkpt>
<trkpt lat="43.234634" lon="10.874297"><ele>459.2</ele></trkpt>
<trkpt lat="43.234312" lon="10.874555"><ele>460.8</ele></trkpt>
<trkpt lat="43.234183" lon="10.87464"><ele>461.7</ele></trkpt>
<trkpt lat="43.234033" lon="10.874726"><ele>462.9</ele></trkpt>
<trkpt lat="43.233454" lon="10.874834"><ele>469.4</ele></trkpt>
<trkpt lat="43.233304" lon="10.874898"><ele>471.3</ele></trkpt>
<trkpt lat="43.232746" lon="10.875284"><ele>475.9</ele></trkpt>
<trkpt lat="43.232574" lon="10.87537"><ele>477.1</ele></trkpt>
<trkpt lat="43.231909" lon="10.87567"><ele>483.5</ele></trkpt>
<trkpt lat="43.231115" lon="10.875992"><ele>487.1</ele></trkpt>
<trkpt lat="43.230814" lon="10.876078"><ele>486.4</ele></trkpt>
<trkpt lat="43.229999" lon="10.876271"><ele>484.9</ele></trkpt>
<trkpt lat="43.229978" lon="10.876185"><ele>486.1</ele></trkpt>
<trkpt lat="43.229956" lon="10.876121"><ele>487.0</ele></trkpt>
<trkpt lat="43.229892" lon="10.876014"><ele>488.5</ele></trkpt>
<trkpt lat="43.229591" lon="10.875735"><ele>490.3</ele></trkpt>
<trkpt lat="43.229548" lon="10.875649"><ele>490.4</ele></trkpt>
<trkpt lat="43.229463" lon="10.875434"><ele>491.3</ele></trkpt>
<trkpt lat="43.229076" lon="10.875349"><ele>495.5</ele></trkpt>
<trkpt lat="43.228905" lon="10.875263"><ele>497.6</ele></trkpt>
<trkpt lat="43.22854" lon="10.875005"><ele>503.3</ele></trkpt>
<trkpt lat="43.228111" lon="10.874404"><ele>505.4</ele></trkpt>
<trkpt lat="43.227875" lon="10.874233"><ele>507.5</ele></trkpt>
<trkpt lat="43.227639" lon="10.874125"><ele>510.6</ele></trkpt>
<trkpt lat="43.22736" lon="10.874083"><ele>515.5</ele></trkpt>
<trkpt lat="43.227059" lon="10.874018"><ele>520.7</ele></trkpt>
<trkpt lat="43.226823" lon="10.873804"><ele>522.4</ele></trkpt>
<trkpt lat="43.226695" lon="10.873696"><ele>523.5</ele></trkpt>
<trkpt lat="43.226544" lon="10.873718"><ele>526.2</ele></trkpt>
<trkpt lat="43.226416" lon="10.873653"><ele>527.9</ele></trkpt>
<trkpt lat="43.226416" lon="10.873568"><ele>527.4</ele></trkpt>
<trkpt lat="43.226501" lon="10.873374"><ele>524.4</ele></trkpt>
<trkpt lat="43.226716" lon="10.87316"><ele>521.8</ele></trkpt>
<trkpt lat="43.226737" lon="10.87301"><ele>522.4</ele></trkpt>
<trkpt lat="43.226695" lon="10.872623"><ele>525.7</ele></trkpt>
<trkpt lat="43.226716" lon="10.872473"><ele>526.0</ele></trkpt>
<trkpt lat="43.226759" lon="10.872409"><ele>525.4</ele></trkpt>
<trkpt lat="43.227016" lon="10.87228"><ele>521.7</ele></trkpt>
<trkpt lat="43.227102" lon="10.87213"><ele>519.7</ele></trkpt>
<trkpt lat="43.227038" lon="10.872023"><ele>521.5</ele></trkpt>
<trkpt lat="43.226952" lon="10.87198"><ele>523.2</ele></trkpt>
<trkpt lat="43.226501" lon="10.871937"><ele>528.9</ele></trkpt>
<trkpt lat="43.226265" lon="10.872108"><ele>532.1</ele></trkpt>
<trkpt lat="43.226008" lon="10.872237"><ele>535.7</ele></trkpt>
<trkpt lat="43.225793" lon="10.872216"><ele>538.5</ele></trkpt>
<trkpt lat="43.225557" lon="10.872151"><ele>541.5</ele></trkpt>
<trkpt lat="43.225171" lon="10.872452"><ele>547.0</ele></trkpt>
<trkpt lat="43.224613" lon="10.872795"><ele>552.4</ele></trkpt>
<trkpt lat="43.223862" lon="10.873181"><ele>565.3</ele></trkpt>
<trkpt lat="43.223497" lon="10.873675"><ele>571.4</ele></trkpt>
<trkpt lat="43.223304" lon="10.873632"><ele>575.2</ele></trkpt>
<trkpt lat="43.222982" lon="10.873396"><ele>582.0</ele></trkpt>
<trkpt lat="43.222618" lon="10.873246"><ele>589.0</ele></trkpt>
<trkpt lat="43.222339" lon="10.87331"><ele>592.7</ele></trkpt>
<trkpt lat="43.22203" lon="10.873503"><ele>595.9</ele></trkpt>
<trkpt lat="43.221995" lon="10.873525"><ele>596.3</ele></trkpt>
<trkpt lat="43.221931" lon="10.873525"><ele>597.1</ele></trkpt>
<trkpt lat="43.221888" lon="10.873482"><ele>597.8</ele></trkpt>
<trkpt lat="43.221845" lon="10.873396"><ele>598.7</ele></trkpt>
<trkpt lat="43.221867" lon="10.873289"><ele>599.7</ele></trkpt>
<trkpt lat="43.221931" lon="10.873138"><ele>600.9</ele></trkpt>
<trkpt lat="43.222103" lon="10.872817"><ele>602.3</ele></trkpt>
<trkpt lat="43.222339" lon="10.872495"><ele>601.1</ele></trkpt>
<trkpt lat="43.222382" lon="10.872366"><ele>601.8</ele></trkpt>
<trkpt lat="43.222403" lon="10.872023"><ele>605.4</ele></trkpt>
<trkpt lat="43.222403" lon="10.871744"><ele>608.8</ele></trkpt>
<trkpt lat="43.222489" lon="10.871486"><ele>607.5</ele></trkpt>
<trkpt lat="43.222489" lon="10.871207"><ele>607.5</ele></trkpt>
<trkpt lat="43.222424" lon="10.8711"><ele>608.1</ele></trkpt>
<trkpt lat="43.22236" lon="10.871036"><ele>608.7</ele></trkpt>
<trkpt lat="43.222124" lon="10.871036"><ele>610.9</ele></trkpt>
<trkpt lat="43.221888" lon="10.8711"><ele>613.3</ele></trkpt>
<trkpt lat="43.221545" lon="10.871293"><ele>617.2</ele></trkpt>
<trkpt lat="43.220686" lon="10.871615"><ele>625.4</ele></trkpt>
<trkpt lat="43.219141" lon="10.872495"><ele>629.0</ele></trkpt>
<trkpt lat="43.218905" lon="10.87301"><ele>630.2</ele></trkpt>
<trkpt lat="43.218262" lon="10.873804"><ele>641.0</ele></trkpt>
<trkpt lat="43.218219" lon="10.873911"><ele>643.2</ele></trkpt>
<trkpt lat="43.218219" lon="10.874061"><ele>646.4</ele></trkpt>
<trkpt lat="43.218283" lon="10.874104"><ele>647.3</ele></trkpt>
<trkpt lat="43.218476" lon="10.87419"><ele>648.8</ele></trkpt>
<trkpt lat="43.218712" lon="10.874254"><ele>649.7</ele></trkpt>
<trkpt lat="43.218863" lon="10.87434"><ele>650.0</ele></trkpt>
<trkpt lat="43.21897" lon="10.874469"><ele>651.5</ele></trkpt>
<trkpt lat="43.219034" lon="10.874598"><ele>653.2</ele></trkpt>
<trkpt lat="43.21912" lon="10.874855"><ele>656.7</ele></trkpt>
<trkpt lat="43.21912" lon="10.875027"><ele>659.9</ele></trkpt>
<trkpt lat="43.219056" lon="10.875542"><ele>666.1</ele></trkpt>
<trkpt lat="43.219013" lon="10.876121"><ele>671.1</ele></trkpt>
<trkpt lat="43.219013" lon="10.876336"><ele>671.9</ele></trkpt>
<trkpt lat="43.21897" lon="10.876486"><ele>673.4</ele></trkpt>
<trkpt lat="43.218905" lon="10.876593"><ele>675.0</ele></trkpt>
<trkpt lat="43.218798" lon="10.8767"><ele>677.4</ele></trkpt>
<trkpt lat="43.218584" lon="10.876851"><ele>679.6</ele></trkpt>
<trkpt lat="43.218283" lon="10.876958"><ele>681.4</ele></trkpt>
<trkpt lat="43.217232" lon="10.87713"><ele>687.2</ele></trkpt>
<trkpt lat="43.21676" lon="10.877151"><ele>689.8</ele></trkpt>
<trkpt lat="43.215022" lon="10.876979"><ele>700.1</ele></trkpt>
<trkpt lat="43.214979" lon="10.876786"><ele>700.7</ele></trkpt>
<trkpt lat="43.214914" lon="10.876593"><ele>701.0</ele></trkpt>
<trkpt lat="43.214764" lon="10.876507"><ele>702.3</ele></trkpt>
<trkpt lat="43.21455" lon="10.876443"><ele>704.7</ele></trkpt>
<trkpt lat="43.213841" lon="10.876486"><ele>711.9</ele></trkpt>
<trkpt lat="43.213155" lon="10.876765"><ele>717.7</ele></trkpt>
<trkpt lat="43.213005" lon="10.876765"><ele>718.6</ele></trkpt>
<trkpt lat="43.212747" lon="10.8767"><ele>720.8</ele></trkpt>
<trkpt lat="43.212597" lon="10.876657"><ele>722.3</ele></trkpt>
<trkpt lat="43.212404" lon="10.8767"><ele>724.1</ele></trkpt>
<trkpt lat="43.212275" lon="10.876657"><ele>725.6</ele></trkpt>
<trkpt lat="43.212125" lon="10.876593"><ele>727.7</ele></trkpt>
<trkpt lat="43.211953" lon="10.876443"><ele>731.4</ele></trkpt>
<trkpt lat="43.211867" lon="10.876379"><ele>733.7</ele></trkpt>
<trkpt lat="43.21176" lon="10.876379"><ele>735.8</ele></trkpt>
<trkpt lat="43.211674" lon="10.8764"><ele>737.2</ele></trkpt>
<trkpt lat="43.211245" lon="10.876743"><ele>740.2</ele></trkpt>
<trkpt lat="43.210945" lon="10.877022"><ele>739.5</ele></trkpt>
<trkpt lat="43.210859" lon="10.877065"><ele>739.7</ele></trkpt>
<trkpt lat="43.210773" lon="10.877065"><ele>740.5</ele></trkpt>
<trkpt lat="43.210752" lon="10.877022"><ele>741.4</ele></trkpt>
<trkpt lat="43.210752" lon="10.876958"><ele>742.4</ele></trkpt>
<trkpt lat="43.210902" lon="10.876765"><ele>743.9</ele></trkpt>
<trkpt lat="43.211052" lon="10.876443"><ele>747.1</ele></trkpt>
<trkpt lat="43.211073" lon="10.876293"><ele>749.2</ele></trkpt>
<trkpt lat="43.211073" lon="10.876185"><ele>750.8</ele></trkpt>
<trkpt lat="43.211009" lon="10.876121"><ele>752.1</ele></trkpt>
<trkpt lat="43.210923" lon="10.876078"><ele>753.3</ele></trkpt>
<trkpt lat="43.21043" lon="10.876078"><ele>756.4</ele></trkpt>
<trkpt lat="43.209893" lon="10.876185"><ele>760.4</ele></trkpt>
<trkpt lat="43.2097" lon="10.876271"><ele>761.6</ele></trkpt>
<trkpt lat="43.209528" lon="10.876271"><ele>763.4</ele></trkpt>
<trkpt lat="43.209142" lon="10.87625"><ele>772.0</ele></trkpt>
<trkpt lat="43.208971" lon="10.876293"><ele>775.6</ele></trkpt>
<trkpt lat="43.208928" lon="10.876314"><ele>776.5</ele></trkpt>
<trkpt lat="43.208756" lon="10.876443"><ele>779.9</ele></trkpt>
<trkpt lat="43.208649" lon="10.876507"><ele>782.1</ele></trkpt>
<trkpt lat="43.208477" lon="10.87655"><ele>784.9</ele></trkpt>
<trkpt lat="43.20837" lon="10.876615"><ele>786.7</ele></trkpt>
<trkpt lat="43.208155" lon="10.876829"><ele>788.8</ele></trkpt>
<trkpt lat="43.207082" lon="10.877516"><ele>796.8</ele></trkpt>
<trkpt lat="43.206846" lon="10.87773"><ele>792.5</ele></trkpt>
<trkpt lat="43.206675" lon="10.877945"><ele>787.8</ele></trkpt>
<trkpt lat="43.206524" lon="10.878245"><ele>784.4</ele></trkpt>
<trkpt lat="43.206481" lon="10.878567"><ele>783.1</ele></trkpt>
<trkpt lat="43.206439" lon="10.878739"><ele>782.7</ele></trkpt>
<trkpt lat="43.206396" lon="10.878889"><ele>782.5</ele></trkpt>
<trkpt lat="43.206052" lon="10.879662"><ele>780.3</ele></trkpt>
<trkpt lat="43.205966" lon="10.879833"><ele>779.4</ele></trkpt>
<trkpt lat="43.205816" lon="10.880005"><ele>778.9</ele></trkpt>
<trkpt lat="43.20573" lon="10.880069"><ele>778.7</ele></trkpt>
<trkpt lat="43.205623" lon="10.880091"><ele>778.5</ele></trkpt>
<trkpt lat="43.205494" lon="10.880112"><ele>778.4</ele></trkpt>
<trkpt lat="43.20528" lon="10.880112"><ele>777.7</ele></trkpt>
<trkpt lat="43.20513" lon="10.880134"><ele>775.8</ele></trkpt>
<trkpt lat="43.205001" lon="10.880177"><ele>774.1</ele></trkpt>
<trkpt lat="43.204851" lon="10.880262"><ele>772.2</ele></trkpt>
<trkpt lat="43.204743" lon="10.880327"><ele>771.1</ele></trkpt>
<trkpt lat="43.2044" lon="10.88067"><ele>768.2</ele></trkpt>
<trkpt lat="43.204264" lon="10.880759"><ele>767.1</ele></trkpt>
<trkpt lat="43.204241" lon="10.880671"><ele>766.4</ele></trkpt>
<trkpt lat="43.204264" lon="10.880759"><ele>767.1</ele></trkpt>
<trkpt lat="43.204143" lon="10.88082"><ele>766.2</ele></trkpt>
<trkpt lat="43.204014" lon="10.880863"><ele>765.2</ele></trkpt>
<trkpt lat="43.203864" lon="10.880928"><ele>763.4</ele></trkpt>
<trkpt lat="43.203756" lon="10.880992"><ele>762.1</ele></trkpt>
<trkpt lat="43.203413" lon="10.881292"><ele>759.0</ele></trkpt>
<trkpt lat="43.203306" lon="10.881378"><ele>758.6</ele></trkpt>
<trkpt lat="43.203113" lon="10.881614"><ele>758.6</ele></trkpt>
<trkpt lat="43.203048" lon="10.881721"><ele>759.0</ele></trkpt>
<trkpt lat="43.202919" lon="10.881958"><ele>760.2</ele></trkpt>
<trkpt lat="43.202855" lon="10.882108"><ele>761.3</ele></trkpt>
<trkpt lat="43.202748" lon="10.882515"><ele>763.4</ele></trkpt>
<trkpt lat="43.20249" lon="10.882923"><ele>765.1</ele></trkpt>
<trkpt lat="43.202276" lon="10.883309"><ele>768.1</ele></trkpt>
<trkpt lat="43.201868" lon="10.88391"><ele>773.7</ele></trkpt>
<trkpt lat="43.201503" lon="10.884425"><ele>779.2</ele></trkpt>
<trkpt lat="43.200988" lon="10.884726"><ele>784.9</ele></trkpt>
<trkpt lat="43.200666" lon="10.885369"><ele>792.4</ele></trkpt>
<trkpt lat="43.20013" lon="10.885949"><ele>796.9</ele></trkpt>
<trkpt lat="43.199722" lon="10.886142"><ele>794.1</ele></trkpt>
<trkpt lat="43.199036" lon="10.886034"><ele>790.6</ele></trkpt>
<trkpt lat="43.198521" lon="10.886313"><ele>790.0</ele></trkpt>
<trkpt lat="43.198006" lon="10.886442"><ele>783.7</ele></trkpt>
<trkpt lat="43.197491" lon="10.886485"><ele>778.4</ele></trkpt>
<trkpt lat="43.196804" lon="10.886785"><ele>775.1</ele></trkpt>
<trkpt lat="43.196289" lon="10.887086"><ele>777.4</ele></trkpt>
<trkpt lat="43.196096" lon="10.887386"><ele>779.7</ele></trkpt>
<trkpt lat="43.196182" lon="10.887944"><ele>783.9</ele></trkpt>
<trkpt lat="43.196182" lon="10.888996"><ele>790.5</ele></trkpt>
<trkpt lat="43.195903" lon="10.889468"><ele>793.5</ele></trkpt>
<trkpt lat="43.195345" lon="10.889961"><ele>801.7</ele></trkpt>
<trkpt lat="43.195109" lon="10.89082"><ele>810.8</ele></trkpt>
<trkpt lat="43.194808" lon="10.891184"><ele>811.4</ele></trkpt>
<trkpt lat="43.194229" lon="10.892"><ele>813.8</ele></trkpt>
<trkpt lat="43.194057" lon="10.892257"><ele>814.2</ele></trkpt>
<trkpt lat="43.193972" lon="10.892429"><ele>814.9</ele></trkpt>
<trkpt lat="43.19395" lon="10.892579"><ele>816.1</ele></trkpt>
<trkpt lat="43.193864" lon="10.893201"><ele>821.9</ele></trkpt>
<trkpt lat="43.193693" lon="10.893566"><ele>822.5</ele></trkpt>
<trkpt lat="43.193693" lon="10.89406"><ele>823.6</ele></trkpt>
<trkpt lat="43.193564" lon="10.894317"><ele>823.7</ele></trkpt>
<trkpt lat="43.192899" lon="10.894639"><ele>826.5</ele></trkpt>
<trkpt lat="43.192684" lon="10.894811"><ele>828.3</ele></trkpt>
<trkpt lat="43.192384" lon="10.895369"><ele>834.6</ele></trkpt>
<trkpt lat="43.191847" lon="10.895755"><ele>836.6</ele></trkpt>
<trkpt lat="43.191568" lon="10.89612"><ele>835.8</ele></trkpt>
<trkpt lat="43.191483" lon="10.896291"><ele>835.1</ele></trkpt>
<trkpt lat="43.191332" lon="10.896313"><ele>833.8</ele></trkpt>
<trkpt lat="43.190045" lon="10.896077"><ele>823.8</ele></trkpt>
<trkpt lat="43.18953" lon="10.89569"><ele>819.0</ele></trkpt>
<trkpt lat="43.189315" lon="10.895648"><ele>817.4</ele></trkpt>
<trkpt lat="43.188436" lon="10.896227"><ele>814.8</ele></trkpt>
<trkpt lat="43.187491" lon="10.896012"><ele>824.0</ele></trkpt>
<trkpt lat="43.187284" lon="10.89588"><ele>826.2</ele></trkpt>
<trkpt lat="43.187255" lon="10.895862"><ele>826.5</ele></trkpt>
<trkpt lat="43.18659" lon="10.89509"><ele>823.2</ele></trkpt>
<trkpt lat="43.186118" lon="10.895133"><ele>823.8</ele></trkpt>
<trkpt lat="43.185431" lon="10.895519"><ele>824.4</ele></trkpt>
<trkpt lat="43.185367" lon="10.895519"><ele>824.5</ele></trkpt>
<trkpt lat="43.18526" lon="10.895497"><ele>826.0</ele></trkpt>
<trkpt lat="43.18511" lon="10.895454"><ele>828.2</ele></trkpt>
<trkpt lat="43.184208" lon="10.894682"><ele>826.9</ele></trkpt>
<trkpt lat="43.183071" lon="10.894103"><ele>813.8</ele></trkpt>
<trkpt lat="43.182535" lon="10.893459"><ele>802.3</ele></trkpt>
<trkpt lat="43.182535" lon="10.893137"><ele>797.9</ele></trkpt>
<trkpt lat="43.182556" lon="10.892815"><ele>792.8</ele></trkpt>
<trkpt lat="43.182406" lon="10.892601"><ele>789.5</ele></trkpt>
<trkpt lat="43.181741" lon="10.892686"><ele>786.2</ele></trkpt>
<trkpt lat="43.18099" lon="10.891849"><ele>768.3</ele></trkpt>
<trkpt lat="43.180539" lon="10.891442"><ele>761.5</ele></trkpt>
<trkpt lat="43.180367" lon="10.891163"><ele>758.5</ele></trkpt>
<trkpt lat="43.180067" lon="10.890927"><ele>752.9</ele></trkpt>
<trkpt lat="43.179874" lon="10.890583"><ele>748.7</ele></trkpt>
<trkpt lat="43.17938" lon="10.890111"><ele>746.3</ele></trkpt>
<trkpt lat="43.178865" lon="10.889511"><ele>742.1</ele></trkpt>
<trkpt lat="43.17878" lon="10.889446"><ele>742.8</ele></trkpt>
<trkpt lat="43.178501" lon="10.889403"><ele>741.5</ele></trkpt>
<trkpt lat="43.17835" lon="10.889296"><ele>740.8</ele></trkpt>
<trkpt lat="43.177514" lon="10.888288"><ele>731.6</ele></trkpt>
<trkpt lat="43.177127" lon="10.888073"><ele>725.0</ele></trkpt>
<trkpt lat="43.177042" lon="10.888137"><ele>724.9</ele></trkpt>
<trkpt lat="43.176977" lon="10.888288"><ele>725.1</ele></trkpt>
<trkpt lat="43.176977" lon="10.888438"><ele>724.9</ele></trkpt>
<trkpt lat="43.177042" lon="10.888674"><ele>723.5</ele></trkpt>
<trkpt lat="43.177256" lon="10.889275"><ele>721.4</ele></trkpt>
<trkpt lat="43.177406" lon="10.889832"><ele>717.0</ele></trkpt>
<trkpt lat="43.177535" lon="10.89039"><ele>710.4</ele></trkpt>
<trkpt lat="43.177642" lon="10.890541"><ele>709.8</ele></trkpt>
<trkpt lat="43.177878" lon="10.890798"><ele>709.7</ele></trkpt>
<trkpt lat="43.177921" lon="10.890927"><ele>708.2</ele></trkpt>
<trkpt lat="43.177857" lon="10.891463"><ele>697.1</ele></trkpt>
<trkpt lat="43.177857" lon="10.891828"><ele>692.3</ele></trkpt>
<trkpt lat="43.177921" lon="10.892279"><ele>691.6</ele></trkpt>
<trkpt lat="43.177986" lon="10.892515"><ele>691.9</ele></trkpt>
<trkpt lat="43.178007" lon="10.892622"><ele>693.0</ele></trkpt>
<trkpt lat="43.177943" lon="10.892708"><ele>692.3</ele></trkpt>
<trkpt lat="43.177835" lon="10.892772"><ele>690.7</ele></trkpt>
<trkpt lat="43.177514" lon="10.893201"><ele>690.6</ele></trkpt>
<trkpt lat="43.177299" lon="10.893673"><ele>692.6</ele></trkpt>
<trkpt lat="43.177192" lon="10.893824"><ele>693.0</ele></trkpt>
<trkpt lat="43.176333" lon="10.893931"><ele>687.2</ele></trkpt>
<trkpt lat="43.176205" lon="10.893888"><ele>685.6</ele></trkpt>
<trkpt lat="43.176076" lon="10.893759"><ele>681.9</ele></trkpt>
<trkpt lat="43.175883" lon="10.893716"><ele>678.3</ele></trkpt>
<trkpt lat="43.175261" lon="10.893673"><ele>667.3</ele></trkpt>
<trkpt lat="43.175196" lon="10.893716"><ele>666.0</ele></trkpt>
<trkpt lat="43.175089" lon="10.893845"><ele>663.9</ele></trkpt>
<trkpt lat="43.175024" lon="10.893867"><ele>662.2</ele></trkpt>
<trkpt lat="43.174982" lon="10.893781"><ele>660.5</ele></trkpt>
<trkpt lat="43.175024" lon="10.893609"><ele>660.7</ele></trkpt>
<trkpt lat="43.175089" lon="10.89348"><ele>661.5</ele></trkpt>
<trkpt lat="43.175561" lon="10.893244"><ele>668.0</ele></trkpt>
<trkpt lat="43.175776" lon="10.893094"><ele>668.7</ele></trkpt>
<trkpt lat="43.175818" lon="10.893051"><ele>668.7</ele></trkpt>
<trkpt lat="43.175754" lon="10.892987"><ele>667.0</ele></trkpt>
<trkpt lat="43.175582" lon="10.892879"><ele>663.4</ele></trkpt>
<trkpt lat="43.175175" lon="10.892665"><ele>655.2</ele></trkpt>
<trkpt lat="43.174831" lon="10.892601"><ele>650.1</ele></trkpt>
<trkpt lat="43.174209" lon="10.892407"><ele>640.2</ele></trkpt>
<trkpt lat="43.174123" lon="10.892429"><ele>639.0</ele></trkpt>
<trkpt lat="43.173973" lon="10.892515"><ele>637.2</ele></trkpt>
<trkpt lat="43.173866" lon="10.892601"><ele>635.3</ele></trkpt>
<trkpt lat="43.173758" lon="10.892558"><ele>633.8</ele></trkpt>
<trkpt lat="43.173587" lon="10.892214"><ele>628.5</ele></trkpt>
<trkpt lat="43.173437" lon="10.892128"><ele>624.9</ele></trkpt>
<trkpt lat="43.173351" lon="10.892128"><ele>623.2</ele></trkpt>
<trkpt lat="43.173308" lon="10.892193"><ele>622.7</ele></trkpt>
<trkpt lat="43.173308" lon="10.892322"><ele>623.5</ele></trkpt>
<trkpt lat="43.173608" lon="10.89363"><ele>622.9</ele></trkpt>
<trkpt lat="43.173608" lon="10.893781"><ele>621.6</ele></trkpt>
<trkpt lat="43.17348" lon="10.894381"><ele>614.1</ele></trkpt>
<trkpt lat="43.17348" lon="10.894489"><ele>613.5</ele></trkpt>
<trkpt lat="43.173501" lon="10.894596"><ele>613.3</ele></trkpt>
<trkpt lat="43.173673" lon="10.894982"><ele>614.7</ele></trkpt>
<trkpt lat="43.173716" lon="10.895261"><ele>614.4</ele></trkpt>
<trkpt lat="43.173694" lon="10.895433"><ele>613.0</ele></trkpt>
<trkpt lat="43.173608" lon="10.895562"><ele>610.8</ele></trkpt>
<trkpt lat="43.173372" lon="10.895583"><ele>606.2</ele></trkpt>
<trkpt lat="43.173329" lon="10.895347"><ele>605.9</ele></trkpt>
<trkpt lat="43.173201" lon="10.895154"><ele>603.5</ele></trkpt>
<trkpt lat="43.172793" lon="10.894811"><ele>596.3</ele></trkpt>
<trkpt lat="43.172428" lon="10.894167"><ele>593.3</ele></trkpt>
<trkpt lat="43.172106" lon="10.893588"><ele>590.4</ele></trkpt>
<trkpt lat="43.171033" lon="10.891463"><ele>577.2</ele></trkpt>
<trkpt lat="43.170797" lon="10.891098"><ele>575.0</ele></trkpt>
<trkpt lat="43.170626" lon="10.890841"><ele>573.4</ele></trkpt>
<trkpt lat="43.170518" lon="10.890712"><ele>571.7</ele></trkpt>
<trkpt lat="43.170239" lon="10.890433"><ele>568.0</ele></trkpt>
<trkpt lat="43.169274" lon="10.889532"><ele>560.9</ele></trkpt>
<trkpt lat="43.167665" lon="10.88803"><ele>549.2</ele></trkpt>
<trkpt lat="43.167264" lon="10.887653"><ele>546.2</ele></trkpt>
<trkpt lat="43.167288" lon="10.887606"><ele>546.7</ele></trkpt>
<trkpt lat="43.167264" lon="10.887653"><ele>546.2</ele></trkpt>
<trkpt lat="43.167665" lon="10.88803"><ele>549.2</ele></trkpt>
<trkpt lat="43.166549" lon="10.886979"><ele>538.0</ele></trkpt>
<trkpt lat="43.166313" lon="10.8867"><ele>536.2</ele></trkpt>
<trkpt lat="43.166077" lon="10.886399"><ele>534.3</ele></trkpt>
<trkpt lat="43.165798" lon="10.885949"><ele>535.4</ele></trkpt>
<trkpt lat="43.165562" lon="10.885498"><ele>536.6</ele></trkpt>
<trkpt lat="43.164768" lon="10.884253"><ele>540.6</ele></trkpt>
<trkpt lat="43.164446" lon="10.883631"><ele>541.8</ele></trkpt>
<trkpt lat="43.164317" lon="10.883417"><ele>541.0</ele></trkpt>
<trkpt lat="43.164145" lon="10.883073"><ele>541.6</ele></trkpt>
<trkpt lat="43.163266" lon="10.880992"><ele>551.2</ele></trkpt>
<trkpt lat="43.163137" lon="10.880713"><ele>551.9</ele></trkpt>
<trkpt lat="43.16303" lon="10.880498"><ele>552.4</ele></trkpt>
<trkpt lat="43.162858" lon="10.880219"><ele>552.8</ele></trkpt>
<trkpt lat="43.162708" lon="10.880026"><ele>553.3</ele></trkpt>
<trkpt lat="43.162021" lon="10.879211"><ele>561.0</ele></trkpt>
<trkpt lat="43.161656" lon="10.878889"><ele>567.6</ele></trkpt>
<trkpt lat="43.161463" lon="10.87876"><ele>569.8</ele></trkpt>
<trkpt lat="43.161292" lon="10.878696"><ele>571.0</ele></trkpt>
<trkpt lat="43.160841" lon="10.878589"><ele>573.9</ele></trkpt>
<trkpt lat="43.158395" lon="10.878396"><ele>591.5</ele></trkpt>
<trkpt lat="43.158245" lon="10.878417"><ele>592.2</ele></trkpt>
<trkpt lat="43.158073" lon="10.87846"><ele>592.9</ele></trkpt>
<trkpt lat="43.157751" lon="10.878589"><ele>595.5</ele></trkpt>
<trkpt lat="43.157601" lon="10.878696"><ele>597.4</ele></trkpt>
<trkpt lat="43.1573" lon="10.878953"><ele>600.0</ele></trkpt>
<trkpt lat="43.156957" lon="10.87934"><ele>600.1</ele></trkpt>
<trkpt lat="43.157032" lon="10.879049"><ele>610.0</ele></trkpt>
<trkpt lat="43.157031" lon="10.879021"><ele>610.2</ele></trkpt>
<trkpt lat="43.157039" lon="10.878989"><ele>610.2</ele></trkpt>
<trkpt lat="43.157051" lon="10.878958"><ele>610.0</ele></trkpt>
<trkpt lat="43.157065" lon="10.878928"><ele>609.7</ele></trkpt>
<trkpt lat="43.15732" lon="10.878583"><ele>608.5</ele></trkpt>
<trkpt lat="43.157479" lon="10.878109"><ele>611.7</ele></trkpt>
<trkpt lat="43.157346" lon="10.877804"><ele>613.2</ele></trkpt>
<trkpt lat="43.157352" lon="10.877761"><ele>613.7</ele></trkpt>
<trkpt lat="43.157299" lon="10.877672"><ele>614.2</ele></trkpt>
<trkpt lat="43.157287" lon="10.877643"><ele>614.2</ele></trkpt>
<trkpt lat="43.157276" lon="10.877614"><ele>614.2</ele></trkpt>
<trkpt lat="43.157267" lon="10.877581"><ele>614.2</ele></trkpt>
<trkpt lat="43.157134" lon="10.87705"><ele>615.2</ele></trkpt>
<trkpt lat="43.156904" lon="10.876493"><ele>617.2</ele></trkpt>
<trkpt lat="43.15675" lon="10.87611"><ele>619.7</ele></trkpt>
<trkpt lat="43.156667" lon="10.875749"><ele>622.7</ele></trkpt>
<trkpt lat="43.156617" lon="10.875384"><ele>625.7</ele></trkpt>
<trkpt lat="43.156597" lon="10.875168"><ele>628.4</ele></trkpt>
<trkpt lat="43.15659" lon="10.875083"><ele>631.5</ele></trkpt>
<trkpt lat="43.156708" lon="10.874743"><ele>630.0</ele></trkpt>
<trkpt lat="43.156915" lon="10.874488"><ele>632.4</ele></trkpt>
<trkpt lat="43.157077" lon="10.874187"><ele>635.5</ele></trkpt>
<trkpt lat="43.15714" lon="10.873878"><ele>638.5</ele></trkpt>
<trkpt lat="43.157105" lon="10.873339"><ele>639.0</ele></trkpt>
<trkpt lat="43.157078" lon="10.873095"><ele>637.5</ele></trkpt>
<trkpt lat="43.157066" lon="10.873063"><ele>637.2</ele></trkpt>
<trkpt lat="43.157051" lon="10.873019"><ele>637.0</ele></trkpt>
<trkpt lat="43.15675" lon="10.872618"><ele>634.2</ele></trkpt>
<trkpt lat="43.156605" lon="10.872472"><ele>631.5</ele></trkpt>
<trkpt lat="43.156587" lon="10.872437"><ele>629.0</ele></trkpt>
<trkpt lat="43.156554" lon="10.872404"><ele>629.2</ele></trkpt>
<trkpt lat="43.156604" lon="10.872311"><ele>627.5</ele></trkpt>
<trkpt lat="43.156715" lon="10.872176"><ele>627.0</ele></trkpt>
<trkpt lat="43.156735" lon="10.872121"><ele>626.7</ele></trkpt>
<trkpt lat="43.156746" lon="10.872059"><ele>626.5</ele></trkpt>
<trkpt lat="43.156752" lon="10.871995"><ele>626.4</ele></trkpt>
<trkpt lat="43.156745" lon="10.871934"><ele>626.2</ele></trkpt>
<trkpt lat="43.156731" lon="10.871878"><ele>625.7</ele></trkpt>
<trkpt lat="43.156719" lon="10.871824"><ele>625.5</ele></trkpt>
<trkpt lat="43.156712" lon="10.871774"><ele>625.2</ele></trkpt>
<trkpt lat="43.156726" lon="10.871399"><ele>624.2</ele></trkpt>
<trkpt lat="43.156917" lon="10.87088"><ele>624.2</ele></trkpt>
<trkpt lat="43.157187" lon="10.870332"><ele>623.0</ele></trkpt>
<trkpt lat="43.15722" lon="10.870168"><ele>622.5</ele></trkpt>
<trkpt lat="43.157229" lon="10.870142"><ele>622.5</ele></trkpt>
<trkpt lat="43.157239" lon="10.870119"><ele>622.5</ele></trkpt>
<trkpt lat="43.157245" lon="10.870095"><ele>620.7</ele></trkpt>
<trkpt lat="43.157218" lon="10.870005"><ele>621.7</ele></trkpt>
<trkpt lat="43.157212" lon="10.869968"><ele>621.4</ele></trkpt>
<trkpt lat="43.157203" lon="10.869931"><ele>621.0</ele></trkpt>
<trkpt lat="43.157189" lon="10.869891"><ele>620.7</ele></trkpt>
<trkpt lat="43.157173" lon="10.869855"><ele>620.5</ele></trkpt>
<trkpt lat="43.157157" lon="10.869822"><ele>620.2</ele></trkpt>
<trkpt lat="43.157144" lon="10.86979"><ele>620.0</ele></trkpt>
<trkpt lat="43.157028" lon="10.869503"><ele>616.5</ele></trkpt>
<trkpt lat="43.156888" lon="10.869214"><ele>613.4</ele></trkpt>
<trkpt lat="43.156854" lon="10.869174"><ele>613.0</ele></trkpt>
<trkpt lat="43.156824" lon="10.869158"><ele>612.5</ele></trkpt>
<trkpt lat="43.156666" lon="10.869057"><ele>609.0</ele></trkpt>
<trkpt lat="43.156449" lon="10.868876"><ele>605.7</ele></trkpt>
<trkpt lat="43.156158" lon="10.868625"><ele>602.7</ele></trkpt>
<trkpt lat="43.155601" lon="10.868113"><ele>600.4</ele></trkpt>
<trkpt lat="43.155225" lon="10.867473"><ele>596.7</ele></trkpt>
<trkpt lat="43.155201" lon="10.867419"><ele>596.2</ele></trkpt>
<trkpt lat="43.155122" lon="10.867231"><ele>595.2</ele></trkpt>
<trkpt lat="43.155069" lon="10.867099"><ele>594.4</ele></trkpt>
<trkpt lat="43.155047" lon="10.867028"><ele>594.0</ele></trkpt>
<trkpt lat="43.155032" lon="10.866945"><ele>593.4</ele></trkpt>
<trkpt lat="43.154912" lon="10.866556"><ele>590.2</ele></trkpt>
<trkpt lat="43.154863" lon="10.866517"><ele>589.5</ele></trkpt>
<trkpt lat="43.154481" lon="10.8662"><ele>587.5</ele></trkpt>
<trkpt lat="43.154179" lon="10.865975"><ele>588.5</ele></trkpt>
<trkpt lat="43.153967" lon="10.865603"><ele>589.4</ele></trkpt>
<trkpt lat="43.153739" lon="10.865271"><ele>588.5</ele></trkpt>
<trkpt lat="43.153679" lon="10.865174"><ele>587.4</ele></trkpt>
<trkpt lat="43.153661" lon="10.865121"><ele>587.0</ele></trkpt>
<trkpt lat="43.153601" lon="10.864908"><ele>585.2</ele></trkpt>
<trkpt lat="43.153593" lon="10.86485"><ele>584.7</ele></trkpt>
<trkpt lat="43.15359" lon="10.864797"><ele>584.4</ele></trkpt>
<trkpt lat="43.153589" lon="10.864757"><ele>584.0</ele></trkpt>
<trkpt lat="43.153585" lon="10.864726"><ele>583.4</ele></trkpt>
<trkpt lat="43.153575" lon="10.864684"><ele>581.5</ele></trkpt>
<trkpt lat="43.153566" lon="10.864649"><ele>581.2</ele></trkpt>
<trkpt lat="43.153559" lon="10.864603"><ele>580.5</ele></trkpt>
<trkpt lat="43.153543" lon="10.864559"><ele>580.0</ele></trkpt>
<trkpt lat="43.153527" lon="10.864515"><ele>579.5</ele></trkpt>
<trkpt lat="43.153405" lon="10.864255"><ele>576.4</ele></trkpt>
<trkpt lat="43.153313" lon="10.864034"><ele>573.0</ele></trkpt>
<trkpt lat="43.153234" lon="10.863882"><ele>571.0</ele></trkpt>
<trkpt lat="43.153205" lon="10.863848"><ele>570.4</ele></trkpt>
<trkpt lat="43.153183" lon="10.863822"><ele>569.5</ele></trkpt>
<trkpt lat="43.153162" lon="10.86379"><ele>569.2</ele></trkpt>
<trkpt lat="43.153137" lon="10.863754"><ele>568.7</ele></trkpt>
<trkpt lat="43.153122" lon="10.863732"><ele>568.4</ele></trkpt>
<trkpt lat="43.153056" lon="10.8636"><ele>567.0</ele></trkpt>
<trkpt lat="43.153026" lon="10.863465"><ele>565.0</ele></trkpt>
<trkpt lat="43.153154" lon="10.863198"><ele>565.7</ele></trkpt>
<trkpt lat="43.153141" lon="10.862732"><ele>567.2</ele></trkpt>
<trkpt lat="43.152963" lon="10.862312"><ele>566.7</ele></trkpt>
<trkpt lat="43.152734" lon="10.861929"><ele>569.5</ele></trkpt>
<trkpt lat="43.152573" lon="10.861634"><ele>573.0</ele></trkpt>
<trkpt lat="43.152692" lon="10.861343"><ele>576.0</ele></trkpt>
<trkpt lat="43.152905" lon="10.861185"><ele>579.2</ele></trkpt>
<trkpt lat="43.153083" lon="10.861047"><ele>582.4</ele></trkpt>
<trkpt lat="43.153274" lon="10.860952"><ele>585.4</ele></trkpt>
<trkpt lat="43.153486" lon="10.860896"><ele>588.4</ele></trkpt>
<trkpt lat="43.153679" lon="10.860734"><ele>591.5</ele></trkpt>
<trkpt lat="43.153906" lon="10.860576"><ele>594.4</ele></trkpt>
<trkpt lat="43.154146" lon="10.860313"><ele>595.0</ele></trkpt>
<trkpt lat="43.154269" lon="10.860126"><ele>594.7</ele></trkpt>
<trkpt lat="43.154265" lon="10.860085"><ele>594.5</ele></trkpt>
<trkpt lat="43.154252" lon="10.860057"><ele>594.5</ele></trkpt>
<trkpt lat="43.154239" lon="10.860039"><ele>594.5</ele></trkpt>
<trkpt lat="43.154224" lon="10.860026"><ele>594.5</ele></trkpt>
<trkpt lat="43.154211" lon="10.860011"><ele>594.5</ele></trkpt>
<trkpt lat="43.154189" lon="10.859998"><ele>594.5</ele></trkpt>
<trkpt lat="43.15417" lon="10.859985"><ele>594.5</ele></trkpt>
<trkpt lat="43.153767" lon="10.859831"><ele>596.2</ele></trkpt>
<trkpt lat="43.153299" lon="10.859785"><ele>596.4</ele></trkpt>
<trkpt lat="43.15276" lon="10.859665"><ele>596.7</ele></trkpt>
<trkpt lat="43.152527" lon="10.859546"><ele>596.2</ele></trkpt>
<trkpt lat="43.152489" lon="10.859492"><ele>600.4</ele></trkpt>
<trkpt lat="43.152486" lon="10.859495"><ele>600.7</ele></trkpt>
<trkpt lat="43.152472" lon="10.859499"><ele>599.4</ele></trkpt>
<trkpt lat="43.15239" lon="10.859365"><ele>601.5</ele></trkpt>
<trkpt lat="43.152367" lon="10.85932"><ele>601.5</ele></trkpt>
<trkpt lat="43.152351" lon="10.859269"><ele>601.2</ele></trkpt>
<trkpt lat="43.152337" lon="10.859215"><ele>600.7</ele></trkpt>
<trkpt lat="43.152322" lon="10.859162"><ele>600.5</ele></trkpt>
<trkpt lat="43.15229" lon="10.859061"><ele>599.5</ele></trkpt>
<trkpt lat="43.152046" lon="10.858421"><ele>599.4</ele></trkpt>
<trkpt lat="43.152042" lon="10.85798"><ele>602.4</ele></trkpt>
<trkpt lat="43.152214" lon="10.857818"><ele>605.5</ele></trkpt>
<trkpt lat="43.152382" lon="10.857529"><ele>608.7</ele></trkpt>
<trkpt lat="43.152603" lon="10.857449"><ele>610.4</ele></trkpt>
<trkpt lat="43.152844" lon="10.857659"><ele>613.0</ele></trkpt>
<trkpt lat="43.153119" lon="10.857721"><ele>615.7</ele></trkpt>
<trkpt lat="43.153405" lon="10.857696"><ele>618.7</ele></trkpt>
<trkpt lat="43.153737" lon="10.857718"><ele>620.2</ele></trkpt>
<trkpt lat="43.153822" lon="10.857734"><ele>623.5</ele></trkpt>
<trkpt lat="43.153882" lon="10.857755"><ele>624.4</ele></trkpt>
<trkpt lat="43.154195" lon="10.857995"><ele>625.0</ele></trkpt>
<trkpt lat="43.154226" lon="10.858038"><ele>625.2</ele></trkpt>
<trkpt lat="43.154258" lon="10.858076"><ele>625.4</ele></trkpt>
<trkpt lat="43.154295" lon="10.858091"><ele>625.4</ele></trkpt>
<trkpt lat="43.154332" lon="10.858079"><ele>625.4</ele></trkpt>
<trkpt lat="43.154361" lon="10.858041"><ele>625.4</ele></trkpt>
<trkpt lat="43.154372" lon="10.857982"><ele>625.2</ele></trkpt>
<trkpt lat="43.154377" lon="10.85791"><ele>624.7</ele></trkpt>
<trkpt lat="43.154381" lon="10.857833"><ele>624.5</ele></trkpt>
<trkpt lat="43.154389" lon="10.857757"><ele>624.4</ele></trkpt>
<trkpt lat="43.154451" lon="10.857221"><ele>622.0</ele></trkpt>
<trkpt lat="43.154514" lon="10.856959"><ele>622.7</ele></trkpt>
<trkpt lat="43.154523" lon="10.856941"><ele>622.7</ele></trkpt>
<trkpt lat="43.154529" lon="10.856917"><ele>622.7</ele></trkpt>
<trkpt lat="43.154532" lon="10.856892"><ele>623.0</ele></trkpt>
<trkpt lat="43.154535" lon="10.856869"><ele>623.0</ele></trkpt>
<trkpt lat="43.154497" lon="10.856504"><ele>623.5</ele></trkpt>
<trkpt lat="43.154381" lon="10.856121"><ele>623.5</ele></trkpt>
<trkpt lat="43.154369" lon="10.856047"><ele>624.2</ele></trkpt>
<trkpt lat="43.154366" lon="10.856031"><ele>624.2</ele></trkpt>
<trkpt lat="43.154361" lon="10.856016"><ele>624.4</ele></trkpt>
<trkpt lat="43.15436" lon="10.855999"><ele>624.4</ele></trkpt>
<trkpt lat="43.154359" lon="10.855979"><ele>624.5</ele></trkpt>
<trkpt lat="43.154266" lon="10.855736"><ele>625.0</ele></trkpt>
<trkpt lat="43.154155" lon="10.855437"><ele>626.0</ele></trkpt>
<trkpt lat="43.154146" lon="10.855317"><ele>626.2</ele></trkpt>
<trkpt lat="43.154159" lon="10.85526"><ele>626.2</ele></trkpt>
<trkpt lat="43.154172" lon="10.85523"><ele>626.2</ele></trkpt>
<trkpt lat="43.154191" lon="10.8552"><ele>626.2</ele></trkpt>
<trkpt lat="43.154215" lon="10.855168"><ele>626.0</ele></trkpt>
<trkpt lat="43.154242" lon="10.855135"><ele>626.0</ele></trkpt>
<trkpt lat="43.154274" lon="10.855108"><ele>626.0</ele></trkpt>
<trkpt lat="43.15431" lon="10.855086"><ele>626.0</ele></trkpt>
<trkpt lat="43.154345" lon="10.855058"><ele>625.7</ele></trkpt>
<trkpt lat="43.154376" lon="10.855018"><ele>625.5</ele></trkpt>
<trkpt lat="43.154401" lon="10.854967"><ele>625.4</ele></trkpt>
<trkpt lat="43.154421" lon="10.854913"><ele>625.2</ele></trkpt>
<trkpt lat="43.154438" lon="10.85486"><ele>625.2</ele></trkpt>
<trkpt lat="43.154507" lon="10.854634"><ele>624.4</ele></trkpt>
<trkpt lat="43.1545" lon="10.854297"><ele>626.2</ele></trkpt>
<trkpt lat="43.154395" lon="10.853905"><ele>628.7</ele></trkpt>
<trkpt lat="43.154223" lon="10.853558"><ele>630.5</ele></trkpt>
<trkpt lat="43.154217" lon="10.853538"><ele>630.5</ele></trkpt>
<trkpt lat="43.154216" lon="10.853518"><ele>630.7</ele></trkpt>
<trkpt lat="43.154216" lon="10.853497"><ele>631.0</ele></trkpt>
<trkpt lat="43.154215" lon="10.85347"><ele>631.2</ele></trkpt>
<trkpt lat="43.154212" lon="10.853441"><ele>631.4</ele></trkpt>
<trkpt lat="43.154218" lon="10.85315"><ele>634.4</ele></trkpt>
<trkpt lat="43.154208" lon="10.853023"><ele>635.5</ele></trkpt>
<trkpt lat="43.154192" lon="10.853008"><ele>636.0</ele></trkpt>
<trkpt lat="43.154171" lon="10.852997"><ele>636.4</ele></trkpt>
<trkpt lat="43.154148" lon="10.852993"><ele>636.5</ele></trkpt>
<trkpt lat="43.154126" lon="10.852992"><ele>636.5</ele></trkpt>
<trkpt lat="43.154103" lon="10.852991"><ele>637.2</ele></trkpt>
<trkpt lat="43.154079" lon="10.852988"><ele>637.4</ele></trkpt>
<trkpt lat="43.154056" lon="10.852982"><ele>637.5</ele></trkpt>
<trkpt lat="43.153726" lon="10.852645"><ele>639.2</ele></trkpt>
<trkpt lat="43.153704" lon="10.85259"><ele>639.2</ele></trkpt>
<trkpt lat="43.153661" lon="10.852451"><ele>639.0</ele></trkpt>
<trkpt lat="43.15365" lon="10.852362"><ele>638.7</ele></trkpt>
<trkpt lat="43.153655" lon="10.85226"><ele>638.7</ele></trkpt>
<trkpt lat="43.153682" lon="10.852152"><ele>638.5</ele></trkpt>
<trkpt lat="43.153726" lon="10.852044"><ele>638.2</ele></trkpt>
<trkpt lat="43.153776" lon="10.851934"><ele>637.7</ele></trkpt>
<trkpt lat="43.153832" lon="10.851823"><ele>637.2</ele></trkpt>
<trkpt lat="43.153942" lon="10.851627"><ele>635.5</ele></trkpt>
<trkpt lat="43.153968" lon="10.851538"><ele>635.0</ele></trkpt>
<trkpt lat="43.153967" lon="10.851451"><ele>634.4</ele></trkpt>
<trkpt lat="43.153926" lon="10.85137"><ele>633.7</ele></trkpt>
<trkpt lat="43.153874" lon="10.851302"><ele>633.2</ele></trkpt>
<trkpt lat="43.153812" lon="10.851237"><ele>632.5</ele></trkpt>
<trkpt lat="43.15375" lon="10.851157"><ele>632.0</ele></trkpt>
<trkpt lat="43.153684" lon="10.851074"><ele>631.2</ele></trkpt>
<trkpt lat="43.153389" lon="10.850776"><ele>627.5</ele></trkpt>
<trkpt lat="43.153329" lon="10.850689"><ele>625.7</ele></trkpt>
<trkpt lat="43.15328" lon="10.85059"><ele>625.2</ele></trkpt>
<trkpt lat="43.153228" lon="10.850501"><ele>624.4</ele></trkpt>
<trkpt lat="43.153164" lon="10.850421"><ele>623.7</ele></trkpt>
<trkpt lat="43.153093" lon="10.850351"><ele>623.4</ele></trkpt>
<trkpt lat="43.153026" lon="10.850298"><ele>622.7</ele></trkpt>
<trkpt lat="43.152958" lon="10.850291"><ele>622.4</ele></trkpt>
<trkpt lat="43.152894" lon="10.850319"><ele>621.7</ele></trkpt>
<trkpt lat="43.152831" lon="10.850381"><ele>621.0</ele></trkpt>
<trkpt lat="43.152794" lon="10.850453"><ele>620.4</ele></trkpt>
<trkpt lat="43.152745" lon="10.850511"><ele>619.7</ele></trkpt>
<trkpt lat="43.152671" lon="10.850537"><ele>619.0</ele></trkpt>
<trkpt lat="43.15259" lon="10.85053"><ele>618.2</ele></trkpt>
<trkpt lat="43.152505" lon="10.850502"><ele>617.5</ele></trkpt>
<trkpt lat="43.152419" lon="10.850462"><ele>616.2</ele></trkpt>
<trkpt lat="43.152343" lon="10.850425"><ele>615.4</ele></trkpt>
<trkpt lat="43.152147" lon="10.850358"><ele>612.4</ele></trkpt>
<trkpt lat="43.152078" lon="10.850343"><ele>610.0</ele></trkpt>
<trkpt lat="43.15206" lon="10.850326"><ele>609.5</ele></trkpt>
<trkpt lat="43.152025" lon="10.850301"><ele>608.0</ele></trkpt>
<trkpt lat="43.152011" lon="10.850315"><ele>607.2</ele></trkpt>
<trkpt lat="43.151768" lon="10.850686"><ele>604.4</ele></trkpt>
<trkpt lat="43.151723" lon="10.850757"><ele>603.7</ele></trkpt>
<trkpt lat="43.151726" lon="10.850839"><ele>603.4</ele></trkpt>
<trkpt lat="43.151723" lon="10.85092"><ele>602.2</ele></trkpt>
<trkpt lat="43.151749" lon="10.850993"><ele>601.4</ele></trkpt>
<trkpt lat="43.151804" lon="10.851042"><ele>600.7</ele></trkpt>
<trkpt lat="43.151863" lon="10.851081"><ele>600.2</ele></trkpt>
<trkpt lat="43.151926" lon="10.851111"><ele>599.5</ele></trkpt>
<trkpt lat="43.151982" lon="10.851145"><ele>598.7</ele></trkpt>
<trkpt lat="43.152023" lon="10.851209"><ele>598.0</ele></trkpt>
<trkpt lat="43.152035" lon="10.851297"><ele>597.2</ele></trkpt>
<trkpt lat="43.151987" lon="10.851354"><ele>596.4</ele></trkpt>
<trkpt lat="43.151939" lon="10.851416"><ele>595.7</ele></trkpt>
<trkpt lat="43.151873" lon="10.851463"><ele>595.0</ele></trkpt>
<trkpt lat="43.151796" lon="10.8515"><ele>594.4</ele></trkpt>
<trkpt lat="43.151713" lon="10.851532"><ele>593.7</ele></trkpt>
<trkpt lat="43.151629" lon="10.851548"><ele>593.0</ele></trkpt>
<trkpt lat="43.151548" lon="10.851542"><ele>592.4</ele></trkpt>
<trkpt lat="43.151466" lon="10.851518"><ele>591.7</ele></trkpt>
<trkpt lat="43.151378" lon="10.85147"><ele>590.2</ele></trkpt>
<trkpt lat="43.151301" lon="10.851406"><ele>589.4</ele></trkpt>
<trkpt lat="43.151229" lon="10.851331"><ele>588.5</ele></trkpt>
<trkpt lat="43.151159" lon="10.851253"><ele>587.7</ele></trkpt>
<trkpt lat="43.150909" lon="10.850914"><ele>584.5</ele></trkpt>
<trkpt lat="43.150703" lon="10.850691"><ele>582.7</ele></trkpt>
<trkpt lat="43.150621" lon="10.850633"><ele>582.2</ele></trkpt>
<trkpt lat="43.150446" lon="10.850514"><ele>580.7</ele></trkpt>
<trkpt lat="43.150075" lon="10.850298"><ele>577.5</ele></trkpt>
<trkpt lat="43.149984" lon="10.85028"><ele>576.7</ele></trkpt>
<trkpt lat="43.149889" lon="10.850275"><ele>576.2</ele></trkpt>
<trkpt lat="43.149793" lon="10.850279"><ele>575.4</ele></trkpt>
<trkpt lat="43.149698" lon="10.850291"><ele>574.7</ele></trkpt>
<trkpt lat="43.149289" lon="10.850363"><ele>570.5</ele></trkpt>
<trkpt lat="43.149188" lon="10.850385"><ele>570.5</ele></trkpt>
<trkpt lat="43.149012" lon="10.850429"><ele>567.5</ele></trkpt>
<trkpt lat="43.148939" lon="10.850469"><ele>566.5</ele></trkpt>
<trkpt lat="43.148886" lon="10.850535"><ele>565.7</ele></trkpt>
<trkpt lat="43.148849" lon="10.850626"><ele>564.7</ele></trkpt>
<trkpt lat="43.148841" lon="10.850723"><ele>564.0</ele></trkpt>
<trkpt lat="43.148845" lon="10.850817"><ele>563.2</ele></trkpt>
<trkpt lat="43.148867" lon="10.850901"><ele>562.2</ele></trkpt>
<trkpt lat="43.148901" lon="10.850963"><ele>561.4</ele></trkpt>
<trkpt lat="43.148943" lon="10.851012"><ele>560.7</ele></trkpt>
<trkpt lat="43.148992" lon="10.851062"><ele>560.0</ele></trkpt>
<trkpt lat="43.149041" lon="10.851114"><ele>559.4</ele></trkpt>
<trkpt lat="43.149394" lon="10.851436"><ele>555.7</ele></trkpt>
<trkpt lat="43.149596" lon="10.851601"><ele>554.5</ele></trkpt>
<trkpt lat="43.149671" lon="10.85164"><ele>554.2</ele></trkpt>
<trkpt lat="43.149751" lon="10.851682"><ele>553.5</ele></trkpt>
<trkpt lat="43.150021" lon="10.851852"><ele>550.5</ele></trkpt>
<trkpt lat="43.150078" lon="10.851909"><ele>550.0</ele></trkpt>
<trkpt lat="43.150125" lon="10.851984"><ele>549.4</ele></trkpt>
<trkpt lat="43.150154" lon="10.852073"><ele>548.7</ele></trkpt>
<trkpt lat="43.150163" lon="10.852168"><ele>548.2</ele></trkpt>
<trkpt lat="43.150148" lon="10.852265"><ele>547.7</ele></trkpt>
<trkpt lat="43.150127" lon="10.852368"><ele>547.2</ele></trkpt>
<trkpt lat="43.150068" lon="10.852633"><ele>545.5</ele></trkpt>
<trkpt lat="43.150075" lon="10.85271"><ele>544.7</ele></trkpt>
<trkpt lat="43.150099" lon="10.852786"><ele>544.2</ele></trkpt>
<trkpt lat="43.150139" lon="10.852855"><ele>543.5</ele></trkpt>
<trkpt lat="43.150198" lon="10.852908"><ele>542.5</ele></trkpt>
<trkpt lat="43.15027" lon="10.852933"><ele>542.0</ele></trkpt>
<trkpt lat="43.150346" lon="10.852938"><ele>541.4</ele></trkpt>
<trkpt lat="43.150422" lon="10.852938"><ele>540.7</ele></trkpt>
<trkpt lat="43.150491" lon="10.852946"><ele>540.2</ele></trkpt>
<trkpt lat="43.150549" lon="10.852976"><ele>539.5</ele></trkpt>
<trkpt lat="43.150595" lon="10.853031"><ele>538.7</ele></trkpt>
<trkpt lat="43.150623" lon="10.853104"><ele>538.2</ele></trkpt>
<trkpt lat="43.150633" lon="10.853185"><ele>537.5</ele></trkpt>
<trkpt lat="43.150622" lon="10.853266"><ele>537.0</ele></trkpt>
<trkpt lat="43.150596" lon="10.853346"><ele>536.5</ele></trkpt>
<trkpt lat="43.150559" lon="10.853426"><ele>536.0</ele></trkpt>
<trkpt lat="43.15052" lon="10.85351"><ele>534.7</ele></trkpt>
<trkpt lat="43.150479" lon="10.853596"><ele>534.7</ele></trkpt>
<trkpt lat="43.15044" lon="10.853688"><ele>534.2</ele></trkpt>
<trkpt lat="43.150415" lon="10.853788"><ele>532.7</ele></trkpt>
<trkpt lat="43.15039" lon="10.853893"><ele>532.2</ele></trkpt>
<trkpt lat="43.150373" lon="10.853997"><ele>531.5</ele></trkpt>
<trkpt lat="43.150358" lon="10.854103"><ele>531.0</ele></trkpt>
<trkpt lat="43.150356" lon="10.854601"><ele>527.7</ele></trkpt>
<trkpt lat="43.15036" lon="10.854677"><ele>527.4</ele></trkpt>
<trkpt lat="43.15035" lon="10.854698"><ele>527.4</ele></trkpt>
<trkpt lat="43.150341" lon="10.854711"><ele>527.2</ele></trkpt>
<trkpt lat="43.150338" lon="10.854717"><ele>526.7</ele></trkpt>
<trkpt lat="43.150332" lon="10.854791"><ele>524.4</ele></trkpt>
<trkpt lat="43.150054" lon="10.854887"><ele>523.2</ele></trkpt>
<trkpt lat="43.149895" lon="10.854825"><ele>522.4</ele></trkpt>
<trkpt lat="43.149418" lon="10.854627"><ele>520.0</ele></trkpt>
<trkpt lat="43.149323" lon="10.854609"><ele>520.0</ele></trkpt>
<trkpt lat="43.149227" lon="10.854607"><ele>518.7</ele></trkpt>
<trkpt lat="43.149141" lon="10.854616"><ele>518.2</ele></trkpt>
<trkpt lat="43.149072" lon="10.85463"><ele>517.5</ele></trkpt>
<trkpt lat="43.14879" lon="10.854695"><ele>514.2</ele></trkpt>
<trkpt lat="43.148485" lon="10.854905"><ele>511.2</ele></trkpt>
<trkpt lat="43.148026" lon="10.855194"><ele>512.4</ele></trkpt>
<trkpt lat="43.14764" lon="10.855599"><ele>515.4</ele></trkpt>
<trkpt lat="43.147531" lon="10.855802"><ele>517.5</ele></trkpt>
<trkpt lat="43.147516" lon="10.855825"><ele>517.7</ele></trkpt>
<trkpt lat="43.147504" lon="10.85585"><ele>518.0</ele></trkpt>
</trkseg></trk></gpx>