<?xml version="1.0" encoding="UTF-8"?>
<gpx version="1.1" creator="cit" xmlns="http://www.topografix.com/GPX/1/1">
<trk><name>MR - Gravel 1 - Hard</name><trkseg>
<trkpt lat="43.147477" lon="10.856405"><ele>533.4</ele></trkpt>
<trkpt lat="43.14785" lon="10.856686"><ele>513.8</ele></trkpt>
<trkpt lat="43.147994" lon="10.856806"><ele>516.1</ele></trkpt>
<trkpt lat="43.148102" lon="10.857045"><ele>518.1</ele></trkpt>
<trkpt lat="43.148102" lon="10.857285"><ele>518.1</ele></trkpt>
<trkpt lat="43.148066" lon="10.857477"><ele>517.6</ele></trkpt>
<trkpt lat="43.147689" lon="10.857572"><ele>514.5</ele></trkpt>
<trkpt lat="43.14706" lon="10.857788"><ele>516.4</ele></trkpt>
<trkpt lat="43.146611" lon="10.858123"><ele>519.6</ele></trkpt>
<trkpt lat="43.146269" lon="10.858387"><ele>520.7</ele></trkpt>
<trkpt lat="43.145964" lon="10.858913"><ele>523.5</ele></trkpt>
<trkpt lat="43.145712" lon="10.859273"><ele>522.7</ele></trkpt>
<trkpt lat="43.145676" lon="10.859584"><ele>526.1</ele></trkpt>
<trkpt lat="43.145676" lon="10.859632"><ele>526.7</ele></trkpt>
<trkpt lat="43.145676" lon="10.859919"><ele>530.6</ele></trkpt>
<trkpt lat="43.145712" lon="10.860255"><ele>535.8</ele></trkpt>
<trkpt lat="43.145586" lon="10.860494"><ele>536.9</ele></trkpt>
<trkpt lat="43.145304" lon="10.860671"><ele>535.5</ele></trkpt>
<trkpt lat="43.145134" lon="10.860731"><ele>534.6</ele></trkpt>
<trkpt lat="43.144909" lon="10.860789"><ele>533.1</ele></trkpt>
<trkpt lat="43.144796" lon="10.860827"><ele>532.5</ele></trkpt>
<trkpt lat="43.144774" lon="10.860796"><ele>532.2</ele></trkpt>
<trkpt lat="43.144631" lon="10.860762"><ele>530.1</ele></trkpt>
<trkpt lat="43.144474" lon="10.860809"><ele>529.5</ele></trkpt>
<trkpt lat="43.144328" lon="10.860918"><ele>530.7</ele></trkpt>
<trkpt lat="43.144276" lon="10.860996"><ele>531.2</ele></trkpt>
<trkpt lat="43.144068" lon="10.861582"><ele>532.5</ele></trkpt>
<trkpt lat="43.143944" lon="10.86214"><ele>531.8</ele></trkpt>
<trkpt lat="43.143878" lon="10.862312"><ele>530.3</ele></trkpt>
<trkpt lat="43.143768" lon="10.862492"><ele>528.1</ele></trkpt>
<trkpt lat="43.143578" lon="10.86269"><ele>524.1</ele></trkpt>
<trkpt lat="43.143437" lon="10.862929"><ele>523.2</ele></trkpt>
<trkpt lat="43.14341" lon="10.863435"><ele>523.9</ele></trkpt>
<trkpt lat="43.143328" lon="10.863758"><ele>519.9</ele></trkpt>
<trkpt lat="43.14325" lon="10.864342"><ele>520.7</ele></trkpt>
<trkpt lat="43.143121" lon="10.864681"><ele>520.1</ele></trkpt>
<trkpt lat="43.143036" lon="10.864844"><ele>521.1</ele></trkpt>
<trkpt lat="43.142898" lon="10.865019"><ele>524.1</ele></trkpt>
<trkpt lat="43.142117" lon="10.865723"><ele>518.4</ele></trkpt>
<trkpt lat="43.142013" lon="10.86577"><ele>517.8</ele></trkpt>
<trkpt lat="43.141108" lon="10.865975"><ele>503.5</ele></trkpt>
<trkpt lat="43.139933" lon="10.866415"><ele>491.5</ele></trkpt>
<trkpt lat="43.139883" lon="10.866524"><ele>492.8</ele></trkpt>
<trkpt lat="43.139901" lon="10.866679"><ele>492.9</ele></trkpt>
<trkpt lat="43.14012" lon="10.867001"><ele>495.2</ele></trkpt>
<trkpt lat="43.14016" lon="10.86715"><ele>495.9</ele></trkpt>
<trkpt lat="43.140125" lon="10.867245"><ele>495.3</ele></trkpt>
<trkpt lat="43.14008" lon="10.86729"><ele>494.7</ele></trkpt>
<trkpt lat="43.139507" lon="10.867408"><ele>487.1</ele></trkpt>
<trkpt lat="43.139215" lon="10.867592"><ele>485.1</ele></trkpt>
<trkpt lat="43.139079" lon="10.867761"><ele>487.5</ele></trkpt>
<trkpt lat="43.138995" lon="10.867956"><ele>489.2</ele></trkpt>
<trkpt lat="43.13892" lon="10.868224"><ele>493.4</ele></trkpt>
<trkpt lat="43.138869" lon="10.868306"><ele>494.4</ele></trkpt>
<trkpt lat="43.138563" lon="10.868415"><ele>491.3</ele></trkpt>
<trkpt lat="43.138408" lon="10.868548"><ele>490.7</ele></trkpt>
<trkpt lat="43.13818" lon="10.868887"><ele>487.9</ele></trkpt>
<trkpt lat="43.137953" lon="10.869462"><ele>483.2</ele></trkpt>
<trkpt lat="43.137733" lon="10.869937"><ele>479.7</ele></trkpt>
<trkpt lat="43.137504" lon="10.870286"><ele>473.5</ele></trkpt>
<trkpt lat="43.137388" lon="10.870535"><ele>472.3</ele></trkpt>
<trkpt lat="43.137313" lon="10.870849"><ele>471.9</ele></trkpt>
<trkpt lat="43.137223" lon="10.871576"><ele>474.5</ele></trkpt>
<trkpt lat="43.137179" lon="10.872251"><ele>480.6</ele></trkpt>
<trkpt lat="43.13714" lon="10.8724"><ele>481.9</ele></trkpt>
<trkpt lat="43.136949" lon="10.872601"><ele>478.0</ele></trkpt>
<trkpt lat="43.136547" lon="10.873026"><ele>472.8</ele></trkpt>
<trkpt lat="43.135965" lon="10.873782"><ele>465.5</ele></trkpt>
<trkpt lat="43.135916" lon="10.873817"><ele>465.8</ele></trkpt>
<trkpt lat="43.13584" lon="10.873844"><ele>465.9</ele></trkpt>
<trkpt lat="43.13433" lon="10.873804"><ele>465.7</ele></trkpt>
<trkpt lat="43.134167" lon="10.873824"><ele>466.3</ele></trkpt>
<trkpt lat="43.133859" lon="10.873977"><ele>464.0</ele></trkpt>
<trkpt lat="43.133772" lon="10.873987"><ele>463.3</ele></trkpt>
<trkpt lat="43.133665" lon="10.873967"><ele>461.5</ele></trkpt>
<trkpt lat="43.133489" lon="10.873864"><ele>458.5</ele></trkpt>
<trkpt lat="43.133215" lon="10.873638"><ele>450.5</ele></trkpt>
<trkpt lat="43.133033" lon="10.873589"><ele>445.5</ele></trkpt>
<trkpt lat="43.132906" lon="10.873589"><ele>442.0</ele></trkpt>
<trkpt lat="43.132624" lon="10.873681"><ele>436.8</ele></trkpt>
<trkpt lat="43.132454" lon="10.873866"><ele>437.0</ele></trkpt>
<trkpt lat="43.13225" lon="10.873994"><ele>437.8</ele></trkpt>
<trkpt lat="43.132089" lon="10.874001"><ele>438.8</ele></trkpt>
<trkpt lat="43.131732" lon="10.873921"><ele>434.7</ele></trkpt>
<trkpt lat="43.13171" lon="10.874005"><ele>434.3</ele></trkpt>
<trkpt lat="43.131738" lon="10.874096"><ele>434.8</ele></trkpt>
<trkpt lat="43.131832" lon="10.874347"><ele>434.5</ele></trkpt>
<trkpt lat="43.131993" lon="10.874558"><ele>432.0</ele></trkpt>
<trkpt lat="43.132132" lon="10.874791"><ele>432.2</ele></trkpt>
<trkpt lat="43.132093" lon="10.874945"><ele>431.5</ele></trkpt>
<trkpt lat="43.13176" lon="10.875315"><ele>427.2</ele></trkpt>
<trkpt lat="43.131341" lon="10.875489"><ele>416.9</ele></trkpt>
<trkpt lat="43.131243" lon="10.87562"><ele>414.9</ele></trkpt>
<trkpt lat="43.131055" lon="10.876446"><ele>414.5</ele></trkpt>
<trkpt lat="43.130815" lon="10.877165"><ele>418.1</ele></trkpt>
<trkpt lat="43.130695" lon="10.878072"><ele>417.3</ele></trkpt>
<trkpt lat="43.13082" lon="10.878679"><ele>413.1</ele></trkpt>
<trkpt lat="43.130932" lon="10.878915"><ele>411.9</ele></trkpt>
<trkpt lat="43.130948" lon="10.879005"><ele>410.1</ele></trkpt>
<trkpt lat="43.130883" lon="10.879044"><ele>408.2</ele></trkpt>
<trkpt lat="43.130432" lon="10.878867"><ele>399.7</ele></trkpt>
<trkpt lat="43.130015" lon="10.878619"><ele>394.5</ele></trkpt>
<trkpt lat="43.129911" lon="10.87863"><ele>389.5</ele></trkpt>
<trkpt lat="43.129877" lon="10.878728"><ele>386.1</ele></trkpt>
<trkpt lat="43.130122" lon="10.879317"><ele>384.2</ele></trkpt>
<trkpt lat="43.130088" lon="10.879773"><ele>377.0</ele></trkpt>
<trkpt lat="43.130142" lon="10.879961"><ele>377.4</ele></trkpt>
<trkpt lat="43.130142" lon="10.880084"><ele>376.5</ele></trkpt>
<trkpt lat="43.130072" lon="10.880185"><ele>373.9</ele></trkpt>
<trkpt lat="43.13006" lon="10.880282"><ele>373.1</ele></trkpt>
<trkpt lat="43.130122" lon="10.880474"><ele>374.0</ele></trkpt>
<trkpt lat="43.130083" lon="10.880583"><ele>372.0</ele></trkpt>
<trkpt lat="43.129963" lon="10.880641"><ele>367.7</ele></trkpt>
<trkpt lat="43.129844" lon="10.880653"><ele>363.9</ele></trkpt>
<trkpt lat="43.129817" lon="10.880717"><ele>362.5</ele></trkpt>
<trkpt lat="43.129839" lon="10.881029"><ele>358.6</ele></trkpt>
<trkpt lat="43.129797" lon="10.881211"><ele>357.5</ele></trkpt>
<trkpt lat="43.129668" lon="10.881313"><ele>353.9</ele></trkpt>
<trkpt lat="43.129521" lon="10.881318"><ele>351.2</ele></trkpt>
<trkpt lat="43.129451" lon="10.881243"><ele>350.6</ele></trkpt>
<trkpt lat="43.129347" lon="10.880891"><ele>349.5</ele></trkpt>
<trkpt lat="43.12926" lon="10.88086"><ele>347.1</ele></trkpt>
<trkpt lat="43.128952" lon="10.881071"><ele>339.8</ele></trkpt>
<trkpt lat="43.128877" lon="10.881221"><ele>338.6</ele></trkpt>
<trkpt lat="43.128756" lon="10.881297"><ele>336.2</ele></trkpt>
<trkpt lat="43.128415" lon="10.881426"><ele>326.9</ele></trkpt>
<trkpt lat="43.128127" lon="10.881459"><ele>319.4</ele></trkpt>
<trkpt lat="43.128038" lon="10.88153"><ele>318.2</ele></trkpt>
<trkpt lat="43.127926" lon="10.881693"><ele>318.5</ele></trkpt>
<trkpt lat="43.127379" lon="10.882685"><ele>312.7</ele></trkpt>
<trkpt lat="43.127311" lon="10.882736"><ele>311.2</ele></trkpt>
<trkpt lat="43.127162" lon="10.882712"><ele>309.0</ele></trkpt>
<trkpt lat="43.127104" lon="10.882764"><ele>307.9</ele></trkpt>
<trkpt lat="43.127155" lon="10.882867"><ele>306.8</ele></trkpt>
<trkpt lat="43.127365" lon="10.882942"><ele>305.3</ele></trkpt>
<trkpt lat="43.127352" lon="10.883032"><ele>309.0</ele></trkpt>
<trkpt lat="43.127347" lon="10.883083"><ele>308.9</ele></trkpt>
<trkpt lat="43.127306" lon="10.883097"><ele>308.7</ele></trkpt>
<trkpt lat="43.127225" lon="10.883072"><ele>308.4</ele></trkpt>
<trkpt lat="43.127158" lon="10.883072"><ele>308.1</ele></trkpt>
<trkpt lat="43.127088" lon="10.883144"><ele>304.6</ele></trkpt>
<trkpt lat="43.126812" lon="10.883499"><ele>305.2</ele></trkpt>
<trkpt lat="43.126545" lon="10.884125"><ele>311.6</ele></trkpt>
<trkpt lat="43.12613" lon="10.884578"><ele>312.7</ele></trkpt>
<trkpt lat="43.125612" lon="10.884983"><ele>319.6</ele></trkpt>
<trkpt lat="43.12541" lon="10.885262"><ele>323.6</ele></trkpt>
<trkpt lat="43.125096" lon="10.885518"><ele>325.6</ele></trkpt>
<trkpt lat="43.124815" lon="10.885642"><ele>327.5</ele></trkpt>
<trkpt lat="43.12457" lon="10.88567"><ele>326.6</ele></trkpt>
<trkpt lat="43.124133" lon="10.885541"><ele>321.2</ele></trkpt>
<trkpt lat="43.123788" lon="10.885627"><ele>327.0</ele></trkpt>
<trkpt lat="43.123294" lon="10.885584"><ele>327.6</ele></trkpt>
<trkpt lat="43.122601" lon="10.886088"><ele>331.3</ele></trkpt>
<trkpt lat="43.122332" lon="10.886211"><ele>332.8</ele></trkpt>
<trkpt lat="43.121843" lon="10.886313"><ele>338.1</ele></trkpt>
<trkpt lat="43.121661" lon="10.886453"><ele>339.0</ele></trkpt>
<trkpt lat="43.121862" lon="10.88653"><ele>339.0</ele></trkpt>
<trkpt lat="43.122217" lon="10.886579"><ele>337.7</ele></trkpt>
<trkpt lat="43.122345" lon="10.886705"><ele>337.7</ele></trkpt>
<trkpt lat="43.12229" lon="10.886854"><ele>340.2</ele></trkpt>
<trkpt lat="43.121815" lon="10.886992"><ele>342.4</ele></trkpt>
<trkpt lat="43.121707" lon="10.887204"><ele>344.0</ele></trkpt>
<trkpt lat="43.121761" lon="10.887355"><ele>346.6</ele></trkpt>
<trkpt lat="43.122089" lon="10.88748"><ele>351.5</ele></trkpt>
<trkpt lat="43.122472" lon="10.888267"><ele>362.2</ele></trkpt>
<trkpt lat="43.122437" lon="10.888454"><ele>367.7</ele></trkpt>
<trkpt lat="43.122144" lon="10.888855"><ele>371.4</ele></trkpt>
<trkpt lat="43.12187" lon="10.889068"><ele>372.4</ele></trkpt>
<trkpt lat="43.121314" lon="10.88913"><ele>376.0</ele></trkpt>
<trkpt lat="43.121076" lon="10.889268"><ele>379.3</ele></trkpt>
<trkpt lat="43.120747" lon="10.889618"><ele>384.7</ele></trkpt>
<trkpt lat="43.12041" lon="10.88953"><ele>385.1</ele></trkpt>
<trkpt lat="43.12019" lon="10.889643"><ele>387.8</ele></trkpt>
<trkpt lat="43.119954" lon="10.889893"><ele>396.3</ele></trkpt>
<trkpt lat="43.119825" lon="10.88998"><ele>399.0</ele></trkpt>
<trkpt lat="43.119697" lon="10.89028"><ele>399.9</ele></trkpt>
<trkpt lat="43.119716" lon="10.890568"><ele>401.6</ele></trkpt>
<trkpt lat="43.119908" lon="10.890693"><ele>403.5</ele></trkpt>
<trkpt lat="43.120155" lon="10.890656"><ele>405.6</ele></trkpt>
<trkpt lat="43.120291" lon="10.890832"><ele>409.6</ele></trkpt>
<trkpt lat="43.120446" lon="10.891094"><ele>415.0</ele></trkpt>
<trkpt lat="43.120446" lon="10.891507"><ele>419.0</ele></trkpt>
<trkpt lat="43.120276" lon="10.892198"><ele>427.0</ele></trkpt>
<trkpt lat="43.120365" lon="10.892645"><ele>433.2</ele></trkpt>
<trkpt lat="43.120401" lon="10.893214"><ele>433.1</ele></trkpt>
<trkpt lat="43.120036" lon="10.893153"><ele>437.6</ele></trkpt>
<trkpt lat="43.119932" lon="10.893252"><ele>440.1</ele></trkpt>
<trkpt lat="43.119854" lon="10.893379"><ele>442.4</ele></trkpt>
<trkpt lat="43.119693" lon="10.893456"><ele>445.3</ele></trkpt>
<trkpt lat="43.119244" lon="10.893438"><ele>450.9</ele></trkpt>
<trkpt lat="43.119061" lon="10.893463"><ele>452.6</ele></trkpt>
<trkpt lat="43.118585" lon="10.893545"><ele>448.8</ele></trkpt>
<trkpt lat="43.118395" lon="10.893636"><ele>450.8</ele></trkpt>
<trkpt lat="43.117935" lon="10.893485"><ele>451.2</ele></trkpt>
<trkpt lat="43.117715" lon="10.893666"><ele>449.7</ele></trkpt>
<trkpt lat="43.117577" lon="10.894015"><ele>452.4</ele></trkpt>
<trkpt lat="43.117444" lon="10.894096"><ele>452.7</ele></trkpt>
<trkpt lat="43.117327" lon="10.894066"><ele>451.7</ele></trkpt>
<trkpt lat="43.117167" lon="10.893715"><ele>447.9</ele></trkpt>
<trkpt lat="43.117079" lon="10.893596"><ele>446.3</ele></trkpt>
<trkpt lat="43.116911" lon="10.893645"><ele>449.7</ele></trkpt>
<trkpt lat="43.115941" lon="10.894205"><ele>462.2</ele></trkpt>
<trkpt lat="43.115751" lon="10.894175"><ele>463.9</ele></trkpt>
<trkpt lat="43.115736" lon="10.893966"><ele>463.6</ele></trkpt>
<trkpt lat="43.115772" lon="10.892675"><ele>464.1</ele></trkpt>
<trkpt lat="43.115766" lon="10.892134"><ele>461.1</ele></trkpt>
<trkpt lat="43.115494" lon="10.891136"><ele>452.7</ele></trkpt>
<trkpt lat="43.115339" lon="10.890924"><ele>448.3</ele></trkpt>
<trkpt lat="43.114881" lon="10.890765"><ele>443.7</ele></trkpt>
<trkpt lat="43.114586" lon="10.890549"><ele>441.9</ele></trkpt>
<trkpt lat="43.114249" lon="10.890409"><ele>436.9</ele></trkpt>
<trkpt lat="43.114173" lon="10.890456"><ele>436.1</ele></trkpt>
<trkpt lat="43.113861" lon="10.89085"><ele>443.4</ele></trkpt>
<trkpt lat="43.113784" lon="10.890927"><ele>444.2</ele></trkpt>
<trkpt lat="43.113398" lon="10.890991"><ele>442.3</ele></trkpt>
<trkpt lat="43.113269" lon="10.890991"><ele>441.3</ele></trkpt>
<trkpt lat="43.113162" lon="10.89112"><ele>442.8</ele></trkpt>
<trkpt lat="43.113141" lon="10.891528"><ele>450.0</ele></trkpt>
<trkpt lat="43.113076" lon="10.891871"><ele>455.9</ele></trkpt>
<trkpt lat="43.112969" lon="10.892043"><ele>458.5</ele></trkpt>
<trkpt lat="43.112883" lon="10.892107"><ele>459.5</ele></trkpt>
<trkpt lat="43.112776" lon="10.892086"><ele>460.1</ele></trkpt>
<trkpt lat="43.112668" lon="10.891871"><ele>457.1</ele></trkpt>
<trkpt lat="43.112604" lon="10.891807"><ele>456.5</ele></trkpt>
<trkpt lat="43.112368" lon="10.891764"><ele>457.7</ele></trkpt>
<trkpt lat="43.112239" lon="10.891721"><ele>458.0</ele></trkpt>
<trkpt lat="43.112025" lon="10.891506"><ele>454.3</ele></trkpt>
<trkpt lat="43.111939" lon="10.891442"><ele>452.2</ele></trkpt>
<trkpt lat="43.111767" lon="10.891399"><ele>449.9</ele></trkpt>
<trkpt lat="43.111596" lon="10.891485"><ele>450.3</ele></trkpt>
<trkpt lat="43.111488" lon="10.891613"><ele>451.9</ele></trkpt>
<trkpt lat="43.111317" lon="10.891892"><ele>457.2</ele></trkpt>
<trkpt lat="43.111145" lon="10.892086"><ele>460.7</ele></trkpt>
<trkpt lat="43.110802" lon="10.892322"><ele>461.7</ele></trkpt>
<trkpt lat="43.110566" lon="10.892386"><ele>459.6</ele></trkpt>
<trkpt lat="43.109965" lon="10.892343"><ele>448.9</ele></trkpt>
<trkpt lat="43.1099" lon="10.892364"><ele>448.4</ele></trkpt>
<trkpt lat="43.109815" lon="10.892472"><ele>449.7</ele></trkpt>
<trkpt lat="43.10975" lon="10.892643"><ele>452.2</ele></trkpt>
<trkpt lat="43.109364" lon="10.893094"><ele>451.2</ele></trkpt>
<trkpt lat="43.109149" lon="10.893867"><ele>449.8</ele></trkpt>
<trkpt lat="43.109156" lon="10.89396"><ele>450.2</ele></trkpt>
<trkpt lat="43.109171" lon="10.894188"><ele>451.1</ele></trkpt>
<trkpt lat="43.109364" lon="10.894703"><ele>453.6</ele></trkpt>
<trkpt lat="43.109407" lon="10.89509"><ele>452.7</ele></trkpt>
<trkpt lat="43.109042" lon="10.895648"><ele>448.9</ele></trkpt>
<trkpt lat="43.10887" lon="10.895798"><ele>447.4</ele></trkpt>
<trkpt lat="43.108634" lon="10.895926"><ele>447.7</ele></trkpt>
<trkpt lat="43.108334" lon="10.895884"><ele>447.9</ele></trkpt>
<trkpt lat="43.107969" lon="10.895755"><ele>446.3</ele></trkpt>
<trkpt lat="43.107583" lon="10.895347"><ele>438.5</ele></trkpt>
<trkpt lat="43.107025" lon="10.894424"><ele>420.9</ele></trkpt>
<trkpt lat="43.106489" lon="10.893652"><ele>406.3</ele></trkpt>
<trkpt lat="43.106231" lon="10.892772"><ele>394.1</ele></trkpt>
<trkpt lat="43.105974" lon="10.892364"><ele>383.1</ele></trkpt>
<trkpt lat="43.105888" lon="10.892021"><ele>378.1</ele></trkpt>
<trkpt lat="43.106424" lon="10.891098"><ele>373.9</ele></trkpt>
<trkpt lat="43.106639" lon="10.89082"><ele>369.5</ele></trkpt>
<trkpt lat="43.106768" lon="10.890197"><ele>361.5</ele></trkpt>
<trkpt lat="43.106575" lon="10.89009"><ele>360.1</ele></trkpt>
<trkpt lat="43.106231" lon="10.890305"><ele>363.1</ele></trkpt>
<trkpt lat="43.106124" lon="10.890283"><ele>360.4</ele></trkpt>
<trkpt lat="43.105974" lon="10.890111"><ele>354.5</ele></trkpt>
<trkpt lat="43.105716" lon="10.889511"><ele>341.6</ele></trkpt>
<trkpt lat="43.105566" lon="10.889382"><ele>337.5</ele></trkpt>
<trkpt lat="43.105373" lon="10.889468"><ele>334.8</ele></trkpt>
<trkpt lat="43.105115" lon="10.890305"><ele>336.6</ele></trkpt>
<trkpt lat="43.104987" lon="10.890541"><ele>335.9</ele></trkpt>
<trkpt lat="43.104515" lon="10.890841"><ele>326.0</ele></trkpt>
<trkpt lat="43.10445" lon="10.89097"><ele>326.7</ele></trkpt>
<trkpt lat="43.104386" lon="10.891506"><ele>332.6</ele></trkpt>
<trkpt lat="43.104214" lon="10.891678"><ele>332.9</ele></trkpt>
<trkpt lat="43.104" lon="10.891592"><ele>329.4</ele></trkpt>
<trkpt lat="43.103206" lon="10.891506"><ele>325.4</ele></trkpt>
<trkpt lat="43.103044" lon="10.891524"><ele>325.7</ele></trkpt>
<trkpt lat="43.103013" lon="10.891528"><ele>325.7</ele></trkpt>
<trkpt lat="43.102819" lon="10.891678"><ele>326.6</ele></trkpt>
<trkpt lat="43.102648" lon="10.891764"><ele>327.4</ele></trkpt>
<trkpt lat="43.10224" lon="10.891785"><ele>326.6</ele></trkpt>
<trkpt lat="43.102111" lon="10.891914"><ele>328.0</ele></trkpt>
<trkpt lat="43.102047" lon="10.892"><ele>329.1</ele></trkpt>
<trkpt lat="43.101961" lon="10.891978"><ele>329.2</ele></trkpt>
<trkpt lat="43.101747" lon="10.891678"><ele>326.6</ele></trkpt>
<trkpt lat="43.101446" lon="10.891463"><ele>328.7</ele></trkpt>
<trkpt lat="43.10136" lon="10.891463"><ele>329.0</ele></trkpt>
<trkpt lat="43.101274" lon="10.891485"><ele>329.3</ele></trkpt>
<trkpt lat="43.101317" lon="10.891592"><ele>328.8</ele></trkpt>
<trkpt lat="43.101468" lon="10.892021"><ele>332.1</ele></trkpt>
<trkpt lat="43.101468" lon="10.892171"><ele>334.1</ele></trkpt>
<trkpt lat="43.101403" lon="10.8923"><ele>336.1</ele></trkpt>
<trkpt lat="43.101038" lon="10.892364"><ele>339.1</ele></trkpt>
<trkpt lat="43.100931" lon="10.892558"><ele>342.8</ele></trkpt>
<trkpt lat="43.10106" lon="10.892922"><ele>344.2</ele></trkpt>
<trkpt lat="43.101081" lon="10.893137"><ele>345.5</ele></trkpt>
<trkpt lat="43.101017" lon="10.893416"><ele>348.0</ele></trkpt>
<trkpt lat="43.100931" lon="10.893609"><ele>349.8</ele></trkpt>
<trkpt lat="43.100824" lon="10.893673"><ele>351.5</ele></trkpt>
<trkpt lat="43.100695" lon="10.893673"><ele>353.4</ele></trkpt>
<trkpt lat="43.100502" lon="10.893502"><ele>355.3</ele></trkpt>
<trkpt lat="43.100395" lon="10.893502"><ele>356.6</ele></trkpt>
<trkpt lat="43.100244" lon="10.893609"><ele>357.6</ele></trkpt>
<trkpt lat="43.100223" lon="10.893738"><ele>358.5</ele></trkpt>
<trkpt lat="43.100244" lon="10.893845"><ele>359.2</ele></trkpt>
<trkpt lat="43.099815" lon="10.893502"><ele>357.6</ele></trkpt>
<trkpt lat="43.099729" lon="10.893416"><ele>356.6</ele></trkpt>
<trkpt lat="43.099579" lon="10.893266"><ele>354.9</ele></trkpt>
<trkpt lat="43.099343" lon="10.892879"><ele>349.4</ele></trkpt>
<trkpt lat="43.099236" lon="10.892493"><ele>343.8</ele></trkpt>
<trkpt lat="43.099236" lon="10.891957"><ele>333.5</ele></trkpt>
<trkpt lat="43.099107" lon="10.891721"><ele>328.8</ele></trkpt>
<trkpt lat="43.098313" lon="10.891184"><ele>322.5</ele></trkpt>
<trkpt lat="43.097906" lon="10.890669"><ele>322.0</ele></trkpt>
<trkpt lat="43.096575" lon="10.89024"><ele>315.3</ele></trkpt>
<trkpt lat="43.096404" lon="10.890111"><ele>313.9</ele></trkpt>
<trkpt lat="43.096253" lon="10.889897"><ele>311.4</ele></trkpt>
<trkpt lat="43.096082" lon="10.889382"><ele>303.3</ele></trkpt>
<trkpt lat="43.095996" lon="10.889296"><ele>301.4</ele></trkpt>
<trkpt lat="43.095695" lon="10.889618"><ele>301.4</ele></trkpt>
<trkpt lat="43.095417" lon="10.889704"><ele>298.9</ele></trkpt>
<trkpt lat="43.094987" lon="10.889253"><ele>287.9</ele></trkpt>
<trkpt lat="43.094708" lon="10.889124"><ele>282.3</ele></trkpt>
<trkpt lat="43.094515" lon="10.889167"><ele>280.7</ele></trkpt>
<trkpt lat="43.094193" lon="10.889532"><ele>281.8</ele></trkpt>
<trkpt lat="43.094108" lon="10.889532"><ele>281.4</ele></trkpt>
<trkpt lat="43.094065" lon="10.889489"><ele>281.1</ele></trkpt>
<trkpt lat="43.093979" lon="10.889275"><ele>280.3</ele></trkpt>
<trkpt lat="43.093936" lon="10.889103"><ele>280.6</ele></trkpt>
<trkpt lat="43.093936" lon="10.888974"><ele>281.0</ele></trkpt>
<trkpt lat="43.093872" lon="10.888566"><ele>283.2</ele></trkpt>
<trkpt lat="43.093764" lon="10.888524"><ele>284.6</ele></trkpt>
<trkpt lat="43.093163" lon="10.888566"><ele>291.4</ele></trkpt>
<trkpt lat="43.092992" lon="10.888438"><ele>293.9</ele></trkpt>
<trkpt lat="43.092927" lon="10.88818"><ele>297.0</ele></trkpt>
<trkpt lat="43.092927" lon="10.888051"><ele>298.6</ele></trkpt>
<trkpt lat="43.093292" lon="10.887861"><ele>299.1</ele></trkpt>
<trkpt lat="43.093378" lon="10.887815"><ele>299.5</ele></trkpt>
<trkpt lat="43.093614" lon="10.887537"><ele>304.0</ele></trkpt>
<trkpt lat="43.093678" lon="10.887279"><ele>306.5</ele></trkpt>
<trkpt lat="43.093657" lon="10.887022"><ele>309.0</ele></trkpt>
<trkpt lat="43.093335" lon="10.886056"><ele>313.9</ele></trkpt>
<trkpt lat="43.093271" lon="10.885648"><ele>315.9</ele></trkpt>
<trkpt lat="43.093249" lon="10.88464"><ele>321.2</ele></trkpt>
<trkpt lat="43.093206" lon="10.884125"><ele>324.8</ele></trkpt>
<trkpt lat="43.093099" lon="10.883588"><ele>328.8</ele></trkpt>
<trkpt lat="43.093056" lon="10.882923"><ele>333.5</ele></trkpt>
<trkpt lat="43.093206" lon="10.881206"><ele>342.7</ele></trkpt>
<trkpt lat="43.092992" lon="10.880348"><ele>346.6</ele></trkpt>
<trkpt lat="43.092648" lon="10.880799"><ele>350.4</ele></trkpt>
<trkpt lat="43.091962" lon="10.881421"><ele>355.3</ele></trkpt>
<trkpt lat="43.091619" lon="10.881443"><ele>359.0</ele></trkpt>
<trkpt lat="43.091104" lon="10.881099"><ele>366.9</ele></trkpt>
<trkpt lat="43.090739" lon="10.880949"><ele>372.9</ele></trkpt>
<trkpt lat="43.090481" lon="10.880906"><ele>376.8</ele></trkpt>
<trkpt lat="43.090331" lon="10.881078"><ele>378.7</ele></trkpt>
<trkpt lat="43.090202" lon="10.881378"><ele>379.7</ele></trkpt>
<trkpt lat="43.090031" lon="10.881743"><ele>380.4</ele></trkpt>
<trkpt lat="43.08988" lon="10.881786"><ele>382.1</ele></trkpt>
<trkpt lat="43.089516" lon="10.881657"><ele>389.0</ele></trkpt>
<trkpt lat="43.088808" lon="10.881786"><ele>395.5</ele></trkpt>
<trkpt lat="43.088443" lon="10.881743"><ele>400.7</ele></trkpt>
<trkpt lat="43.087906" lon="10.881464"><ele>410.0</ele></trkpt>
<trkpt lat="43.087735" lon="10.881485"><ele>411.5</ele></trkpt>
<trkpt lat="43.08767" lon="10.881721"><ele>410.5</ele></trkpt>
<trkpt lat="43.087949" lon="10.882129"><ele>406.3</ele></trkpt>
<trkpt lat="43.088014" lon="10.882408"><ele>404.4</ele></trkpt>
<trkpt lat="43.087885" lon="10.882644"><ele>404.8</ele></trkpt>
<trkpt lat="43.087649" lon="10.882644"><ele>406.4</ele></trkpt>
<trkpt lat="43.087177" lon="10.882773"><ele>407.6</ele></trkpt>
<trkpt lat="43.086254" lon="10.882623"><ele>413.0</ele></trkpt>
<trkpt lat="43.086104" lon="10.882623"><ele>414.4</ele></trkpt>
<trkpt lat="43.085889" lon="10.882773"><ele>414.6</ele></trkpt>
<trkpt lat="43.085675" lon="10.883052"><ele>413.0</ele></trkpt>
<trkpt lat="43.085289" lon="10.883331"><ele>412.8</ele></trkpt>
<trkpt lat="43.085052" lon="10.88346"><ele>413.8</ele></trkpt>
<trkpt lat="43.08501" lon="10.883502"><ele>413.7</ele></trkpt>
<trkpt lat="43.084945" lon="10.883717"><ele>411.7</ele></trkpt>
<trkpt lat="43.084945" lon="10.883781"><ele>410.9</ele></trkpt>
<trkpt lat="43.084795" lon="10.883953"><ele>409.9</ele></trkpt>
<trkpt lat="43.084623" lon="10.883953"><ele>411.2</ele></trkpt>
<trkpt lat="43.084344" lon="10.883996"><ele>412.6</ele></trkpt>
<trkpt lat="43.08428" lon="10.884017"><ele>412.7</ele></trkpt>
<trkpt lat="43.084173" lon="10.884039"><ele>413.1</ele></trkpt>
<trkpt lat="43.084001" lon="10.884082"><ele>413.6</ele></trkpt>
<trkpt lat="43.08355" lon="10.884275"><ele>414.3</ele></trkpt>
<trkpt lat="43.083336" lon="10.884404"><ele>415.1</ele></trkpt>
<trkpt lat="43.083293" lon="10.884511"><ele>414.5</ele></trkpt>
<trkpt lat="43.083207" lon="10.884768"><ele>412.5</ele></trkpt>
<trkpt lat="43.083121" lon="10.884854"><ele>412.1</ele></trkpt>
<trkpt lat="43.083078" lon="10.884876"><ele>412.1</ele></trkpt>
<trkpt lat="43.082821" lon="10.88494"><ele>412.8</ele></trkpt>
<trkpt lat="43.082735" lon="10.885004"><ele>412.6</ele></trkpt>
<trkpt lat="43.082413" lon="10.885176"><ele>413.3</ele></trkpt>
<trkpt lat="43.081963" lon="10.885519"><ele>413.7</ele></trkpt>
<trkpt lat="43.081812" lon="10.885584"><ele>414.8</ele></trkpt>
<trkpt lat="43.081727" lon="10.885605"><ele>415.6</ele></trkpt>
<trkpt lat="43.081662" lon="10.885605"><ele>416.3</ele></trkpt>
<trkpt lat="43.081555" lon="10.885541"><ele>418.3</ele></trkpt>
<trkpt lat="43.081362" lon="10.885198"><ele>424.6</ele></trkpt>
<trkpt lat="43.081297" lon="10.885176"><ele>425.6</ele></trkpt>
<trkpt lat="43.081083" lon="10.885219"><ele>427.5</ele></trkpt>
<trkpt lat="43.080868" lon="10.885305"><ele>428.5</ele></trkpt>
<trkpt lat="43.080589" lon="10.885348"><ele>430.7</ele></trkpt>
<trkpt lat="43.08001" lon="10.885176"><ele>435.1</ele></trkpt>
<trkpt lat="43.079302" lon="10.884919"><ele>438.5</ele></trkpt>
<trkpt lat="43.07898" lon="10.884726"><ele>440.4</ele></trkpt>
<trkpt lat="43.078894" lon="10.884704"><ele>440.5</ele></trkpt>
<trkpt lat="43.078851" lon="10.884726"><ele>440.1</ele></trkpt>
<trkpt lat="43.078787" lon="10.884919"><ele>438.1</ele></trkpt>
<trkpt lat="43.078744" lon="10.885026"><ele>437.1</ele></trkpt>
<trkpt lat="43.078701" lon="10.885069"><ele>436.8</ele></trkpt>
<trkpt lat="43.078551" lon="10.885155"><ele>436.6</ele></trkpt>
<trkpt lat="43.0781" lon="10.885326"><ele>436.8</ele></trkpt>
<trkpt lat="43.07795" lon="10.885348"><ele>437.2</ele></trkpt>
<trkpt lat="43.077886" lon="10.885326"><ele>437.5</ele></trkpt>
<trkpt lat="43.077714" lon="10.885241"><ele>438.2</ele></trkpt>
<trkpt lat="43.077628" lon="10.885219"><ele>438.3</ele></trkpt>
<trkpt lat="43.077521" lon="10.885262"><ele>437.9</ele></trkpt>
<trkpt lat="43.077349" lon="10.885412"><ele>436.5</ele></trkpt>
<trkpt lat="43.077285" lon="10.885434"><ele>436.2</ele></trkpt>
<trkpt lat="43.077049" lon="10.885412"><ele>436.3</ele></trkpt>
<trkpt lat="43.076899" lon="10.885348"><ele>436.8</ele></trkpt>
<trkpt lat="43.076813" lon="10.885219"><ele>438.0</ele></trkpt>
<trkpt lat="43.076748" lon="10.885047"><ele>439.8</ele></trkpt>
<trkpt lat="43.076641" lon="10.88494"><ele>441.1</ele></trkpt>
<trkpt lat="43.076555" lon="10.884919"><ele>441.4</ele></trkpt>
<trkpt lat="43.076319" lon="10.884919"><ele>441.6</ele></trkpt>
<trkpt lat="43.076233" lon="10.884962"><ele>441.1</ele></trkpt>
<trkpt lat="43.075976" lon="10.885026"><ele>442.1</ele></trkpt>
<trkpt lat="43.075354" lon="10.885305"><ele>442.7</ele></trkpt>
<trkpt lat="43.07486" lon="10.885519"><ele>440.7</ele></trkpt>
<trkpt lat="43.07471" lon="10.885519"><ele>440.9</ele></trkpt>
<trkpt lat="43.074603" lon="10.885477"><ele>441.3</ele></trkpt>
<trkpt lat="43.074603" lon="10.885391"><ele>441.8</ele></trkpt>
<trkpt lat="43.074667" lon="10.885241"><ele>442.8</ele></trkpt>
<trkpt lat="43.074796" lon="10.885047"><ele>444.3</ele></trkpt>
<trkpt lat="43.074946" lon="10.88406"><ele>455.2</ele></trkpt>
<trkpt lat="43.07501" lon="10.88391"><ele>456.8</ele></trkpt>
<trkpt lat="43.075139" lon="10.883846"><ele>458.1</ele></trkpt>
<trkpt lat="43.075225" lon="10.88376"><ele>459.4</ele></trkpt>
<trkpt lat="43.075375" lon="10.883159"><ele>465.2</ele></trkpt>
<trkpt lat="43.075375" lon="10.882987"><ele>466.4</ele></trkpt>
<trkpt lat="43.075268" lon="10.88273"><ele>467.7</ele></trkpt>
<trkpt lat="43.075203" lon="10.882472"><ele>469.9</ele></trkpt>
<trkpt lat="43.075226" lon="10.88235"><ele>471.9</ele></trkpt>
<trkpt lat="43.075246" lon="10.882236"><ele>473.8</ele></trkpt>
<trkpt lat="43.075332" lon="10.882108"><ele>476.5</ele></trkpt>
<trkpt lat="43.075954" lon="10.881507"><ele>486.8</ele></trkpt>
<trkpt lat="43.076083" lon="10.881314"><ele>489.7</ele></trkpt>
<trkpt lat="43.076105" lon="10.881164"><ele>492.0</ele></trkpt>
<trkpt lat="43.076019" lon="10.880885"><ele>495.9</ele></trkpt>
<trkpt lat="43.075633" lon="10.880155"><ele>498.4</ele></trkpt>
<trkpt lat="43.075482" lon="10.87994"><ele>497.6</ele></trkpt>
<trkpt lat="43.075397" lon="10.879855"><ele>496.7</ele></trkpt>
<trkpt lat="43.07516" lon="10.879597"><ele>494.0</ele></trkpt>
<trkpt lat="43.075075" lon="10.879511"><ele>493.1</ele></trkpt>
<trkpt lat="43.074817" lon="10.879275"><ele>490.4</ele></trkpt>
<trkpt lat="43.074731" lon="10.879147"><ele>489.3</ele></trkpt>
<trkpt lat="43.07471" lon="10.878911"><ele>488.1</ele></trkpt>
<trkpt lat="43.074731" lon="10.878481"><ele>486.6</ele></trkpt>
<trkpt lat="43.075139" lon="10.877537"><ele>488.2</ele></trkpt>
<trkpt lat="43.07516" lon="10.877473"><ele>488.4</ele></trkpt>
<trkpt lat="43.075246" lon="10.877258"><ele>489.2</ele></trkpt>
<trkpt lat="43.075268" lon="10.877108"><ele>489.1</ele></trkpt>
<trkpt lat="43.075311" lon="10.876572"><ele>487.0</ele></trkpt>
<trkpt lat="43.075368" lon="10.876377"><ele>486.2</ele></trkpt>
<trkpt lat="43.075482" lon="10.875992"><ele>484.7</ele></trkpt>
<trkpt lat="43.075933" lon="10.87522"><ele>487.2</ele></trkpt>
<trkpt lat="43.076062" lon="10.874576"><ele>483.6</ele></trkpt>
<trkpt lat="43.076148" lon="10.874211"><ele>481.7</ele></trkpt>
<trkpt lat="43.076319" lon="10.873825"><ele>478.7</ele></trkpt>
<trkpt lat="43.076512" lon="10.873696"><ele>479.9</ele></trkpt>
<trkpt lat="43.076834" lon="10.873568"><ele>483.5</ele></trkpt>
<trkpt lat="43.076856" lon="10.873439"><ele>481.8</ele></trkpt>
<trkpt lat="43.076899" lon="10.87331"><ele>481.1</ele></trkpt>
<trkpt lat="43.076941" lon="10.872924"><ele>479.0</ele></trkpt>
<trkpt lat="43.07707" lon="10.872581"><ele>478.9</ele></trkpt>
<trkpt lat="43.077113" lon="10.872323"><ele>479.5</ele></trkpt>
<trkpt lat="43.077113" lon="10.871937"><ele>479.5</ele></trkpt>
<trkpt lat="43.077006" lon="10.871078"><ele>477.7</ele></trkpt>
<trkpt lat="43.076899" lon="10.870671"><ele>475.7</ele></trkpt>
<trkpt lat="43.07662" lon="10.870006"><ele>470.8</ele></trkpt>
<trkpt lat="43.076426" lon="10.869512"><ele>467.5</ele></trkpt>
<trkpt lat="43.076062" lon="10.868825"><ele>462.0</ele></trkpt>
<trkpt lat="43.075954" lon="10.868439"><ele>459.7</ele></trkpt>
<trkpt lat="43.075869" lon="10.866916"><ele>448.4</ele></trkpt>
<trkpt lat="43.07574" lon="10.866379"><ele>445.2</ele></trkpt>
<trkpt lat="43.07574" lon="10.866293"><ele>444.6</ele></trkpt>
<trkpt lat="43.07574" lon="10.866379"><ele>445.2</ele></trkpt>
<trkpt lat="43.075869" lon="10.866916"><ele>448.4</ele></trkpt>
<trkpt lat="43.075914" lon="10.86773"><ele>453.2</ele></trkpt>
<trkpt lat="43.075869" lon="10.866916"><ele>448.4</ele></trkpt>
<trkpt lat="43.07574" lon="10.866379"><ele>445.2</ele></trkpt>
<trkpt lat="43.07574" lon="10.866293"><ele>444.6</ele></trkpt>
<trkpt lat="43.075718" lon="10.865156"><ele>438.2</ele></trkpt>
<trkpt lat="43.075761" lon="10.864105"><ele>438.3</ele></trkpt>
<trkpt lat="43.075697" lon="10.863676"><ele>438.1</ele></trkpt>
<trkpt lat="43.075611" lon="10.863418"><ele>438.3</ele></trkpt>
<trkpt lat="43.075568" lon="10.862967"><ele>439.9</ele></trkpt>
<trkpt lat="43.075225" lon="10.861616"><ele>441.8</ele></trkpt>
<trkpt lat="43.074731" lon="10.860629"><ele>430.2</ele></trkpt>
<trkpt lat="43.074667" lon="10.860393"><ele>427.9</ele></trkpt>
<trkpt lat="43.074667" lon="10.860264"><ele>426.9</ele></trkpt>
<trkpt lat="43.074924" lon="10.85947"><ele>422.8</ele></trkpt>
<trkpt lat="43.074946" lon="10.859127"><ele>421.2</ele></trkpt>
<trkpt lat="43.074882" lon="10.857946"><ele>420.8</ele></trkpt>
<trkpt lat="43.074903" lon="10.857152"><ele>422.9</ele></trkpt>
<trkpt lat="43.074667" lon="10.855929"><ele>426.4</ele></trkpt>
<trkpt lat="43.074667" lon="10.855436"><ele>425.5</ele></trkpt>
<trkpt lat="43.074667" lon="10.854749"><ele>423.7</ele></trkpt>
<trkpt lat="43.074731" lon="10.853912"><ele>421.5</ele></trkpt>
<trkpt lat="43.074688" lon="10.853075"><ele>420.5</ele></trkpt>
<trkpt lat="43.074839" lon="10.852346"><ele>418.4</ele></trkpt>
<trkpt lat="43.074882" lon="10.851938"><ele>417.6</ele></trkpt>
<trkpt lat="43.074946" lon="10.851745"><ele>417.0</ele></trkpt>
<trkpt lat="43.075139" lon="10.851209"><ele>418.4</ele></trkpt>
<trkpt lat="43.075311" lon="10.850436"><ele>421.7</ele></trkpt>
<trkpt lat="43.075654" lon="10.849599"><ele>417.2</ele></trkpt>
<trkpt lat="43.075654" lon="10.84932"><ele>416.7</ele></trkpt>
<trkpt lat="43.075568" lon="10.848913"><ele>415.7</ele></trkpt>
<trkpt lat="43.075675" lon="10.848526"><ele>411.0</ele></trkpt>
<trkpt lat="43.075718" lon="10.84814"><ele>407.3</ele></trkpt>
<trkpt lat="43.075482" lon="10.847089"><ele>401.7</ele></trkpt>
<trkpt lat="43.075504" lon="10.84681"><ele>399.5</ele></trkpt>
<trkpt lat="43.075633" lon="10.846595"><ele>399.1</ele></trkpt>
<trkpt lat="43.076126" lon="10.846467"><ele>399.5</ele></trkpt>
<trkpt lat="43.076233" lon="10.846338"><ele>400.3</ele></trkpt>
<trkpt lat="43.076426" lon="10.845952"><ele>400.3</ele></trkpt>
<trkpt lat="43.076641" lon="10.84475"><ele>398.1</ele></trkpt>
<trkpt lat="43.076877" lon="10.844342"><ele>397.2</ele></trkpt>
<trkpt lat="43.076984" lon="10.843784"><ele>398.3</ele></trkpt>
<trkpt lat="43.077349" lon="10.843398"><ele>398.7</ele></trkpt>
<trkpt lat="43.077478" lon="10.843205"><ele>398.1</ele></trkpt>
<trkpt lat="43.078014" lon="10.842218"><ele>400.4</ele></trkpt>
<trkpt lat="43.078122" lon="10.842111"><ele>400.1</ele></trkpt>
<trkpt lat="43.078358" lon="10.842025"><ele>399.4</ele></trkpt>
<trkpt lat="43.078508" lon="10.841875"><ele>400.0</ele></trkpt>
<trkpt lat="43.078873" lon="10.841467"><ele>402.1</ele></trkpt>
<trkpt lat="43.078937" lon="10.841209"><ele>404.1</ele></trkpt>
<trkpt lat="43.078852" lon="10.840996"><ele>406.6</ele></trkpt>
<trkpt lat="43.078594" lon="10.840351"><ele>407.4</ele></trkpt>
<trkpt lat="43.078594" lon="10.840222"><ele>407.5</ele></trkpt>
<trkpt lat="43.078014" lon="10.839986"><ele>405.7</ele></trkpt>
<trkpt lat="43.077886" lon="10.839965"><ele>405.2</ele></trkpt>
<trkpt lat="43.077735" lon="10.839965"><ele>404.6</ele></trkpt>
<trkpt lat="43.077521" lon="10.839986"><ele>403.7</ele></trkpt>
<trkpt lat="43.077199" lon="10.840115"><ele>402.3</ele></trkpt>
<trkpt lat="43.076555" lon="10.840287"><ele>399.9</ele></trkpt>
<trkpt lat="43.075976" lon="10.84048"><ele>398.6</ele></trkpt>
<trkpt lat="43.075268" lon="10.840651"><ele>397.5</ele></trkpt>
<trkpt lat="43.075118" lon="10.84063"><ele>397.0</ele></trkpt>
<trkpt lat="43.074495" lon="10.840394"><ele>394.5</ele></trkpt>
<trkpt lat="43.073809" lon="10.840158"><ele>391.5</ele></trkpt>
<trkpt lat="43.073143" lon="10.839879"><ele>389.2</ele></trkpt>
<trkpt lat="43.072907" lon="10.83975"><ele>387.9</ele></trkpt>
<trkpt lat="43.072736" lon="10.839622"><ele>384.8</ele></trkpt>
<trkpt lat="43.072607" lon="10.839343"><ele>381.7</ele></trkpt>
<trkpt lat="43.072435" lon="10.838849"><ele>377.4</ele></trkpt>
<trkpt lat="43.072242" lon="10.83872"><ele>374.7</ele></trkpt>
<trkpt lat="43.072178" lon="10.838334"><ele>372.6</ele></trkpt>
<trkpt lat="43.071985" lon="10.837905"><ele>369.2</ele></trkpt>
<trkpt lat="43.071877" lon="10.83769"><ele>367.3</ele></trkpt>
<trkpt lat="43.071706" lon="10.837411"><ele>364.1</ele></trkpt>
<trkpt lat="43.071556" lon="10.837047"><ele>361.1</ele></trkpt>
<trkpt lat="43.071317" lon="10.836722"><ele>359.1</ele></trkpt>
<trkpt lat="43.071255" lon="10.836639"><ele>358.5</ele></trkpt>
<trkpt lat="43.071212" lon="10.836403"><ele>356.6</ele></trkpt>
<trkpt lat="43.070998" lon="10.835738"><ele>351.9</ele></trkpt>
<trkpt lat="43.07074" lon="10.835652"><ele>349.4</ele></trkpt>
<trkpt lat="43.070654" lon="10.835652"><ele>348.6</ele></trkpt>
<trkpt lat="43.070547" lon="10.835695"><ele>347.4</ele></trkpt>
<trkpt lat="43.070633" lon="10.835673"><ele>348.3</ele></trkpt>
<trkpt lat="43.070783" lon="10.83548"><ele>350.3</ele></trkpt>
<trkpt lat="43.070976" lon="10.835394"><ele>351.8</ele></trkpt>
<trkpt lat="43.071277" lon="10.835502"><ele>353.9</ele></trkpt>
<trkpt lat="43.071427" lon="10.835652"><ele>353.8</ele></trkpt>
<trkpt lat="43.071813" lon="10.835888"><ele>354.2</ele></trkpt>
<trkpt lat="43.072156" lon="10.836338"><ele>357.6</ele></trkpt>
<trkpt lat="43.0725" lon="10.836918"><ele>361.2</ele></trkpt>
<trkpt lat="43.072671" lon="10.837004"><ele>361.3</ele></trkpt>
<trkpt lat="43.073015" lon="10.836853"><ele>357.2</ele></trkpt>
<trkpt lat="43.073422" lon="10.836853"><ele>354.8</ele></trkpt>
<trkpt lat="43.073916" lon="10.836832"><ele>352.7</ele></trkpt>
<trkpt lat="43.074753" lon="10.836317"><ele>345.6</ele></trkpt>
<trkpt lat="43.076276" lon="10.83606"><ele>350.4</ele></trkpt>
<trkpt lat="43.0781" lon="10.83627"><ele>357.4</ele></trkpt>
<trkpt lat="43.078829" lon="10.83623"><ele>357.1</ele></trkpt>
<trkpt lat="43.079429" lon="10.8367"><ele>352.8</ele></trkpt>
<trkpt lat="43.080219" lon="10.836769"><ele>340.8</ele></trkpt>
<trkpt lat="43.081039" lon="10.83735"><ele>340.8</ele></trkpt>
<trkpt lat="43.08134" lon="10.83718"><ele>333.1</ele></trkpt>
<trkpt lat="43.081559" lon="10.83722"><ele>329.6</ele></trkpt>
<trkpt lat="43.081879" lon="10.837499"><ele>329.4</ele></trkpt>
<trkpt lat="43.08224" lon="10.83765"><ele>326.7</ele></trkpt>
<trkpt lat="43.082929" lon="10.83741"><ele>324.0</ele></trkpt>
<trkpt lat="43.08368" lon="10.83726"><ele>326.9</ele></trkpt>
<trkpt lat="43.085069" lon="10.837369"><ele>316.5</ele></trkpt>
<trkpt lat="43.086249" lon="10.837069"><ele>302.7</ele></trkpt>
<trkpt lat="43.086579" lon="10.83705"><ele>300.7</ele></trkpt>
<trkpt lat="43.086749" lon="10.83715"><ele>300.7</ele></trkpt>
<trkpt lat="43.086832" lon="10.837327"><ele>299.2</ele></trkpt>
<trkpt lat="43.08686" lon="10.83752"><ele>297.6</ele></trkpt>
<trkpt lat="43.086494" lon="10.838026"><ele>292.2</ele></trkpt>
<trkpt lat="43.086019" lon="10.83883"><ele>288.6</ele></trkpt>
<trkpt lat="43.0861" lon="10.83936"><ele>281.4</ele></trkpt>
<trkpt lat="43.08608" lon="10.839899"><ele>278.1</ele></trkpt>
<trkpt lat="43.086149" lon="10.840519"><ele>273.9</ele></trkpt>
<trkpt lat="43.08604" lon="10.84102"><ele>273.7</ele></trkpt>
<trkpt lat="43.08613" lon="10.8411"><ele>270.5</ele></trkpt>
<trkpt lat="43.0863" lon="10.84106"><ele>266.1</ele></trkpt>
<trkpt lat="43.08653" lon="10.84076"><ele>264.8</ele></trkpt>
<trkpt lat="43.08709" lon="10.84054"><ele>258.6</ele></trkpt>
<trkpt lat="43.087459" lon="10.84063"><ele>255.2</ele></trkpt>
<trkpt lat="43.087559" lon="10.840819"><ele>253.1</ele></trkpt>
<trkpt lat="43.087429" lon="10.841339"><ele>248.1</ele></trkpt>
<trkpt lat="43.087559" lon="10.84194"><ele>240.9</ele></trkpt>
<trkpt lat="43.087645" lon="10.842001"><ele>239.4</ele></trkpt>
<trkpt lat="43.08774" lon="10.84207"><ele>237.5</ele></trkpt>
<trkpt lat="43.088249" lon="10.842129"><ele>230.9</ele></trkpt>
<trkpt lat="43.08864" lon="10.841599"><ele>226.6</ele></trkpt>
<trkpt lat="43.088739" lon="10.841269"><ele>227.0</ele></trkpt>
<trkpt lat="43.08883" lon="10.84136"><ele>225.2</ele></trkpt>
<trkpt lat="43.088849" lon="10.84198"><ele>221.0</ele></trkpt>
<trkpt lat="43.088939" lon="10.842199"><ele>216.4</ele></trkpt>
<trkpt lat="43.089369" lon="10.842479"><ele>210.2</ele></trkpt>
<trkpt lat="43.08932" lon="10.84273"><ele>208.4</ele></trkpt>
<trkpt lat="43.08919" lon="10.842949"><ele>209.5</ele></trkpt>
<trkpt lat="43.08913" lon="10.84346"><ele>206.6</ele></trkpt>
<trkpt lat="43.08896" lon="10.843959"><ele>201.7</ele></trkpt>
<trkpt lat="43.088939" lon="10.84411"><ele>200.1</ele></trkpt>
<trkpt lat="43.08902" lon="10.84417"><ele>198.5</ele></trkpt>
<trkpt lat="43.08922" lon="10.84415"><ele>196.6</ele></trkpt>
<trkpt lat="43.08956" lon="10.843939"><ele>191.2</ele></trkpt>
<trkpt lat="43.089989" lon="10.843609"><ele>184.5</ele></trkpt>
<trkpt lat="43.0905" lon="10.843079"><ele>179.0</ele></trkpt>
<trkpt lat="43.091407" lon="10.841715"><ele>182.4</ele></trkpt>
<trkpt lat="43.091596" lon="10.841505"><ele>182.8</ele></trkpt>
<trkpt lat="43.091771" lon="10.841383"><ele>180.8</ele></trkpt>
<trkpt lat="43.09218" lon="10.840842"><ele>176.4</ele></trkpt>
<trkpt lat="43.092386" lon="10.840445"><ele>171.5</ele></trkpt>
<trkpt lat="43.092494" lon="10.840464"><ele>168.9</ele></trkpt>
<trkpt lat="43.092627" lon="10.840591"><ele>166.5</ele></trkpt>
<trkpt lat="43.092828" lon="10.840689"><ele>164.3</ele></trkpt>
<trkpt lat="43.093057" lon="10.84045"><ele>163.6</ele></trkpt>
<trkpt lat="43.093335" lon="10.839902"><ele>166.5</ele></trkpt>
<trkpt lat="43.093467" lon="10.839755"><ele>171.4</ele></trkpt>
<trkpt lat="43.093624" lon="10.83971"><ele>177.6</ele></trkpt>
<trkpt lat="43.093919" lon="10.839757"><ele>185.6</ele></trkpt>
<trkpt lat="43.094279" lon="10.839769"><ele>192.8</ele></trkpt>
<trkpt lat="43.094552" lon="10.839851"><ele>196.7</ele></trkpt>
<trkpt lat="43.094887" lon="10.840013"><ele>197.6</ele></trkpt>
<trkpt lat="43.09511" lon="10.840083"><ele>198.5</ele></trkpt>
<trkpt lat="43.095316" lon="10.839966"><ele>200.5</ele></trkpt>
<trkpt lat="43.095229" lon="10.839748"><ele>203.8</ele></trkpt>
<trkpt lat="43.094963" lon="10.839433"><ele>205.9</ele></trkpt>
<trkpt lat="43.094824" lon="10.838964"><ele>207.3</ele></trkpt>
<trkpt lat="43.094828" lon="10.838272"><ele>214.3</ele></trkpt>
<trkpt lat="43.094969" lon="10.837634"><ele>219.4</ele></trkpt>
<trkpt lat="43.095222" lon="10.837209"><ele>226.9</ele></trkpt>
<trkpt lat="43.095751" lon="10.836691"><ele>233.2</ele></trkpt>
<trkpt lat="43.096211" lon="10.836121"><ele>235.3</ele></trkpt>
<trkpt lat="43.09639" lon="10.836097"><ele>238.9</ele></trkpt>
<trkpt lat="43.096476" lon="10.836345"><ele>242.9</ele></trkpt>
<trkpt lat="43.096565" lon="10.836471"><ele>246.5</ele></trkpt>
<trkpt lat="43.096834" lon="10.836478"><ele>254.3</ele></trkpt>
<trkpt lat="43.097131" lon="10.836211"><ele>260.0</ele></trkpt>
<trkpt lat="43.09756" lon="10.835582"><ele>262.3</ele></trkpt>
<trkpt lat="43.097669" lon="10.835852"><ele>264.0</ele></trkpt>
<trkpt lat="43.09786" lon="10.836651"><ele>267.8</ele></trkpt>
<trkpt lat="43.09795" lon="10.836802"><ele>267.0</ele></trkpt>
<trkpt lat="43.098459" lon="10.837271"><ele>261.7</ele></trkpt>
<trkpt lat="43.099449" lon="10.837831"><ele>271.9</ele></trkpt>
<trkpt lat="43.100406" lon="10.838708"><ele>275.8</ele></trkpt>
<trkpt lat="43.100692" lon="10.838767"><ele>273.0</ele></trkpt>
<trkpt lat="43.10091" lon="10.838902"><ele>267.1</ele></trkpt>
<trkpt lat="43.10235" lon="10.840811"><ele>267.6</ele></trkpt>
<trkpt lat="43.102623" lon="10.840908"><ele>268.1</ele></trkpt>
<trkpt lat="43.102885" lon="10.840919"><ele>270.1</ele></trkpt>
<trkpt lat="43.10308" lon="10.840981"><ele>273.4</ele></trkpt>
<trkpt lat="43.103928" lon="10.841889"><ele>278.4</ele></trkpt>
<trkpt lat="43.104643" lon="10.842266"><ele>278.9</ele></trkpt>
<trkpt lat="43.104812" lon="10.842395"><ele>279.8</ele></trkpt>
<trkpt lat="43.105169" lon="10.843017"><ele>281.1</ele></trkpt>
<trkpt lat="43.105389" lon="10.843341"><ele>282.8</ele></trkpt>
<trkpt lat="43.10593" lon="10.843711"><ele>285.5</ele></trkpt>
<trkpt lat="43.106172" lon="10.844002"><ele>284.9</ele></trkpt>
<trkpt lat="43.106564" lon="10.844235"><ele>293.7</ele></trkpt>
<trkpt lat="43.107069" lon="10.844647"><ele>298.5</ele></trkpt>
<trkpt lat="43.107299" lon="10.844706"><ele>291.3</ele></trkpt>
<trkpt lat="43.107456" lon="10.844835"><ele>291.2</ele></trkpt>
<trkpt lat="43.107539" lon="10.845006"><ele>293.6</ele></trkpt>
<trkpt lat="43.107603" lon="10.845263"><ele>296.6</ele></trkpt>
<trkpt lat="43.108164" lon="10.845174"><ele>291.3</ele></trkpt>
<trkpt lat="43.108309" lon="10.845226"><ele>290.6</ele></trkpt>
<trkpt lat="43.108599" lon="10.845511"><ele>287.4</ele></trkpt>
<trkpt lat="43.108714" lon="10.845565"><ele>284.3</ele></trkpt>
<trkpt lat="43.110331" lon="10.84513"><ele>261.7</ele></trkpt>
<trkpt lat="43.110451" lon="10.845232"><ele>261.0</ele></trkpt>
<trkpt lat="43.110507" lon="10.84534"><ele>261.8</ele></trkpt>
<trkpt lat="43.11076" lon="10.845656"><ele>263.8</ele></trkpt>
<trkpt lat="43.11091" lon="10.845655"><ele>262.8</ele></trkpt>
<trkpt lat="43.111301" lon="10.845517"><ele>264.5</ele></trkpt>
<trkpt lat="43.111451" lon="10.845318"><ele>263.4</ele></trkpt>
<trkpt lat="43.111589" lon="10.845049"><ele>262.2</ele></trkpt>
<trkpt lat="43.111806" lon="10.844802"><ele>262.9</ele></trkpt>
<trkpt lat="43.112242" lon="10.844674"><ele>259.3</ele></trkpt>
<trkpt lat="43.11245" lon="10.844715"><ele>260.5</ele></trkpt>
<trkpt lat="43.112591" lon="10.844636"><ele>257.8</ele></trkpt>
<trkpt lat="43.11319" lon="10.844052"><ele>249.3</ele></trkpt>
<trkpt lat="43.113205" lon="10.843858"><ele>248.4</ele></trkpt>
<trkpt lat="43.113086" lon="10.84377"><ele>246.3</ele></trkpt>
<trkpt lat="43.112743" lon="10.843724"><ele>241.4</ele></trkpt>
<trkpt lat="43.112452" lon="10.843629"><ele>239.2</ele></trkpt>
<trkpt lat="43.112233" lon="10.843264"><ele>234.4</ele></trkpt>
<trkpt lat="43.112135" lon="10.843166"><ele>231.7</ele></trkpt>
<trkpt lat="43.11203" lon="10.843123"><ele>229.7</ele></trkpt>
<trkpt lat="43.11173" lon="10.843181"><ele>228.0</ele></trkpt>
<trkpt lat="43.111677" lon="10.843123"><ele>226.4</ele></trkpt>
<trkpt lat="43.11166" lon="10.843"><ele>224.3</ele></trkpt>
<trkpt lat="43.111894" lon="10.842646"><ele>222.0</ele></trkpt>
<trkpt lat="43.112246" lon="10.8424"><ele>220.9</ele></trkpt>
<trkpt lat="43.112528" lon="10.842421"><ele>221.2</ele></trkpt>
<trkpt lat="43.112873" lon="10.842314"><ele>219.4</ele></trkpt>
<trkpt lat="43.113197" lon="10.842099"><ele>210.7</ele></trkpt>
<trkpt lat="43.113623" lon="10.842013"><ele>213.5</ele></trkpt>
<trkpt lat="43.113757" lon="10.841939"><ele>213.5</ele></trkpt>
<trkpt lat="43.113871" lon="10.841735"><ele>211.5</ele></trkpt>
<trkpt lat="43.113925" lon="10.841668"><ele>211.0</ele></trkpt>
<trkpt lat="43.114004" lon="10.841644"><ele>211.1</ele></trkpt>
<trkpt lat="43.11431" lon="10.841708"><ele>210.9</ele></trkpt>
<trkpt lat="43.114621" lon="10.841858"><ele>206.9</ele></trkpt>
<trkpt lat="43.114832" lon="10.841836"><ele>205.7</ele></trkpt>
<trkpt lat="43.114887" lon="10.84181"><ele>206.2</ele></trkpt>
<trkpt lat="43.114972" lon="10.841704"><ele>207.4</ele></trkpt>
<trkpt lat="43.115035" lon="10.841338"><ele>208.0</ele></trkpt>
<trkpt lat="43.115146" lon="10.841098"><ele>210.8</ele></trkpt>
<trkpt lat="43.115237" lon="10.840978"><ele>213.4</ele></trkpt>
<trkpt lat="43.116099" lon="10.840487"><ele>217.6</ele></trkpt>
<trkpt lat="43.116166" lon="10.840468"><ele>218.0</ele></trkpt>
<trkpt lat="43.116367" lon="10.840527"><ele>221.9</ele></trkpt>
<trkpt lat="43.116705" lon="10.840509"><ele>225.2</ele></trkpt>
<trkpt lat="43.116917" lon="10.840555"><ele>227.4</ele></trkpt>
<trkpt lat="43.117033" lon="10.840549"><ele>228.8</ele></trkpt>
<trkpt lat="43.117593" lon="10.840282"><ele>231.9</ele></trkpt>
<trkpt lat="43.117826" lon="10.840266"><ele>235.1</ele></trkpt>
<trkpt lat="43.117893" lon="10.840233"><ele>235.7</ele></trkpt>
<trkpt lat="43.118333" lon="10.839872"><ele>242.2</ele></trkpt>
<trkpt lat="43.118508" lon="10.839777"><ele>242.1</ele></trkpt>
<trkpt lat="43.118604" lon="10.839781"><ele>244.6</ele></trkpt>
<trkpt lat="43.119248" lon="10.840153"><ele>256.4</ele></trkpt>
<trkpt lat="43.119503" lon="10.840268"><ele>259.5</ele></trkpt>
<trkpt lat="43.119572" lon="10.840365"><ele>260.7</ele></trkpt>
<trkpt lat="43.119772" lon="10.840818"><ele>262.0</ele></trkpt>
<trkpt lat="43.11994" lon="10.841112"><ele>265.4</ele></trkpt>
<trkpt lat="43.120337" lon="10.841509"><ele>272.8</ele></trkpt>
<trkpt lat="43.120568" lon="10.84163"><ele>273.9</ele></trkpt>
<trkpt lat="43.120674" lon="10.841737"><ele>274.4</ele></trkpt>
<trkpt lat="43.120805" lon="10.842084"><ele>276.0</ele></trkpt>
<trkpt lat="43.120977" lon="10.842444"><ele>278.4</ele></trkpt>
<trkpt lat="43.121059" lon="10.842913"><ele>278.8</ele></trkpt>
<trkpt lat="43.121067" lon="10.84323"><ele>279.4</ele></trkpt>
<trkpt lat="43.121088" lon="10.843322"><ele>279.2</ele></trkpt>
<trkpt lat="43.121172" lon="10.843453"><ele>278.3</ele></trkpt>
<trkpt lat="43.121286" lon="10.843542"><ele>278.2</ele></trkpt>
<trkpt lat="43.121791" lon="10.843806"><ele>278.4</ele></trkpt>
<trkpt lat="43.122265" lon="10.844095"><ele>285.2</ele></trkpt>
<trkpt lat="43.123051" lon="10.844497"><ele>286.2</ele></trkpt>
<trkpt lat="43.123706" lon="10.844956"><ele>288.5</ele></trkpt>
<trkpt lat="43.123836" lon="10.844992"><ele>289.0</ele></trkpt>
<trkpt lat="43.124568" lon="10.84501"><ele>294.3</ele></trkpt>
<trkpt lat="43.124645" lon="10.845048"><ele>296.8</ele></trkpt>
<trkpt lat="43.124989" lon="10.845334"><ele>308.6</ele></trkpt>
<trkpt lat="43.125914" lon="10.845864"><ele>316.1</ele></trkpt>
<trkpt lat="43.126359" lon="10.84627"><ele>326.3</ele></trkpt>
<trkpt lat="43.126469" lon="10.846388"><ele>328.9</ele></trkpt>
<trkpt lat="43.126603" lon="10.846602"><ele>331.7</ele></trkpt>
<trkpt lat="43.126799" lon="10.846958"><ele>339.3</ele></trkpt>
<trkpt lat="43.127731" lon="10.849135"><ele>361.0</ele></trkpt>
<trkpt lat="43.128008" lon="10.849678"><ele>365.7</ele></trkpt>
<trkpt lat="43.128136" lon="10.849769"><ele>367.6</ele></trkpt>
<trkpt lat="43.129117" lon="10.850236"><ele>365.8</ele></trkpt>
<trkpt lat="43.129531" lon="10.850325"><ele>367.6</ele></trkpt>
<trkpt lat="43.130049" lon="10.850543"><ele>371.5</ele></trkpt>
<trkpt lat="43.130523" lon="10.850819"><ele>379.0</ele></trkpt>
<trkpt lat="43.13076" lon="10.851006"><ele>381.0</ele></trkpt>
<trkpt lat="43.130986" lon="10.851241"><ele>378.7</ele></trkpt>
<trkpt lat="43.131091" lon="10.851399"><ele>375.2</ele></trkpt>
<trkpt lat="43.131318" lon="10.851837"><ele>374.6</ele></trkpt>
<trkpt lat="43.131489" lon="10.852042"><ele>377.8</ele></trkpt>
<trkpt lat="43.132107" lon="10.852322"><ele>376.4</ele></trkpt>
<trkpt lat="43.132351" lon="10.852482"><ele>372.7</ele></trkpt>
<trkpt lat="43.132603" lon="10.85262"><ele>371.3</ele></trkpt>
<trkpt lat="43.132727" lon="10.85265"><ele>372.2</ele></trkpt>
<trkpt lat="43.133218" lon="10.852617"><ele>371.1</ele></trkpt>
<trkpt lat="43.133624" lon="10.852658"><ele>373.6</ele></trkpt>
<trkpt lat="43.13507" lon="10.852838"><ele>386.6</ele></trkpt>
<trkpt lat="43.135352" lon="10.852945"><ele>389.3</ele></trkpt>
<trkpt lat="43.13578" lon="10.853287"><ele>393.6</ele></trkpt>
<trkpt lat="43.136029" lon="10.853664"><ele>394.2</ele></trkpt>
<trkpt lat="43.1362" lon="10.853831"><ele>395.6</ele></trkpt>
<trkpt lat="43.136581" lon="10.854065"><ele>400.3</ele></trkpt>
<trkpt lat="43.137121" lon="10.853997"><ele>402.1</ele></trkpt>
<trkpt lat="43.137841" lon="10.853767"><ele>405.3</ele></trkpt>
<trkpt lat="43.137945" lon="10.853733"><ele>405.3</ele></trkpt>
<trkpt lat="43.138159" lon="10.853664"><ele>406.5</ele></trkpt>
<trkpt lat="43.138864" lon="10.854054"><ele>418.3</ele></trkpt>
<trkpt lat="43.13937" lon="10.854392"><ele>423.0</ele></trkpt>
<trkpt lat="43.14024" lon="10.85473"><ele>434.4</ele></trkpt>
<trkpt lat="43.140496" lon="10.854696"><ele>437.3</ele></trkpt>
<trkpt lat="43.140654" lon="10.854698"><ele>439.3</ele></trkpt>
<trkpt lat="43.141269" lon="10.85487"><ele>448.3</ele></trkpt>
<trkpt lat="43.141593" lon="10.855111"><ele>457.5</ele></trkpt>
<trkpt lat="43.141858" lon="10.855366"><ele>461.3</ele></trkpt>
<trkpt lat="43.14233" lon="10.856048"><ele>473.8</ele></trkpt>
<trkpt lat="43.142776" lon="10.857095"><ele>485.3</ele></trkpt>
<trkpt lat="43.143099" lon="10.857423"><ele>491.1</ele></trkpt>
<trkpt lat="43.143314" lon="10.857694"><ele>491.4</ele></trkpt>
<trkpt lat="43.143418" lon="10.857721"><ele>493.7</ele></trkpt>
<trkpt lat="43.143683" lon="10.85767"><ele>502.3</ele></trkpt>
<trkpt lat="43.143753" lon="10.857657"><ele>504.5</ele></trkpt>
<trkpt lat="43.14385" lon="10.857591"><ele>506.9</ele></trkpt>
<trkpt lat="43.143977" lon="10.857408"><ele>512.8</ele></trkpt>
<trkpt lat="43.144078" lon="10.857095"><ele>513.8</ele></trkpt>
<trkpt lat="43.144105" lon="10.856702"><ele>510.1</ele></trkpt>
<trkpt lat="43.144142" lon="10.856509"><ele>508.7</ele></trkpt>
<trkpt lat="43.14423" lon="10.856478"><ele>510.6</ele></trkpt>
<trkpt lat="43.14435" lon="10.856579"><ele>514.4</ele></trkpt>
<trkpt lat="43.144373" lon="10.856737"><ele>516.0</ele></trkpt>
<trkpt lat="43.144451" lon="10.856922"><ele>518.6</ele></trkpt>
<trkpt lat="43.144494" lon="10.857006"><ele>519.5</ele></trkpt>
<trkpt lat="43.144532" lon="10.857016"><ele>520.2</ele></trkpt>
<trkpt lat="43.144628" lon="10.85739"><ele>515.7</ele></trkpt>
<trkpt lat="43.144693" lon="10.857462"><ele>514.6</ele></trkpt>
<trkpt lat="43.144773" lon="10.857482"><ele>514.8</ele></trkpt>
<trkpt lat="43.145084" lon="10.857335"><ele>520.8</ele></trkpt>
<trkpt lat="43.145202" lon="10.857251"><ele>522.0</ele></trkpt>
<trkpt lat="43.145424" lon="10.857033"><ele>522.9</ele></trkpt>
<trkpt lat="43.145539" lon="10.856921"><ele>525.7</ele></trkpt>
<trkpt lat="43.145713" lon="10.856786"><ele>530.6</ele></trkpt>
<trkpt lat="43.145885" lon="10.856727"><ele>534.0</ele></trkpt>
<trkpt lat="43.146215" lon="10.856686"><ele>531.2</ele></trkpt>
<trkpt lat="43.146358" lon="10.856652"><ele>530.7</ele></trkpt>
<trkpt lat="43.146632" lon="10.8565"><ele>530.5</ele></trkpt>
<trkpt lat="43.147001" lon="10.856279"><ele>523.1</ele></trkpt>
<trkpt lat="43.147135" lon="10.856182"><ele>519.9</ele></trkpt>
</trkseg></trk></gpx>